{"type": "FeatureCollection", "features": [{"type": "Feature", "geometry": {"type": "MultiPolygon", "coordinates": [[[[-73.89680883223774, 40.79580844515977], [-73.89796839783742, 40.79564483916199], [-73.89919434249983, 40.79650245601821], [-73.89788253240185, 40.79711653214703], [-73.89680883223774, 40.79580844515977]]], [[[-73.87287195837754, 40.785975027804014], [-73.8783068005765, 40.785356620508445], [-73.88830725732264, 40.78700634478622], [-73.88940460807085, 40.787791280074515], [-73.89056971575059, 40.790107636212866], [-73.89218182984939, 40.79039426960896], [-73.89282283610936, 40.79281708195142], [-73.8917928968658, 40.79677524575864], [-73.89060785824257, 40.79776750713773], [-73.8871867416842, 40.79829965046024], [-73.88391718206042, 40.79579502195942], [-73.8778942239403, 40.79431924480302], [-73.8758448384829, 40.79315850721026], [-73.87119724046633, 40.78999989667401], [-73.87080888567434, 40.78789669168303], [-73.87287195837754, 40.785975027804014]]], [[[-73.89833036270556, 40.80241282094003], [-73.89646668834571, 40.8007904708913], [-73.89864038714995, 40.799101164621334], [-73.89978738800845, 40.79950955437452], [-73.89971563817444, 40.80079880850276], [-73.8993874857105, 40.80193566507025], [-73.89833036270556, 40.80241282094003]]], [[[-73.78833349834532, 40.83466712975934], [-73.78931223606624, 40.83446488655341], [-73.78951019872316, 40.83536404252571], [-73.78845700015215, 40.83530991431539], [-73.78833349834532, 40.83466712975934]]], [[[-73.80222295355264, 40.841634813144076], [-73.80263811156152, 40.84108115326707], [-73.80694608641599, 40.84146244718634], [-73.80680801372391, 40.842489139987514], [-73.80393073307408, 40.84259407254989], [-73.80222295355264, 40.841634813144076]]], [[[-73.79018745195005, 40.858609917386154], [-73.78898385013125, 40.85847084373988], [-73.78796264288073, 40.85347472093554], [-73.78641733510767, 40.852144576469655], [-73.78433474208562, 40.85177615757236], [-73.78357825260389, 40.84926638680219], [-73.78244952709215, 40.84934115401567], [-73.78149386587496, 40.848580475825756], [-73.78142920347918, 40.847456345357216], [-73.783050749408, 40.84549682317584], [-73.78347481249254, 40.843654738109706], [-73.78154308949135, 40.84078478253003], [-73.78132522577035, 40.83929178135653], [-73.78188455720282, 40.837650276604734], [-73.78410164591313, 40.83672552935794], [-73.78557796850949, 40.83792711322535], [-73.78573509298691, 40.839234231775805], [-73.78730353132516, 40.83967472450101], [-73.78823199262378, 40.84219608477209], [-73.79148034725685, 40.84680205271369], [-73.791362881068, 40.84823230239025], [-73.7897571107061, 40.84953146928761], [-73.79012439171832, 40.85118991219456], [-73.79144640027788, 40.85277157192416], [-73.79129282160648, 40.8545840259768], [-73.79205778470714, 40.856513086234486], [-73.79018745195005, 40.858609917386154]]], [[[-73.76783205637167, 40.85444220574203], [-73.76938529139699, 40.852536133996786], [-73.76860817687101, 40.850788395378075], [-73.7695967431147, 40.847594519098195], [-73.76789492672653, 40.8452894335196], [-73.76901389181124, 40.84509734272184], [-73.77157218833243, 40.847500058580344], [-73.77088920221178, 40.849751771338], [-73.77246892938172, 40.85170914738927], [-73.77219223055423, 40.85998663859693], [-73.77084562360571, 40.860101012856724], [-73.76947305424014, 40.859330136668554], [-73.76533243995291, 40.855043595124855], [-73.76783205637167, 40.85444220574203]]], [[[-73.78452431937967, 40.860477063147805], [-73.78470517053266, 40.8591743814423], [-73.78657148225409, 40.85923189058594], [-73.78685886773303, 40.86004505783955], [-73.78452431937967, 40.860477063147805]]], [[[-73.7666896584193, 40.86709778162453], [-73.76779449382018, 40.866781173765375], [-73.76760072096499, 40.867496386541426], [-73.7666896584193, 40.86709778162453]]], [[[-73.77217786492288, 40.871981110689305], [-73.76990710668554, 40.870476944470255], [-73.7728804266524, 40.871245263430254], [-73.77217786492288, 40.871981110689305]]], [[[-73.90893235241589, 40.872157347970614], [-73.90774270784561, 40.872845952111554], [-73.90665099539478, 40.8757525041926], [-73.9068282285684, 40.87663155188876], [-73.9094983211747, 40.878776732181706], [-73.91148913190445, 40.879018858809516], [-73.91578515638106, 40.87571694506479], [-73.91775669395919, 40.87566362786067], [-73.91978381299063, 40.8764214361064], [-73.92206723651887, 40.87857241480292], [-73.92453549396535, 40.87905106885192], [-73.92058641877226, 40.887182678619766], [-73.91459039243315, 40.904119002196374], [-73.91264932172878, 40.908070811955355], [-73.9116547240221, 40.91341785189669], [-73.91011276625107, 40.915398734144546], [-73.85946778766896, 40.90051720977025], [-73.85886401316354, 40.90171169504955], [-73.85957883014497, 40.90244084277218], [-73.85816000004856, 40.90230571020271], [-73.85601023389269, 40.90530598362688], [-73.85692398180078, 40.90597417011102], [-73.85423776686882, 40.907032868254355], [-73.85374103630761, 40.90778791673556], [-73.8547107833966, 40.90800630994295], [-73.85458940588242, 40.908939499298306], [-73.85295618487679, 40.91035304418005], [-73.85227451682732, 40.909854099644015], [-73.8510711618383, 40.91037152022192], [-73.85347522399947, 40.9075302930241], [-73.85092059362833, 40.90661649448953], [-73.85017317552096, 40.90750786565137], [-73.84481886985013, 40.90552994967465], [-73.84489264975495, 40.90419086679705], [-73.8413868930466, 40.90417274153396], [-73.8406532745744, 40.901403512855175], [-73.83924604741867, 40.899501154049126], [-73.83964812813, 40.89733053534065], [-73.83839199189745, 40.894067008049014], [-73.82326489879229, 40.88998702106102], [-73.82336601341291, 40.89107513570742], [-73.82285335072692, 40.891206829096205], [-73.79300652649339, 40.883358736880375], [-73.79743815457287, 40.87513533295313], [-73.79981389580338, 40.87415984971621], [-73.80087270458255, 40.87159011989389], [-73.80252284756597, 40.87050664469679], [-73.80317726501727, 40.87168315507056], [-73.80269939786245, 40.87221469129426], [-73.80339117523086, 40.87250503763107], [-73.80431849468228, 40.87115974106797], [-73.80358314939251, 40.86994806102858], [-73.80282959893201, 40.87007629403045], [-73.80302203685265, 40.86915511979647], [-73.80554495995764, 40.86895600501217], [-73.8057448608033, 40.8696925765528], [-73.80841596818799, 40.871189693367555], [-73.80673074905107, 40.86877001307835], [-73.80487266169938, 40.868233302832245], [-73.80464604502923, 40.866647116436845], [-73.80300388108952, 40.867041836568795], [-73.8030604148455, 40.86581513370679], [-73.80225816157765, 40.8656082064108], [-73.79780377219309, 40.872256132273925], [-73.79479044681605, 40.87320048403397], [-73.79316703778711, 40.87705563906646], [-73.7944029458625, 40.87764184299894], [-73.79384702788165, 40.878594459790776], [-73.78926161019817, 40.88120541462361], [-73.78912020636918, 40.880080210993434], [-73.79006332860769, 40.87959466151484], [-73.789523093688, 40.878998127060505], [-73.78588496976651, 40.87906723175259], [-73.78438168107729, 40.878420531167855], [-73.78470964026614, 40.87635799434513], [-73.78719087560506, 40.87273055372913], [-73.78526152075715, 40.871745322332394], [-73.78439311743477, 40.87278409492871], [-73.78306853426031, 40.87215357592273], [-73.78320175426299, 40.87067036085378], [-73.78521800238875, 40.869136524130084], [-73.78795446145416, 40.86984541906357], [-73.79139032586126, 40.86814130746609], [-73.79265095767069, 40.86413665318474], [-73.79147317119892, 40.86220710624896], [-73.79190454927512, 40.86082956271199], [-73.79351029757719, 40.860551681290836], [-73.79486983866904, 40.858075551258], [-73.79447566976829, 40.85700448766907], [-73.7948902354297, 40.85656202421893], [-73.79685461759921, 40.85626435821336], [-73.7979853348085, 40.85484893259568], [-73.79872255600087, 40.85491440117259], [-73.79904776834832, 40.85405156055037], [-73.79780522990598, 40.85194959859705], [-73.79819365996846, 40.85059256140662], [-73.79968740734375, 40.849477634592645], [-73.80009912704746, 40.848298414402535], [-73.8014673526455, 40.84877021372536], [-73.8041755793241, 40.853340120189124], [-73.8045424727661, 40.85473937751505], [-73.80352718252547, 40.85560344630712], [-73.8050643875628, 40.86173087618124], [-73.8062457193077, 40.86142748444244], [-73.80582041215632, 40.86003461246943], [-73.80723863215412, 40.86037280313713], [-73.80816306112644, 40.85974534956732], [-73.80767772098902, 40.85852945182874], [-73.8111045714928, 40.862464468730764], [-73.8138456615502, 40.863901758029634], [-73.81641392102728, 40.86118062770385], [-73.81381802586874, 40.86054827867072], [-73.81273146495046, 40.858877541947756], [-73.81230602708418, 40.854162026473205], [-73.81640870908018, 40.854082255114704], [-73.81720828353123, 40.851828165777306], [-73.8168587387075, 40.85095737599868], [-73.81604706927786, 40.85077792604359], [-73.81532344002714, 40.84857757069262], [-73.81617026811986, 40.84701547486435], [-73.81571903834563, 40.846293443498794], [-73.81420573129107, 40.84601018088836], [-73.81336027094684, 40.843893821911976], [-73.81499955039784, 40.843504452641845], [-73.81616417815101, 40.844426323224376], [-73.81669068165955, 40.84397496582524], [-73.81541503896413, 40.842391327783396], [-73.81478277740277, 40.839076487957605], [-73.81645257929443, 40.837769825924795], [-73.81608401401114, 40.834590346265195], [-73.8147638769196, 40.830816799993485], [-73.8126520640051, 40.82755877961473], [-73.81384974845061, 40.82680352872404], [-73.8140230126381, 40.825874938203306], [-73.81308215093007, 40.82494454683971], [-73.81403745843352, 40.82448346949387], [-73.81327417399031, 40.82396666581954], [-73.81177284871205, 40.82433980617279], [-73.80909234633549, 40.825873398164056], [-73.80699654610879, 40.82532231281294], [-73.80599159848938, 40.82082355849006], [-73.80441057110669, 40.818832043741594], [-73.80059027357895, 40.81793343697282], [-73.79759032777329, 40.81650753207008], [-73.79738112573536, 40.8157635048956], [-73.79902816314001, 40.815541134938655], [-73.80145800517316, 40.812940947203096], [-73.8030477539426, 40.81244870822836], [-73.80365392095106, 40.8125795935696], [-73.80319870538824, 40.81350524057211], [-73.8063293256602, 40.81613795932012], [-73.80663156323897, 40.81559499146078], [-73.8056844290842, 40.815033424911555], [-73.80502632435889, 40.8122521953563], [-73.80391186062475, 40.812110497881136], [-73.80235340279003, 40.81003705895898], [-73.79853765964961, 40.80958707552966], [-73.79073479983781, 40.80658882885656], [-73.79028410874172, 40.80481710368879], [-73.79224529219165, 40.80399636431483], [-73.79338982286725, 40.804204330036235], [-73.80175278635588, 40.80904200284779], [-73.80405363821474, 40.80875165808883], [-73.80992029081797, 40.81292915226175], [-73.8164801554654, 40.813853232883915], [-73.8304806957032, 40.81064962609813], [-73.8318386874116, 40.80926188456992], [-73.83168804504807, 40.804952878456454], [-73.83743612125883, 40.80620264318314], [-73.84025952896259, 40.81144303678272], [-73.83953766669555, 40.81581918222215], [-73.84019020523161, 40.817188273056345], [-73.83892733295295, 40.81900121010708], [-73.83904904481194, 40.822688748145836], [-73.84222047999327, 40.82834188794381], [-73.84188643774445, 40.830713176534445], [-73.83882717280252, 40.833810223870145], [-73.83972014515537, 40.83956540598611], [-73.84030282537185, 40.83952431394499], [-73.83941220310876, 40.8346000651074], [-73.84310691599906, 40.82979413931983], [-73.83982926241693, 40.82157150149602], [-73.84028506253645, 40.81962626612635], [-73.84198684834045, 40.81877437390813], [-73.84617302872054, 40.81067666443042], [-73.84746772168272, 40.81090394285423], [-73.84821486515595, 40.81246290949827], [-73.8506024620385, 40.81393020004203], [-73.85159325007882, 40.81430438725282], [-73.85206357413176, 40.81372606016076], [-73.84903294180677, 40.81211891007851], [-73.84996696802818, 40.8085780188436], [-73.84841640961652, 40.807368775795304], [-73.84837953721414, 40.806360186334544], [-73.84748822641912, 40.80544890914913], [-73.84870097964965, 40.8047317862772], [-73.85585446335388, 40.80451464613951], [-73.85612542563202, 40.805281681753364], [-73.85812705699665, 40.805466520551846], [-73.85907662566417, 40.80997555810209], [-73.86033575829839, 40.80950379064158], [-73.86765646284468, 40.81058376193714], [-73.87077804885936, 40.81448689548778], [-73.8765199603363, 40.81613106342413], [-73.87673185506817, 40.815386496486546], [-73.87165777683398, 40.81325426197598], [-73.8681121914008, 40.80675183283182], [-73.8717450937392, 40.801547366116125], [-73.87287711063708, 40.80084008904613], [-73.87814218819923, 40.801319290306424], [-73.87816581140154, 40.80255168374491], [-73.87921348407687, 40.802795326835074], [-73.8850517233671, 40.802130906798006], [-73.88954478026055, 40.80580707619276], [-73.89463252351095, 40.806232331922075], [-73.89509836487399, 40.80686363917352], [-73.89829494887951, 40.806097570698306], [-73.89852656516604, 40.8054343090979], [-73.90219185700563, 40.80482326064533], [-73.90452954095734, 40.80317023565186], [-73.90830303542087, 40.798959135920086], [-73.91168831241195, 40.796623769888754], [-73.91372255973513, 40.79678943926122], [-73.92024068158875, 40.799613687870284], [-73.92292710065784, 40.802373294642855], [-73.92762788658848, 40.802695665481515], [-73.92728271943602, 40.803508264417026], [-73.92872607489883, 40.80410362472468], [-73.93228261982792, 40.80836397362296], [-73.93287412001965, 40.81041404342895], [-73.93233582201997, 40.81763040538414], [-73.93360592036706, 40.832789530520756], [-73.93299639001609, 40.83567878918868], [-73.92861574822354, 40.84467686502995], [-73.92256178946535, 40.8531889115273], [-73.91341462193655, 40.86336749370069], [-73.91276271995461, 40.86302917415757], [-73.91227278976979, 40.863632148996665], [-73.91267634020386, 40.864021111602405], [-73.91035861622774, 40.86669786057073], [-73.90949664378591, 40.86883115613829], [-73.90864943177584, 40.87138578380327], [-73.90893235241589, 40.872157347970614]]]]}, "properties": {"boro_name": "Bronx", "boro_code": 2}}, {"type": "Feature", "geometry": {"type": "MultiPolygon", "coordinates": [[[[-74.05050806403247, 40.56642203416081], [-74.04931640362086, 40.56588774778042], [-74.05002620158643, 40.565318180621134], [-74.05074409977213, 40.565887125935014], [-74.05050806403247, 40.56642203416081]]], [[[-74.05314036821107, 40.57770271554573], [-74.05406044939873, 40.57711644523886], [-74.05489778210803, 40.5777824409198], [-74.05484560052173, 40.57994579142758], [-74.05368629150418, 40.580548759614395], [-74.05293190639816, 40.57990247466584], [-74.05314036821107, 40.57770271554573]]], [[[-74.15945602438187, 40.64144833332403], [-74.16111242522173, 40.64183545373718], [-74.16146036005293, 40.64429496976486], [-74.15798759540647, 40.64386178896605], [-74.1574334920099, 40.643302857778984], [-74.15945602438187, 40.64144833332403]]], [[[-74.08570754378212, 40.64888055337045], [-74.07980996428704, 40.64838331298792], [-74.0765065715286, 40.64696881818334], [-74.07445282563698, 40.645067488723235], [-74.07385653684726, 40.645424816099606], [-74.07201843213238, 40.64441193294082], [-74.07147777322616, 40.64280829377497], [-74.0703292371539, 40.642526128132296], [-74.07323829183596, 40.64218473608234], [-74.07024658698661, 40.64220697429687], [-74.07308689819385, 40.64163681496961], [-74.0728900560963, 40.640922672876016], [-74.06998354653898, 40.6410689426142], [-74.07307725837745, 40.64051331179631], [-74.07257275212609, 40.6378719098759], [-74.07353447593367, 40.63764172263223], [-74.07283184410434, 40.63366603282565], [-74.07332821316406, 40.63205844299032], [-74.07298474612325, 40.63030897898144], [-74.06802173543952, 40.628787585185435], [-74.0729117793656, 40.62999637940647], [-74.07225500955772, 40.62460875019393], [-74.06998300752397, 40.62141766690337], [-74.06143961457276, 40.61437802069957], [-74.06033680792015, 40.61190188021964], [-74.05892163455029, 40.61105605540062], [-74.05649565936768, 40.607247648256205], [-74.05381069805442, 40.60591271885298], [-74.05303330743814, 40.601466470699734], [-74.05342199900849, 40.600516071544], [-74.05287153843389, 40.59986725546705], [-74.06215274432546, 40.59202504054198], [-74.06503332356279, 40.58899099887045], [-74.06477833032996, 40.588488310725666], [-74.07579819540713, 40.57830925065061], [-74.08090683283064, 40.57468980475155], [-74.08920295103194, 40.567174036207525], [-74.08998259932838, 40.56738001153309], [-74.09123807762192, 40.56650661322812], [-74.09404968409731, 40.56298164761103], [-74.09611847135459, 40.562587574490074], [-74.09829030823701, 40.559332614156816], [-74.1007996392811, 40.55832182111581], [-74.10184637674705, 40.556216988779994], [-74.10309839111538, 40.55590464145113], [-74.10509470498079, 40.55312902839255], [-74.10734831283652, 40.55414815203114], [-74.11028457387543, 40.55149635741751], [-74.11278846958068, 40.547884263226855], [-74.11654532176985, 40.547872393146555], [-74.11804133083712, 40.54730661289456], [-74.11948690777253, 40.54569180328949], [-74.12249960095468, 40.544858107713004], [-74.13071184272671, 40.53453507543617], [-74.1335644349804, 40.53151117480556], [-74.13690799076352, 40.5292819188826], [-74.13883030730551, 40.52988935670605], [-74.1406109270312, 40.534130600190124], [-74.14048158869618, 40.535081317021024], [-74.135075093257, 40.53524117062301], [-74.13340691483275, 40.535898114922496], [-74.12798728527221, 40.54071097748308], [-74.12767003295681, 40.54338134627288], [-74.12975805027102, 40.545748022714164], [-74.13110690077072, 40.546387296217], [-74.13364262288293, 40.546854962936315], [-74.13750833508853, 40.545577557238644], [-74.13794966050756, 40.54600033758064], [-74.14219782944363, 40.541965389188036], [-74.14176721342456, 40.539387327867416], [-74.1423383157749, 40.53894919040833], [-74.14176587793767, 40.53854204099975], [-74.14455507323936, 40.53594693127206], [-74.14977717489461, 40.5338878698067], [-74.15069553618278, 40.532545838937075], [-74.1524566093669, 40.53206794400088], [-74.15970134520207, 40.52729599283152], [-74.16222577962044, 40.52720227488986], [-74.16999711161473, 40.52304577245235], [-74.17135832896363, 40.52345319237533], [-74.17342635928969, 40.522569159917424], [-74.17761992136639, 40.51932993503618], [-74.18116548663468, 40.52065583620162], [-74.1848311647976, 40.51934135860081], [-74.19521339999073, 40.50997765295564], [-74.19658658122074, 40.50995436718272], [-74.1996467723775, 40.51141151735945], [-74.20010022801566, 40.512940323220676], [-74.2075686699848, 40.5118561526329], [-74.20935080475661, 40.51104079658424], [-74.21263191376391, 40.50735860955323], [-74.21578892252384, 40.505495958667375], [-74.21764473746109, 40.50333089951026], [-74.22520703860555, 40.501774040932084], [-74.22715636630599, 40.50229527261769], [-74.23124443244185, 40.50182686031892], [-74.2370055082394, 40.49985506577053], [-74.23966845041296, 40.49770292494183], [-74.24421157785878, 40.49756543688387], [-74.24676102774195, 40.49613398761179], [-74.24917156868959, 40.49656729705333], [-74.25110411485801, 40.49893419785412], [-74.25340575135321, 40.50051414577958], [-74.25523408934781, 40.50393456923247], [-74.25545272937909, 40.508032776305534], [-74.25331579805132, 40.50986150454093], [-74.25307524977133, 40.51214073504982], [-74.25216570187291, 40.512782813619815], [-74.25212591397062, 40.513710379799946], [-74.24851245601484, 40.5162257184038], [-74.24751811835532, 40.51573586477861], [-74.24431751097607, 40.518513227043655], [-74.24232477833276, 40.518326525021735], [-74.24003142061719, 40.52031311901846], [-74.24293235036511, 40.521227161132764], [-74.24280157009575, 40.524007296286655], [-74.24396835839082, 40.524998933586566], [-74.2415492890359, 40.53087489126388], [-74.24221152819236, 40.534604139602855], [-74.24496192484641, 40.53724338859932], [-74.24442748922033, 40.53801643339892], [-74.24547647854257, 40.540633000791566], [-74.2476777803961, 40.543125403302795], [-74.24613743768708, 40.54569644693193], [-74.24363807144756, 40.54766619523531], [-74.24179850544299, 40.54700162778553], [-74.24045847559492, 40.547625484300106], [-74.23650104019474, 40.55043014360966], [-74.23635395672936, 40.552367513792014], [-74.23489865800808, 40.55300521667125], [-74.23353549801203, 40.552466004796244], [-74.23060876282462, 40.555578642946884], [-74.2287242997478, 40.556297017139194], [-74.221431953254, 40.55537877945289], [-74.22086715093401, 40.5559402022777], [-74.21974356930723, 40.55461267207242], [-74.21379034458961, 40.55640128835267], [-74.21199843164413, 40.55837806748092], [-74.21116899542135, 40.560486290872994], [-74.2113799785878, 40.563492205274805], [-74.20816851102191, 40.570719423414246], [-74.20704010235723, 40.57640894023968], [-74.20591732509398, 40.578616647553595], [-74.20598341988722, 40.580423933373176], [-74.20440076433692, 40.58371294584193], [-74.20413021376592, 40.588773393924285], [-74.2046460894321, 40.589285745465816], [-74.19983581331716, 40.59346801441196], [-74.19751357718711, 40.59679898603673], [-74.19729933937757, 40.59802023827332], [-74.19875958205299, 40.60171197517622], [-74.20221849851056, 40.60596967961648], [-74.20281628374593, 40.608270827967296], [-74.20244374449526, 40.613284693931924], [-74.20045324444482, 40.61632799680633], [-74.20091423238284, 40.6177988223986], [-74.20034850652026, 40.61828582926978], [-74.20158494435563, 40.623498333681404], [-74.20107662790335, 40.62407834658976], [-74.20098625565413, 40.629344148106306], [-74.20013810584054, 40.6314821576157], [-74.19449480774458, 40.636449521947874], [-74.19462310145192, 40.63739118356366], [-74.186524968976, 40.643388662171446], [-74.18477310833008, 40.644045244585094], [-74.18338303939252, 40.64352248835844], [-74.1837936734454, 40.64441148862557], [-74.1829800010379, 40.64479439161924], [-74.17933117249432, 40.64440051177251], [-74.1787907843687, 40.6424985034595], [-74.17548417914053, 40.64346229451268], [-74.17529691545057, 40.6450750768189], [-74.1741537399046, 40.64508009422505], [-74.1714949639567, 40.64177040017784], [-74.16906431628867, 40.64213001679857], [-74.16563409763799, 40.641214371375646], [-74.16544310082398, 40.64228054670853], [-74.16494139041183, 40.64220899988928], [-74.16519041758235, 40.640642305779366], [-74.16404731516643, 40.63994665879951], [-74.16345445682, 40.63985656039822], [-74.16324577932505, 40.64095741918556], [-74.16167534694235, 40.64061078476676], [-74.16228465252085, 40.638765652772285], [-74.15270060752239, 40.63719243556218], [-74.15269700449667, 40.63764184172463], [-74.15119545007178, 40.63773078853613], [-74.15112965090485, 40.63850068007389], [-74.14979386126176, 40.637892780864085], [-74.14877792005885, 40.638876251127705], [-74.14484204603143, 40.63935381470647], [-74.14395302701146, 40.63888075604147], [-74.14336103010835, 40.63970984518107], [-74.14253970701282, 40.639537525618735], [-74.14229766980966, 40.64030580709363], [-74.13435269573631, 40.641886797405135], [-74.13125581180257, 40.64159683076379], [-74.12930713186852, 40.64033741121094], [-74.12415578445011, 40.64013471664002], [-74.12278153180642, 40.64133922906246], [-74.11769850319506, 40.641543133788474], [-74.11116129469256, 40.64509642318127], [-74.10886489895967, 40.64557912880396], [-74.09880066885808, 40.645047034310764], [-74.09468500921261, 40.645555717734766], [-74.08570754378212, 40.64888055337045]]]]}, "properties": {"boro_name": "Staten Island", "boro_code": 5}}, {"type": "Feature", "geometry": {"type": "MultiPolygon", "coordinates": [[[[-73.86327471071958, 40.58387684853179], [-73.86896292210412, 40.58169379478858], [-73.87000313642916, 40.582636614815875], [-73.87115922675432, 40.58687388796725], [-73.86981356482099, 40.589460926788206], [-73.86635052164097, 40.59189267656471], [-73.86327273492829, 40.590908075692546], [-73.86125299377375, 40.587988085921154], [-73.86167447867463, 40.58614479499368], [-73.86327471071958, 40.58387684853179]]], [[[-73.86952707548932, 40.598713750354435], [-73.86967070711499, 40.59668856362207], [-73.87020899836229, 40.59695423278934], [-73.86952707548932, 40.598713750354435]]], [[[-73.91990064335977, 40.599600522592766], [-73.91626393108342, 40.59816113731272], [-73.91309332564268, 40.59416799711504], [-73.91322340744603, 40.59213805357044], [-73.91482496106998, 40.59151821536821], [-73.91596485962259, 40.59210586287688], [-73.91786246291421, 40.594710293253286], [-73.92167775452769, 40.59726705058253], [-73.92207447255055, 40.59871859270923], [-73.91990064335977, 40.599600522592766]]], [[[-73.8701949148995, 40.598996405901886], [-73.87108141811481, 40.598901147470094], [-73.87049411914776, 40.60260444620455], [-73.87026280564918, 40.60168122225856], [-73.8701949148995, 40.598996405901886]]], [[[-73.85243335807017, 40.597333397795225], [-73.85716132350709, 40.596043697864665], [-73.8604442053407, 40.596471905596324], [-73.86335999147613, 40.600322202771125], [-73.86112814224542, 40.602550331074255], [-73.85482595782972, 40.60186719535363], [-73.85276838155836, 40.60094885402586], [-73.85076748001559, 40.598839443837306], [-73.85243335807017, 40.597333397795225]]], [[[-73.86702905185567, 40.60374338885388], [-73.86768194154216, 40.60307076667734], [-73.86830808464616, 40.60313916114614], [-73.86793505372705, 40.60396113545291], [-73.86702905185567, 40.60374338885388]]], [[[-73.84673651471101, 40.60485301485165], [-73.84488451351703, 40.60454324764103], [-73.84492199095145, 40.60368207917762], [-73.84647141490359, 40.60408299648859], [-73.84673651471101, 40.60485301485165]]], [[[-73.86702399475162, 40.60806817876938], [-73.86874317559173, 40.60703517927922], [-73.86868468826752, 40.60824115818382], [-73.86702399475162, 40.60806817876938]]], [[[-73.83587601623168, 40.60563690704294], [-73.8361015662885, 40.60736279382325], [-73.83428342620135, 40.609185681350404], [-73.83446265686189, 40.607192532943316], [-73.83587601623168, 40.60563690704294]]], [[[-73.86966442958501, 40.6065401234129], [-73.87109330768082, 40.60469417399469], [-73.87105656646139, 40.60628508849423], [-73.8724557981188, 40.60818553034854], [-73.87300122724768, 40.610555458459864], [-73.8710387011171, 40.60972358252654], [-73.86966442958501, 40.6065401234129]]], [[[-73.8504762496644, 40.612342219057176], [-73.84956537299634, 40.6115296550505], [-73.84942939580654, 40.609855532554725], [-73.85306610161899, 40.607952157587626], [-73.85426911931475, 40.60782795432843], [-73.85643428685475, 40.610692022434755], [-73.85322338065063, 40.61013804394092], [-73.8504762496644, 40.612342219057176]]], [[[-73.8447349265296, 40.6139691718015], [-73.84070815291503, 40.61163403860366], [-73.83797936685491, 40.61309939400075], [-73.83622799751551, 40.61218997787918], [-73.83752223985508, 40.61085865149745], [-73.83877369719279, 40.6080691031033], [-73.84140987488928, 40.60643836366948], [-73.84045743915125, 40.60557357363596], [-73.84122845055781, 40.60552788857425], [-73.84158414581366, 40.604477230528], [-73.84361933184951, 40.60439711213887], [-73.84472206354238, 40.605734975898756], [-73.84614193991221, 40.60477840450969], [-73.84740716002659, 40.60507522046391], [-73.8472726583086, 40.60582270279981], [-73.84883193185257, 40.60632629297008], [-73.84594734015654, 40.6080346842113], [-73.84575485121813, 40.61126798757348], [-73.84507534677711, 40.61233424428203], [-73.845696332668, 40.612934361797954], [-73.8447349265296, 40.6139691718015]]], [[[-73.83370152272127, 40.62097860184683], [-73.83401888134493, 40.61438116641963], [-73.83733296587165, 40.61535607975399], [-73.83496222645583, 40.61778030881181], [-73.83570733216762, 40.61972916695194], [-73.83370152272127, 40.62097860184683]]], [[[-73.83362242002201, 40.62260263933205], [-73.8336821495259, 40.621381305686405], [-73.83492807534081, 40.62099804007312], [-73.83464424766935, 40.62199681592365], [-73.83362242002201, 40.62260263933205]]], [[[-73.8502309076287, 40.623320823622045], [-73.8484778158128, 40.62241878479054], [-73.85082737598162, 40.62033057706856], [-73.8565571040893, 40.61971658203766], [-73.85710914017012, 40.62097389613505], [-73.85517130927302, 40.62195933773924], [-73.85456628106748, 40.62082527656808], [-73.85180005267516, 40.6205958213314], [-73.85132016651369, 40.62190653590743], [-73.85231226879132, 40.62287167033516], [-73.8502309076287, 40.623320823622045]]], [[[-73.86212401541101, 40.623990372942494], [-73.86303876770805, 40.62330299176936], [-73.86339385835943, 40.62401235617825], [-73.86212401541101, 40.623990372942494]]], [[[-73.84589458447094, 40.624971815313785], [-73.84474611970708, 40.62479519716303], [-73.84309043788637, 40.623362687148735], [-73.84520042270508, 40.62298162759552], [-73.84520557917331, 40.624354032070485], [-73.84589458447094, 40.624971815313785]]], [[[-73.84048472674716, 40.627495288527754], [-73.8397269664689, 40.627487747629885], [-73.84058484167714, 40.62613443856859], [-73.84154142586036, 40.62626445455555], [-73.84127575980823, 40.62693767880287], [-73.84044645651664, 40.62658622483681], [-73.84048472674716, 40.627495288527754]]], [[[-73.86575831319405, 40.61850144995793], [-73.87395306206795, 40.61583941623556], [-73.87862188757221, 40.61593537869041], [-73.87951577316615, 40.616561519796406], [-73.87973527002059, 40.61892614465802], [-73.87779098888831, 40.62165224256051], [-73.86645484055248, 40.62825538680704], [-73.865187862763, 40.62766280991836], [-73.86472766045426, 40.626525541913495], [-73.86650860322545, 40.623754008017904], [-73.86493256071745, 40.62111495888482], [-73.86575831319405, 40.61850144995793]]], [[[-73.8473435066699, 40.62909473971625], [-73.84955404755291, 40.62493961850558], [-73.8580043092287, 40.62472901319988], [-73.85786309317038, 40.62844490266744], [-73.85650550977597, 40.62909735372662], [-73.8561347984124, 40.62828091127287], [-73.85221536588143, 40.62755483070321], [-73.8484686819617, 40.62964333075315], [-73.8473435066699, 40.62909473971625]]], [[[-73.853000146445, 40.63202284225334], [-73.85167530497701, 40.63073744770996], [-73.8522400823109, 40.63034437985566], [-73.85350402563262, 40.63086107993412], [-73.85564154686146, 40.62995773729203], [-73.8585583634798, 40.630458288195584], [-73.85748256277608, 40.632766643524185], [-73.85522635669413, 40.63289686641614], [-73.85476657030142, 40.63356941126049], [-73.85251699199969, 40.63374093205044], [-73.853000146445, 40.63202284225334]]], [[[-73.84638458909862, 40.6352857681914], [-73.84767715067399, 40.63295902094505], [-73.84913692498479, 40.63210938926781], [-73.85008470942395, 40.63230721667974], [-73.84806855653812, 40.63784261194972], [-73.8466791484023, 40.63873171175705], [-73.84427265333407, 40.636692345929525], [-73.84491843346878, 40.63575094491375], [-73.84638458909862, 40.6352857681914]]], [[[-73.92483287559027, 40.71528291204132], [-73.92223466477621, 40.71285595436289], [-73.92074853115805, 40.71053364895871], [-73.9218918463265, 40.70939609671035], [-73.91180710069435, 40.7034349520266], [-73.91290404121959, 40.702361891296654], [-73.91067882671248, 40.701045970068726], [-73.91180820104488, 40.69993800262182], [-73.90426018345657, 40.69570037144263], [-73.90579597009139, 40.69412715601615], [-73.9013984066204, 40.69158999203775], [-73.90188776254817, 40.69107772057581], [-73.9004246511309, 40.68818389887682], [-73.90116155060393, 40.68787793535556], [-73.896526442364, 40.682403299241564], [-73.8941746326718, 40.68528324817056], [-73.89258303102238, 40.68349191138974], [-73.89015418672899, 40.685003989804464], [-73.88962787578687, 40.684236454755485], [-73.88452250891402, 40.68668474909489], [-73.879506412209, 40.691146768843154], [-73.87402053240578, 40.694191295720024], [-73.86891762756683, 40.69514656201736], [-73.86601993220731, 40.681919587027984], [-73.86410096679134, 40.68237285029261], [-73.86328640844614, 40.67907719656106], [-73.86234580535127, 40.67916478564428], [-73.86038519920736, 40.67125171099047], [-73.85763323174372, 40.67165619403884], [-73.85568461155144, 40.6638674923721], [-73.85842950857197, 40.66345336143441], [-73.85761537251577, 40.66011893315461], [-73.86035978139907, 40.659645829513956], [-73.86317083274511, 40.65827651244546], [-73.8626977823354, 40.657618309011575], [-73.86327623068608, 40.65694121532814], [-73.86264117343165, 40.65566753700766], [-73.86098917353912, 40.655209767105156], [-73.85722330984366, 40.65027867054137], [-73.85837605317673, 40.64727441531346], [-73.85716978298213, 40.643678558885966], [-73.86201301027748, 40.642887041020074], [-73.86732291072713, 40.639871983952816], [-73.86867282895088, 40.640925079203384], [-73.87001708273583, 40.64407137240542], [-73.87119172949642, 40.645305356312434], [-73.87257043102892, 40.64557561235963], [-73.87921658230898, 40.65459108377297], [-73.87971979034303, 40.654375929776315], [-73.87318593330954, 40.645445013361595], [-73.87327031255242, 40.643903214344896], [-73.87007958407017, 40.63921169401699], [-73.8679970966813, 40.63811526520961], [-73.87347939154502, 40.636285545798785], [-73.87498189550895, 40.6369447141675], [-73.87718761923279, 40.63868037760332], [-73.87835076562651, 40.63887161374509], [-73.88047801022178, 40.64111896455313], [-73.88006714132425, 40.64200344662672], [-73.88139306230622, 40.64234733997911], [-73.88214832562572, 40.64374372784057], [-73.88341999203027, 40.64452381564947], [-73.88557762148908, 40.64404095029235], [-73.8876366864042, 40.64632545126504], [-73.8876407216673, 40.64780239000722], [-73.88995674148603, 40.64926200244803], [-73.89108330605372, 40.64879257569599], [-73.8894507422767, 40.64717395559642], [-73.88820050726657, 40.64714086952908], [-73.88809441935732, 40.646212786549306], [-73.88602529679086, 40.64366145040645], [-73.88373578763787, 40.64245034918839], [-73.87953888017081, 40.638217839320674], [-73.87887362648671, 40.63843940524679], [-73.87714434868597, 40.63597649800751], [-73.87820590489783, 40.63457294366257], [-73.8836445172823, 40.63094331213857], [-73.88404726149385, 40.62956011854649], [-73.88263248433404, 40.628274273126884], [-73.88369231571502, 40.62755937391399], [-73.8851295402378, 40.62882725867136], [-73.887526737062, 40.62833182448249], [-73.89042299743556, 40.62627859879769], [-73.89148720748322, 40.62448172241514], [-73.89518797857498, 40.62250102100554], [-73.91590211083172, 40.6319496031431], [-73.91749826644379, 40.631410175904044], [-73.91659169782925, 40.63045185797296], [-73.90313231786646, 40.624602256196795], [-73.90042604054139, 40.62164756467011], [-73.89647475412451, 40.62142824608893], [-73.89561842775312, 40.61975259916211], [-73.89662424028313, 40.61712890782727], [-73.8954181943246, 40.61441401010707], [-73.89095414564684, 40.61283404731708], [-73.89141430474191, 40.61212544769948], [-73.894042279015, 40.61142833356316], [-73.89354938853045, 40.61100089763643], [-73.89054936434655, 40.61211910978467], [-73.88979163130149, 40.61168591567452], [-73.88980307538792, 40.6109283090487], [-73.89225205821356, 40.609181288998826], [-73.89334621420019, 40.60674344623465], [-73.89850211043296, 40.60529669018285], [-73.90013576047352, 40.605603335089135], [-73.90109557726666, 40.607008428641144], [-73.90055052315707, 40.61043989796753], [-73.907241693827, 40.61655150188756], [-73.9088369111078, 40.61731164662762], [-73.90964406040364, 40.61657537149951], [-73.90900782730672, 40.61577278690725], [-73.90221442765915, 40.610343316032015], [-73.90189710069488, 40.605729611795766], [-73.90520530979805, 40.6049081829094], [-73.9059746117786, 40.6063840287043], [-73.90861472394567, 40.60666083776883], [-73.90984528326649, 40.60616830550709], [-73.90832536835174, 40.604073373918595], [-73.91092270021181, 40.60350547610068], [-73.91352500916959, 40.60392913916151], [-73.91673556486202, 40.60681456155015], [-73.9161647503773, 40.6105155750761], [-73.91449542205983, 40.611653223664845], [-73.91493418790435, 40.61395815505494], [-73.91386053060684, 40.61464226907087], [-73.91433966039311, 40.61493888099054], [-73.91662804371158, 40.613443589265444], [-73.91573181927136, 40.61183084451377], [-73.91805286362063, 40.61027534308018], [-73.91801584702742, 40.60886652988325], [-73.91950358918928, 40.60797490397522], [-73.9192413501154, 40.60738541386061], [-73.91329854635799, 40.602250351246404], [-73.90914118247706, 40.601635608414234], [-73.89933608368156, 40.603561420671745], [-73.89568858266918, 40.60301007029327], [-73.89164318857348, 40.60344731992844], [-73.88718494178198, 40.605322663773535], [-73.88396434882077, 40.605549140426405], [-73.88271777210468, 40.604178837179326], [-73.8833914527329, 40.60301632252458], [-73.88091265607564, 40.596506427970816], [-73.87878760360752, 40.588030461051375], [-73.87671672482075, 40.584914430200776], [-73.87970231664, 40.58013510069814], [-73.88174676983894, 40.57915880721243], [-73.89552381007171, 40.576769818436375], [-73.89711513107494, 40.580238438168436], [-73.89660012312439, 40.58312489552901], [-73.8988045858541, 40.587464254275034], [-73.90088030290644, 40.588053524382076], [-73.90436592432977, 40.586960162021526], [-73.90672165702064, 40.587970436301845], [-73.90683620925472, 40.58699358604215], [-73.91088554171192, 40.58594764500446], [-73.9119181178366, 40.586427965433934], [-73.91148579005622, 40.591108753018496], [-73.91198840283418, 40.59428238786164], [-73.91513679883606, 40.59878409407355], [-73.92147002357947, 40.6019145922976], [-73.92324120433767, 40.60107939346003], [-73.92400307854614, 40.59973014522791], [-73.9250762560669, 40.59992460579022], [-73.92950671202787, 40.60270923350429], [-73.92901905320194, 40.60367521127389], [-73.9311747616174, 40.6038504064347], [-73.9319622706444, 40.603121637615416], [-73.93148823885087, 40.602107729130516], [-73.9250479145893, 40.5982845816942], [-73.9218819570818, 40.59512452176688], [-73.92037174969481, 40.59474274191014], [-73.91788506186863, 40.59282585142072], [-73.91458333215583, 40.58987958958909], [-73.91454699795436, 40.58874232600696], [-73.91919033172357, 40.58596249414764], [-73.9247570979969, 40.58563257509922], [-73.92776143639114, 40.588660609758804], [-73.92395294850094, 40.59113985052504], [-73.92815905123096, 40.58882524958999], [-73.93003427450552, 40.58942599650071], [-73.93053560681564, 40.59026366146167], [-73.92971282036603, 40.593120048248025], [-73.93001650952083, 40.59409453606213], [-73.9328265485289, 40.59480374496912], [-73.9312459249482, 40.59163697699583], [-73.93109178164585, 40.589326565572115], [-73.92970255020445, 40.587607355474155], [-73.93134917824067, 40.587328167229465], [-73.92808232971589, 40.58669769393761], [-73.92815700695617, 40.585864523066064], [-73.92744400140178, 40.586015714454476], [-73.92529083981734, 40.584640735664635], [-73.92000618741412, 40.58466465273651], [-73.91569387717736, 40.58621442339274], [-73.91344030048302, 40.5860769633915], [-73.91255391691257, 40.58552633600621], [-73.91286173083527, 40.583070459827276], [-73.91642979504984, 40.582811132266514], [-73.91435652574026, 40.58239633807556], [-73.91178656705165, 40.58290646413515], [-73.91147523338651, 40.58184362959961], [-73.9150142040297, 40.58153929551702], [-73.92443604094977, 40.58355820344422], [-73.92963248074902, 40.583398808625454], [-73.93096003144579, 40.58272861078608], [-73.94157408083575, 40.58360755593937], [-73.9534932204868, 40.58298819826097], [-73.95330135995677, 40.58200274963345], [-73.949696724994, 40.58231940106663], [-73.94274062592515, 40.58099558955924], [-73.93250341155827, 40.58114698863906], [-73.93106028108008, 40.57626592009682], [-73.93150256744059, 40.57566050512677], [-73.93507861830437, 40.575509466010196], [-73.94393460727603, 40.57580102037534], [-73.95254341027396, 40.57422397950424], [-73.95843476359009, 40.57408881554886], [-73.9931574188674, 40.57037978943882], [-74.00205780931621, 40.57015246290175], [-74.0024870773771, 40.57173838887243], [-74.00482247799987, 40.57289022780211], [-74.01115668729264, 40.574166761858805], [-74.01201540191131, 40.574885052474194], [-74.0130271545442, 40.57785089456401], [-74.01176124257283, 40.57985408249891], [-74.0081203008027, 40.58162226871382], [-73.99803797090874, 40.581560039160316], [-73.99776522704227, 40.58058803387576], [-73.9889909355634, 40.57883509996881], [-73.98739064388405, 40.57908698306366], [-73.98588567394853, 40.58114442456474], [-73.98684478996451, 40.581232102005146], [-73.9876392579392, 40.57991759837924], [-73.98852928839945, 40.57979725848182], [-73.9916300747238, 40.581079884381836], [-73.99026244714372, 40.58461914820529], [-73.9960552882052, 40.58212890385412], [-74.00017922859409, 40.58307395074759], [-74.00035951790483, 40.5841864458804], [-73.99933976309937, 40.58486081481718], [-73.99935665157747, 40.58638136941567], [-73.9940790462178, 40.58869344199053], [-73.99534737661217, 40.58933138043995], [-74.00038207115722, 40.587133057349455], [-73.9978831125104, 40.58834343792278], [-73.9986729337556, 40.58919554993963], [-73.99844325936868, 40.59024010549442], [-73.99711168571537, 40.59127797744372], [-73.99754851058401, 40.59191757917557], [-73.99916761862079, 40.59114913581565], [-74.00023253344592, 40.591531308559304], [-73.99903131441657, 40.592312803447555], [-73.99948304872375, 40.59296919989758], [-74.00105748445719, 40.592537005062255], [-74.00363401947311, 40.59608059924293], [-74.012369816027, 40.601349257116155], [-74.0191356390289, 40.60261275450495], [-74.02054472997116, 40.603435790907724], [-74.02930882862769, 40.60459906456445], [-74.03270681479886, 40.60633106603806], [-74.03603977777915, 40.609295639001836], [-74.03669606747658, 40.61086292242116], [-74.03920557647396, 40.61343951273368], [-74.04047612021517, 40.61562526366406], [-74.04161740773601, 40.62056271454572], [-74.04187652595631, 40.62451933829389], [-74.04108754814516, 40.63009962728648], [-74.03571276150731, 40.64064015404646], [-74.0367030786914, 40.64168561987399], [-74.03407329294261, 40.6443139329639], [-74.0328429201386, 40.64356371035056], [-74.03051830863419, 40.645274425209], [-74.02820569545007, 40.64401598289026], [-74.02604948400321, 40.64626135032614], [-74.02974078211074, 40.64848602621038], [-74.0293899048662, 40.648804055113864], [-74.02507111430086, 40.64672561637844], [-74.02414566050571, 40.64761510125984], [-74.0251291195524, 40.64832318145725], [-74.02541553929463, 40.65061869708248], [-74.02605133196799, 40.650994300743086], [-74.02552971543656, 40.6514785506928], [-74.02272372795782, 40.65129732276874], [-74.02154138319226, 40.650671622911204], [-74.02089862870834, 40.65124727521828], [-74.02195900090598, 40.65222278197074], [-74.02118670027892, 40.65283983689532], [-74.02162946295499, 40.65364516521603], [-74.02114963484495, 40.654210755211565], [-74.01811897876473, 40.653885271105246], [-74.02005182454297, 40.65533594887445], [-74.01787407223817, 40.65406150233082], [-74.01639437533777, 40.65562064285075], [-74.01910843803122, 40.65736888430345], [-74.01860569460999, 40.65784587402283], [-74.01585370056827, 40.65621324055539], [-74.01543632269649, 40.65663239675965], [-74.01774232727495, 40.65809891672493], [-74.01504738221857, 40.656950386693396], [-74.01442130484554, 40.65760802195137], [-74.01745803087906, 40.6594501973867], [-74.01554165389008, 40.66075835547609], [-74.01183862056554, 40.658912837274706], [-74.01110750410311, 40.659706274580614], [-74.01402247678024, 40.66152974744004], [-74.01265358811494, 40.66198165403757], [-74.0085995696829, 40.659520923098235], [-74.00745858163897, 40.660558476209886], [-74.0103720129723, 40.66239888023251], [-74.00955074142036, 40.663267694130354], [-74.00868371591301, 40.66337201284021], [-74.00616141136322, 40.661845068990466], [-74.00568594756894, 40.662274740360495], [-74.00622698247925, 40.662787827860946], [-74.0056134868175, 40.66345839025474], [-74.00772133506703, 40.664718633019774], [-74.0071253264674, 40.66491521847428], [-74.00362862508567, 40.662734847534544], [-74.00528132177342, 40.66465700352396], [-74.00486193792659, 40.665064821938174], [-74.00113519509661, 40.66290172405509], [-73.99953152609916, 40.66439748593691], [-74.00292463516388, 40.66646231216337], [-73.99998149339123, 40.667450274908646], [-73.99924049105036, 40.66830628655996], [-73.99865580691613, 40.669514795547904], [-73.99931101098922, 40.67077263904666], [-74.00030337808884, 40.668716892497045], [-74.00221506816546, 40.66857863744121], [-74.0028948387695, 40.66734846594936], [-74.00600183319813, 40.66789036192801], [-74.00475388692327, 40.670721358945], [-74.00543926529353, 40.67092146823842], [-74.00754821618388, 40.66705174573354], [-74.00708724287811, 40.66859135853571], [-74.00985411855626, 40.66852362833537], [-74.01154017543331, 40.66508591975665], [-74.01690267361069, 40.66484660233887], [-74.0178871914939, 40.66585046628534], [-74.01888283363334, 40.671601666205405], [-74.01751037086694, 40.6710345309841], [-74.01668768368887, 40.66543706726945], [-74.01227967872792, 40.66573241415885], [-74.01087343978189, 40.669710115558374], [-74.0115428803157, 40.66978434275029], [-74.01162527521356, 40.67058102827583], [-74.01427407257732, 40.671379299181794], [-74.0129758779219, 40.67332791872092], [-74.01336378218144, 40.67359153693437], [-74.01511918663964, 40.67215699596909], [-74.01632099922307, 40.6729082695637], [-74.01457946720956, 40.67441401707157], [-74.01496392184576, 40.6746776302942], [-74.01816839280788, 40.67193924060108], [-74.0188009477692, 40.6722507648487], [-74.01727138470127, 40.673608645805494], [-74.01815361382403, 40.67437706226113], [-74.0179768500939, 40.67656791620601], [-74.01976925613235, 40.67661322491725], [-74.01825267004563, 40.67855288672589], [-74.01955261263598, 40.679029252084575], [-74.01928128102033, 40.67964814059536], [-74.01282000398868, 40.68362241649727], [-74.01213481688791, 40.6829059280251], [-74.01410549647976, 40.68171251937545], [-74.01301835422105, 40.6804123740143], [-74.00967108558883, 40.68326872771501], [-74.0107731233938, 40.68435861554089], [-74.01193259977079, 40.683887749154884], [-74.0081641459391, 40.686174717161464], [-74.00588224183232, 40.68619576889358], [-74.00297565436567, 40.69042657592069], [-74.0009615685494, 40.69012876835007], [-74.00069905841879, 40.690611857916444], [-74.0019693859211, 40.69184320882006], [-74.0017436211104, 40.69240674970546], [-73.99456979016932, 40.70437626351391], [-73.99212703535068, 40.704689642033486], [-73.99094755350794, 40.70403244213918], [-73.99009111393444, 40.704943463289055], [-73.98830332208543, 40.70454046895499], [-73.9882899911128, 40.70507065950018], [-73.98643429892708, 40.70534860741964], [-73.97927983185266, 40.70578948197428], [-73.97802067326656, 40.70429096645614], [-73.9772119633924, 40.70421392662422], [-73.97713562625398, 40.7030055814025], [-73.97596096344837, 40.704715506440515], [-73.97692749188352, 40.70279782040037], [-73.9745502338835, 40.70159034430476], [-73.9757995183147, 40.69975241800084], [-73.97318676670898, 40.701669803673674], [-73.97080524432843, 40.700097500342295], [-73.9733245610394, 40.70241265601068], [-73.97283512788735, 40.70272874074393], [-73.96982556559531, 40.70024507036798], [-73.96948655218084, 40.70051906125812], [-73.97283889974955, 40.70334642860183], [-73.96924539207357, 40.701364741883495], [-73.96898517428966, 40.701747088786526], [-73.97145657354827, 40.70350871592455], [-73.97101963118513, 40.70381561368633], [-73.97347629598468, 40.70568628339132], [-73.97254880057818, 40.70620449000375], [-73.97462966604422, 40.707681060768216], [-73.97423616968535, 40.70802438612236], [-73.97122492912226, 40.70578990041359], [-73.97105692306184, 40.70694643381665], [-73.97275756998377, 40.7088312785476], [-73.97232032139804, 40.70908288380677], [-73.97026218532287, 40.70688750428405], [-73.970180755728, 40.70492927056682], [-73.9676211477995, 40.7033485051943], [-73.9674767449303, 40.70394987095626], [-73.96929693837713, 40.70508833122967], [-73.96984864823538, 40.70800304168767], [-73.96884828669705, 40.71322763703153], [-73.96659690332669, 40.71796798139021], [-73.96515385976039, 40.71926968304736], [-73.96513713628345, 40.72034359475437], [-73.96439765915947, 40.72029673502917], [-73.96296566403016, 40.72203447712287], [-73.96153679358665, 40.72510891935465], [-73.9583307822691, 40.724411700766126], [-73.9579509621324, 40.72503643916838], [-73.96161518901998, 40.725865563074244], [-73.9610168813666, 40.728704440101716], [-73.96230391870556, 40.73311366098218], [-73.9620903444991, 40.73450799787359], [-73.9598158325267, 40.73707273787125], [-73.95693002865116, 40.7388870730715], [-73.95323299037705, 40.73899268313818], [-73.95038748197699, 40.73828483712565], [-73.94644229140863, 40.73678062626313], [-73.94719983367119, 40.7353551781141], [-73.94557048457217, 40.7366123039104], [-73.94239443542429, 40.73542574994751], [-73.94114746701953, 40.73415292753754], [-73.93974607754154, 40.73106547547205], [-73.93808900912056, 40.72974684626046], [-73.9295802069088, 40.72761282070865], [-73.92786431997047, 40.72582667905829], [-73.92561470516623, 40.720061662212444], [-73.92481798943699, 40.72026513747531], [-73.92451999415134, 40.71961273042421], [-73.92481555677266, 40.718486835905985], [-73.9288910810599, 40.717713311164204], [-73.92970762282206, 40.717040203803165], [-73.92947356921461, 40.71572145262113], [-73.93210478113062, 40.71504259926925], [-73.9312406705949, 40.71372481088467], [-73.93264693956344, 40.71300073028622], [-73.93093227547739, 40.709165311254104], [-73.93025038849085, 40.708927912919926], [-73.93184635118119, 40.71254724913815], [-73.9304226389901, 40.71319163126941], [-73.9308519013403, 40.714902985592765], [-73.92843881814593, 40.715530949575744], [-73.92890242854061, 40.7165728123179], [-73.92458407107215, 40.717950240741466], [-73.92305500014334, 40.71634266479336], [-73.92483287559027, 40.71528291204132]]]]}, "properties": {"boro_name": "Brooklyn", "boro_code": 3}}, {"type": "Feature", "geometry": {"type": "MultiPolygon", "coordinates": [[[[-73.83902964248091, 40.59625348474865], [-73.83303504965288, 40.592742101730195], [-73.83403034912313, 40.59140845038405], [-73.83256110970062, 40.591325729776585], [-73.83246148069867, 40.59030479057106], [-73.83359681259319, 40.58932862547895], [-73.83664249160995, 40.58957207712937], [-73.83865480129005, 40.5909288171683], [-73.83948958143621, 40.59254713982214], [-73.84059858452794, 40.59297849129278], [-73.84098756626553, 40.592412220518845], [-73.84378161417662, 40.59354420675994], [-73.8435260073294, 40.59424632611089], [-73.83902964248091, 40.59625348474865]]], [[[-73.81003548752513, 40.60265429692025], [-73.81029011586067, 40.59899167007234], [-73.81157550345533, 40.5981411992595], [-73.81497829408181, 40.60217636966106], [-73.81484063710245, 40.60399924090645], [-73.81320862394762, 40.60435543908541], [-73.81003548752513, 40.60265429692025]]], [[[-73.80031807729931, 40.60706440184489], [-73.796347611338, 40.60578800285338], [-73.79660165163033, 40.604423800595484], [-73.80242464702228, 40.604222439901925], [-73.80394299194667, 40.60558823323397], [-73.8030700992605, 40.60639179485238], [-73.80172588055038, 40.606450556156005], [-73.80031807729931, 40.60706440184489]]], [[[-73.82718282107055, 40.60791977809121], [-73.82590092720771, 40.60646593064943], [-73.82861671457663, 40.605838484137564], [-73.82815085191218, 40.607950289832935], [-73.82718282107055, 40.60791977809121]]], [[[-73.79665699659029, 40.60896091507127], [-73.79530511083743, 40.60650137250126], [-73.79640447212773, 40.60619185418581], [-73.7978974694112, 40.606868810410916], [-73.80107067504782, 40.60717936691699], [-73.80386831780451, 40.606549545983945], [-73.80099421230568, 40.608672097910585], [-73.79665699659029, 40.60896091507127]]], [[[-73.83587601623168, 40.60563690704294], [-73.83446265686189, 40.607192532943316], [-73.83428342620135, 40.609185681350404], [-73.83352025331256, 40.60859370486183], [-73.83240677103569, 40.60965566916186], [-73.83026299815582, 40.608549842824075], [-73.82991889866882, 40.60677075119957], [-73.83125878911667, 40.605953190208595], [-73.83275028159085, 40.60533888355452], [-73.83587601623168, 40.60563690704294]]], [[[-73.82607472604548, 40.60843779954607], [-73.82771104235994, 40.608398668130654], [-73.8280507726006, 40.61004629686528], [-73.82688326414811, 40.609596678069394], [-73.82607472604548, 40.60843779954607]]], [[[-73.76669139771178, 40.614254655450026], [-73.76516400829203, 40.61375420268659], [-73.76508330393702, 40.61205362367528], [-73.76229944090429, 40.61135920604591], [-73.76172413788882, 40.61184724275768], [-73.76023635756977, 40.61082086495028], [-73.76155051905893, 40.60903136580079], [-73.75998446974843, 40.610879377846715], [-73.7594444157369, 40.61034730202599], [-73.75648245326464, 40.61017734608197], [-73.74721567818867, 40.61217883965439], [-73.74685539024357, 40.61157410005961], [-73.74576150178679, 40.611991654748714], [-73.74339731588086, 40.60747217106807], [-73.73840394453433, 40.603121136287264], [-73.73835617702468, 40.597600477804534], [-73.73885520265665, 40.59678311594174], [-73.73798981846915, 40.594556043244985], [-73.74291424530846, 40.59483215904351], [-73.74665511464745, 40.59429569490212], [-73.75148111579594, 40.591468385862576], [-73.75350449817816, 40.59095197126983], [-73.76134311678325, 40.591726633850385], [-73.77735319926101, 40.590093815391896], [-73.78878406873127, 40.587450288867245], [-73.81352448727559, 40.5834731490467], [-73.83386923172182, 40.577649897608936], [-73.86255286029149, 40.56681001230082], [-73.86572546406634, 40.56650378580241], [-73.88041490293793, 40.561471570348125], [-73.89501734885607, 40.55726010812485], [-73.90346067954323, 40.556619051799515], [-73.90691391033214, 40.555603572230034], [-73.94047161197727, 40.54286312131299], [-73.94028129189857, 40.55157555870409], [-73.93938405627657, 40.554796871799574], [-73.93683777099592, 40.55678136470192], [-73.93221653720164, 40.55765795289319], [-73.9261572327542, 40.56155260972307], [-73.91766081900086, 40.56282614968643], [-73.91220200769321, 40.565054569849934], [-73.91007760883505, 40.56491967587885], [-73.90615471755417, 40.56268776849032], [-73.90287143330079, 40.56351486420607], [-73.90161118167697, 40.56275144987175], [-73.89613262445305, 40.56535842756681], [-73.89533259419748, 40.56634090417397], [-73.8956186197342, 40.56687763449415], [-73.89314119161196, 40.56839539844571], [-73.889594924492, 40.567941890234025], [-73.884896782202, 40.56849958487686], [-73.88445975335586, 40.56789283675886], [-73.88121987918436, 40.568775581013576], [-73.87830322053708, 40.568693867268145], [-73.85044385149195, 40.58213024358135], [-73.84521517459075, 40.581579713894314], [-73.83929737266975, 40.58186401349401], [-73.83868061854339, 40.58271004163899], [-73.8358408009742, 40.582878939362104], [-73.82852471261212, 40.58485422038237], [-73.82784670807484, 40.586137456468975], [-73.823261572582, 40.58746824128066], [-73.82145971991773, 40.58676992492122], [-73.81474784672456, 40.59058812617222], [-73.80989929913352, 40.59227095388649], [-73.80901841432076, 40.593345609720934], [-73.80480575004528, 40.591468959587814], [-73.80416569103039, 40.59185470983277], [-73.80804688683968, 40.59365031287616], [-73.8078921897251, 40.594307923981425], [-73.80603347280267, 40.59555149765474], [-73.80464046899161, 40.59490707260523], [-73.80392744479632, 40.59310606972991], [-73.80243846290311, 40.59264006383509], [-73.80258875504289, 40.59438474740671], [-73.80511185479912, 40.59715104799808], [-73.80292155267875, 40.59887297197987], [-73.79387366084671, 40.59960670858908], [-73.79153971412026, 40.600363313748076], [-73.7878557488172, 40.60311334463531], [-73.7865033564862, 40.603250206178984], [-73.78768902814275, 40.601330951957486], [-73.79033378979446, 40.59919828434144], [-73.79124272166956, 40.59662652165127], [-73.79037896334776, 40.594751965913055], [-73.78917959368803, 40.595185866719326], [-73.78916558855904, 40.59788275807968], [-73.78350560905312, 40.60256343874272], [-73.7831366383313, 40.603589602046114], [-73.78395674485063, 40.60486526297043], [-73.78349084244985, 40.60549576261449], [-73.77856806939954, 40.60964366342899], [-73.77547924055109, 40.60974052018879], [-73.77416577139452, 40.608651400988876], [-73.7748982523166, 40.605219002255375], [-73.77603607413981, 40.60252495565891], [-73.77823203524598, 40.60036173971333], [-73.77990294207429, 40.600745406725984], [-73.78199231614119, 40.598977215061524], [-73.78132973998126, 40.597753037446914], [-73.78018334426073, 40.59721256970323], [-73.77904364405245, 40.597649399323494], [-73.77742174810766, 40.598812404361325], [-73.77627647523339, 40.60108370858758], [-73.77497207353781, 40.601744487091906], [-73.7737181027182, 40.59824076789891], [-73.76890472549098, 40.59839705641079], [-73.7711557024036, 40.599481768765514], [-73.77018588274095, 40.60274882332507], [-73.77057104143103, 40.604756299787255], [-73.76910851369472, 40.60961554957392], [-73.77122891225676, 40.61037905814711], [-73.77235885626209, 40.61150631756266], [-73.77378104179118, 40.61128430946827], [-73.77399306247031, 40.612448026407996], [-73.77347356533306, 40.613625647383365], [-73.76669139771178, 40.614254655450026]]], [[[-73.78478547486449, 40.617980721835444], [-73.7832255453002, 40.61557873072323], [-73.78079376503526, 40.61458756709235], [-73.78070887195288, 40.61402680900586], [-73.78371299347512, 40.61187334670783], [-73.7850718538507, 40.61185141469715], [-73.78871402336279, 40.60999277489202], [-73.79087659100064, 40.607695589287495], [-73.79159895008112, 40.607809510119296], [-73.791804157375, 40.60964788764158], [-73.78953790769849, 40.61001777974277], [-73.79017032338821, 40.61156639015275], [-73.78939733426343, 40.6126938844994], [-73.78549898289548, 40.614059450065795], [-73.78496522705201, 40.61604591692705], [-73.78625946345426, 40.619109898396495], [-73.78585459350117, 40.61977406839296], [-73.78507784902267, 40.619966613580594], [-73.78478547486449, 40.617980721835444]]], [[[-73.76670827781243, 40.61491086618551], [-73.76825288003394, 40.61487772516936], [-73.7739769201883, 40.616003575671456], [-73.76873454607978, 40.62090110426617], [-73.76745926884587, 40.62051132206121], [-73.76670827781243, 40.61491086618551]]], [[[-73.8336821495259, 40.621381305686405], [-73.83303086384625, 40.623067360007326], [-73.83355923880335, 40.62393603500251], [-73.83269995491808, 40.62422803677803], [-73.8325129938866, 40.6230103043778], [-73.8336821495259, 40.621381305686405]]], [[[-73.79783533398518, 40.62740871657151], [-73.79566256726096, 40.626114004327746], [-73.79921493427769, 40.62408471298846], [-73.79403741688613, 40.62563519595492], [-73.79362927481345, 40.6251564761949], [-73.79809093107174, 40.62306294824431], [-73.79951085673741, 40.621175533020946], [-73.79992057632705, 40.61857524016594], [-73.80172498640165, 40.61996700873171], [-73.80096292242341, 40.617772369397024], [-73.80128049504093, 40.6158798397475], [-73.80270343867812, 40.6135806523217], [-73.80508906012298, 40.61343256041947], [-73.80476592616557, 40.61580099137088], [-73.80575302222276, 40.6166948575383], [-73.80565945060557, 40.61760025534372], [-73.80764116896117, 40.62119965469224], [-73.80698502381061, 40.623871998829934], [-73.80251577946913, 40.62632913769235], [-73.8001117714566, 40.626927441987036], [-73.80092841565046, 40.62752410489565], [-73.79783533398518, 40.62740871657151]]], [[[-73.81307233892618, 40.62926109964266], [-73.81352502122891, 40.62730617268588], [-73.81258556038128, 40.62837191618368], [-73.8112943220765, 40.62470377900032], [-73.812100453343, 40.62110059681489], [-73.81024066504997, 40.61648764065419], [-73.81089990481617, 40.616218471340915], [-73.81200717773366, 40.61717937148336], [-73.81449543302435, 40.622394945305324], [-73.8141827855964, 40.623694631558045], [-73.81679073502562, 40.626348918121124], [-73.81382899493175, 40.626135077644115], [-73.81627026043992, 40.627145805917095], [-73.81730576927642, 40.630621973797815], [-73.81637181200172, 40.63137272824912], [-73.8150678844146, 40.63116405857796], [-73.813917332198, 40.630776392218145], [-73.81307233892618, 40.62926109964266]]], [[[-73.83401888134493, 40.61438116641963], [-73.83370152272127, 40.62097860184683], [-73.83254808933042, 40.621751186292904], [-73.8327402318547, 40.622539383851866], [-73.8321148048619, 40.62271626477314], [-73.83067982778849, 40.625812090448264], [-73.83076901685125, 40.626752762579066], [-73.83247393097163, 40.627575791309596], [-73.83289548956775, 40.62890347873292], [-73.83196080768144, 40.62965272987927], [-73.8311408641739, 40.63274939532593], [-73.8334060797922, 40.638501355899], [-73.83221658819181, 40.63892849022075], [-73.82808567353281, 40.635879726836556], [-73.8254739404932, 40.63579501943015], [-73.8244303249705, 40.636216521040716], [-73.82419331921297, 40.639954072163], [-73.82337592129355, 40.63898765589756], [-73.82107505533321, 40.62973377456619], [-73.81973384601801, 40.62771230408704], [-73.81796414839569, 40.62710556569672], [-73.8176979659327, 40.62596162249621], [-73.8161148342955, 40.62460465517297], [-73.81672998058576, 40.62387151407256], [-73.81795284720687, 40.62409328011736], [-73.81889389047463, 40.62262915803256], [-73.8169700782087, 40.62149155710108], [-73.81653074259718, 40.62200251824535], [-73.81571468044626, 40.621489551516966], [-73.81543174704281, 40.62011653124216], [-73.81718053878458, 40.61926727449319], [-73.81775726750763, 40.617307148815755], [-73.81643150379571, 40.614282334929996], [-73.81554994675568, 40.614307378111256], [-73.81479563255319, 40.61319402998129], [-73.81571906149262, 40.61327294163633], [-73.81602636691127, 40.61236542446397], [-73.81559858779337, 40.61067251632958], [-73.81449876827786, 40.61073545365928], [-73.81520720798991, 40.60981673359334], [-73.81477073792476, 40.60885102878017], [-73.81522771665199, 40.60704956888173], [-73.81642529923093, 40.60522412357384], [-73.81739192106514, 40.605158124286795], [-73.81725370593526, 40.60394032418925], [-73.81928142201637, 40.597529610876585], [-73.82135758220305, 40.59469100924229], [-73.82480251192533, 40.59508316135293], [-73.83241209664992, 40.59461849262108], [-73.83465599514989, 40.595168458652225], [-73.83420068056414, 40.59665712416403], [-73.83154105940153, 40.59795102605503], [-73.83076009448669, 40.597446158309836], [-73.82948341823253, 40.598133941902574], [-73.82806159675427, 40.5976804026488], [-73.82607971902182, 40.599449290591345], [-73.82550271550404, 40.598486365107334], [-73.82448451265657, 40.598196469862025], [-73.82376612281246, 40.60004007082085], [-73.82194441759793, 40.59980115597845], [-73.82443643762478, 40.60034498334958], [-73.8244521800895, 40.600796962688456], [-73.82294484740481, 40.602582909467806], [-73.82246746702482, 40.60552498282266], [-73.82290463377521, 40.605851277429565], [-73.82126028812812, 40.60714435610394], [-73.81961795362156, 40.61047904106428], [-73.82051887877131, 40.61194994872446], [-73.82126119789673, 40.61130685696764], [-73.82048700621559, 40.61022437929351], [-73.82138268125634, 40.608545544946786], [-73.82555758997883, 40.61413210471073], [-73.82703834217763, 40.61339500215259], [-73.83054575285912, 40.6149330607806], [-73.83401888134493, 40.61438116641963]]], [[[-73.85722330984366, 40.65027867054137], [-73.86098917353912, 40.655209767105156], [-73.85731941515513, 40.65123709900783], [-73.85722330984366, 40.65027867054137]]], [[[-73.8626977823354, 40.657618309011575], [-73.86317083274511, 40.65827651244546], [-73.86035978139907, 40.659645829513956], [-73.85761537251577, 40.66011893315461], [-73.85842950857197, 40.66345336143441], [-73.85568461155144, 40.6638674923721], [-73.85763323174372, 40.67165619403884], [-73.86038519920736, 40.67125171099047], [-73.86234580535127, 40.67916478564428], [-73.86328640844614, 40.67907719656106], [-73.86410096679134, 40.68237285029261], [-73.86601993220731, 40.681919587027984], [-73.86891762756683, 40.69514656201736], [-73.87402053240578, 40.694191295720024], [-73.879506412209, 40.691146768843154], [-73.88452250891402, 40.68668474909489], [-73.88962787578687, 40.684236454755485], [-73.89015418672899, 40.685003989804464], [-73.89258303102238, 40.68349191138974], [-73.8941746326718, 40.68528324817056], [-73.896526442364, 40.682403299241564], [-73.90116155060393, 40.68787793535556], [-73.9004246511309, 40.68818389887682], [-73.90188776254817, 40.69107772057581], [-73.9013984066204, 40.69158999203775], [-73.90579597009139, 40.69412715601615], [-73.90426018345657, 40.69570037144263], [-73.91180820104488, 40.69993800262182], [-73.91067882671248, 40.701045970068726], [-73.91290404121959, 40.702361891296654], [-73.91180710069435, 40.7034349520266], [-73.9218918463265, 40.70939609671035], [-73.92074853115805, 40.71053364895871], [-73.92223466477621, 40.71285595436289], [-73.92405909736938, 40.71411156065007], [-73.92412241575497, 40.715138048445155], [-73.92232970167701, 40.71607654517238], [-73.92060425100046, 40.71603600718993], [-73.9222376112434, 40.716382440494066], [-73.92393252266966, 40.71902927216987], [-73.92424364921007, 40.72142949875854], [-73.92514671628453, 40.72235199537205], [-73.92451734212503, 40.723552242499515], [-73.9203706423567, 40.72368111382104], [-73.9253014448664, 40.724732979792385], [-73.92939257370801, 40.72830855599439], [-73.9345317637569, 40.72910480653495], [-73.93804478507168, 40.73050996784605], [-73.94180143973267, 40.73596257820129], [-73.9459286679214, 40.737496263416155], [-73.94146173463167, 40.73924858362712], [-73.93910874138139, 40.74261703517666], [-73.93965301521379, 40.74273108709562], [-73.94118816696164, 40.740290218294504], [-73.94290141828857, 40.73900380150437], [-73.94715087181176, 40.73790012334472], [-73.95379878808717, 40.73981986527193], [-73.95746607442858, 40.73954341851143], [-73.96072580373679, 40.73808017017914], [-73.96216721847475, 40.738281250844544], [-73.96262015898664, 40.73903266212602], [-73.96107358624154, 40.741625928073894], [-73.96155253168956, 40.74199326140713], [-73.95875854834803, 40.74494500525284], [-73.95914371692935, 40.74600060367847], [-73.95704097342926, 40.748920350874016], [-73.95318382492859, 40.74773481196093], [-73.95632162509635, 40.74908155443487], [-73.9550665256017, 40.74963273037539], [-73.95449997397608, 40.751217613607224], [-73.94350281966635, 40.76449904074347], [-73.93983559349122, 40.76798800593928], [-73.93681460654729, 40.76890394747839], [-73.93469499066983, 40.77042533852511], [-73.93556797115848, 40.771918778036465], [-73.93746638537077, 40.77253149512517], [-73.93785811888885, 40.77408756897338], [-73.936380228837, 40.77692145606041], [-73.93508232558261, 40.77794423372812], [-73.93178834239094, 40.77787060660185], [-73.9298805850014, 40.77622163139925], [-73.92860515023351, 40.77659267510096], [-73.91717118646432, 40.78419348437141], [-73.91683277016423, 40.78519139248734], [-73.91259985977617, 40.78937632963436], [-73.9098586292578, 40.79094549378188], [-73.90032629743823, 40.78900766282568], [-73.8958291437706, 40.785221527383484], [-73.89885620397878, 40.78280430460395], [-73.90114577552113, 40.782711106090574], [-73.90267677081077, 40.78035257204667], [-73.90129127618927, 40.78185841927033], [-73.89865437844038, 40.78199542032078], [-73.89606377738431, 40.78315720180518], [-73.8917165793315, 40.78089378131536], [-73.89253484564904, 40.77977051958847], [-73.89119589704401, 40.778563287887074], [-73.8925225986089, 40.77740462898904], [-73.89177229652564, 40.7765935211533], [-73.890087294168, 40.777784193606855], [-73.88945486903737, 40.773532951127144], [-73.88431556689008, 40.77418436398407], [-73.88485536080358, 40.77510221207485], [-73.88440957187987, 40.77554936087728], [-73.8849346638119, 40.77993691280694], [-73.87870562518874, 40.78058590995005], [-73.87930868295157, 40.78185365833228], [-73.87833923298064, 40.78302592074941], [-73.8751575489337, 40.78150944965324], [-73.87124856242515, 40.786038151254985], [-73.86978081192642, 40.78533793332582], [-73.86942344795422, 40.78359131491772], [-73.87255732673732, 40.78082112154255], [-73.85505106271819, 40.77219538998908], [-73.85642390661457, 40.77030043391778], [-73.85734730950512, 40.770184231712804], [-73.85684990452354, 40.76954245254072], [-73.85877376553063, 40.76734999560099], [-73.8627202147973, 40.76667064229219], [-73.85941339398101, 40.76248326533929], [-73.85158552901186, 40.759355420656945], [-73.84868655658927, 40.76013849511063], [-73.84306961269657, 40.76359256915372], [-73.84298479705532, 40.764423594121794], [-73.83957826853546, 40.76525232297301], [-73.83913189263421, 40.76599110556834], [-73.84031170315286, 40.766294797898375], [-73.84394748335801, 40.76549488148572], [-73.84780575104429, 40.766772948171656], [-73.84899656368127, 40.76914831400664], [-73.8485936853988, 40.770623920025], [-73.84994620808675, 40.77205737261623], [-73.8489611240004, 40.77374268475333], [-73.84895559325422, 40.77796167373131], [-73.84980132097783, 40.778767307032965], [-73.84991219996317, 40.781087504587724], [-73.84925954248891, 40.78227197917395], [-73.85538845174452, 40.782075716310615], [-73.85545062834923, 40.783143079138334], [-73.85808318103322, 40.78372407884166], [-73.85798841705024, 40.78467792467947], [-73.85912285858105, 40.78573313179488], [-73.85811203509839, 40.78705680902921], [-73.85699693804679, 40.78664700787255], [-73.85595941400926, 40.78767801905857], [-73.85325391367488, 40.78787544243507], [-73.85479249924806, 40.78858380770183], [-73.85445222779767, 40.79027417881421], [-73.85266418431868, 40.79125579502794], [-73.8537433789417, 40.792293772805166], [-73.85353237176382, 40.79413885681174], [-73.84933654876025, 40.793371499566184], [-73.84870999361341, 40.795416481289855], [-73.84624420656033, 40.79616309543714], [-73.84451391906177, 40.794881790168795], [-73.84343262021295, 40.7949484490879], [-73.8405998229462, 40.79680680321055], [-73.8390367681228, 40.79705247708075], [-73.83840083077962, 40.79675525830683], [-73.83663288923377, 40.7925163755386], [-73.83751117653668, 40.79102775120736], [-73.83714862250166, 40.789557587735004], [-73.83554685397563, 40.78951912231341], [-73.83381316764704, 40.78852267799081], [-73.83211813285884, 40.78877203892131], [-73.83174331571021, 40.791006106281536], [-73.82910913605086, 40.79189852848406], [-73.82779277842657, 40.793295389199315], [-73.82866451653719, 40.79647557544405], [-73.82707416487543, 40.796974745143665], [-73.82661605440506, 40.79778068913009], [-73.82523269192968, 40.797298549396686], [-73.81981644685804, 40.8008018386558], [-73.81287448914716, 40.79717714246413], [-73.81253971935718, 40.7980591810121], [-73.81179002769257, 40.798026331754585], [-73.81182161861156, 40.79745867632875], [-73.80636331452577, 40.79639360543766], [-73.80065920162397, 40.79635386816197], [-73.79459777358393, 40.79493777113589], [-73.79433154643013, 40.79353022617441], [-73.7949610635064, 40.79190045595802], [-73.79378268703302, 40.78911893737699], [-73.7926879011279, 40.78877761872353], [-73.79028202353207, 40.79031696339979], [-73.78568101301407, 40.79034067165998], [-73.78174708763103, 40.7911334066445], [-73.78107845970224, 40.791677321779055], [-73.78070025516259, 40.793648505909445], [-73.78181003762921, 40.79480185241983], [-73.78154150032749, 40.79565973731999], [-73.77827066301275, 40.79672512573136], [-73.77617885953205, 40.79609605336268], [-73.77471814244022, 40.79485987012772], [-73.77063124537429, 40.78846290603716], [-73.77379096552599, 40.78682895783376], [-73.7740763829779, 40.78591728401918], [-73.76816173051581, 40.779396821241995], [-73.76572796903928, 40.77460332809205], [-73.75880776560997, 40.768182652725386], [-73.75864264358079, 40.76735717003544], [-73.75493674341266, 40.76609325213886], [-73.75219261536523, 40.763830418515056], [-73.75487477116947, 40.767162395445006], [-73.75469594529756, 40.76970904446325], [-73.75557332649315, 40.77152912592269], [-73.7533669199931, 40.7732078477634], [-73.75513664233074, 40.77640719547495], [-73.7548121705854, 40.77763599592198], [-73.75299839296434, 40.78128948952211], [-73.75080593613785, 40.782893378668064], [-73.70163345892384, 40.75249332919031], [-73.70002020437218, 40.7392365417302], [-73.70766217305994, 40.72783093450943], [-73.71740163638512, 40.72627544279763], [-73.73032628968096, 40.7221572967848], [-73.7269714678306, 40.71071450403341], [-73.72563005119487, 40.67958795178651], [-73.72755616356653, 40.674161587688936], [-73.728241311452, 40.66802409800259], [-73.72781751015889, 40.6631167834834], [-73.72833071875961, 40.66304394373112], [-73.72556769770206, 40.656725143583934], [-73.72498470778612, 40.654253435908124], [-73.72522608107016, 40.65200100014744], [-73.73028652972182, 40.65036852267439], [-73.73513501472307, 40.64973204046682], [-73.74143706042346, 40.646889178321416], [-73.74205084886792, 40.64147420452418], [-73.74142279314964, 40.64050339075331], [-73.74227387159945, 40.640123381449975], [-73.7394712156082, 40.63570643182787], [-73.74000390414137, 40.63530886479274], [-73.74255105065215, 40.63519066338299], [-73.74097870820641, 40.637320231942944], [-73.74272966303367, 40.63827015598167], [-73.7442212441808, 40.63801970439632], [-73.7462638571203, 40.63644221911146], [-73.74705109693106, 40.636959310115216], [-73.74617068906113, 40.64039592151614], [-73.74725355691275, 40.643129223997626], [-73.7545036960127, 40.64793547955683], [-73.75461208438026, 40.647200458955446], [-73.74870701496526, 40.643343492337415], [-73.74739887091542, 40.64135337630714], [-73.74845072655371, 40.63563613808877], [-73.7663986309527, 40.62835013406253], [-73.76828692639445, 40.62531046881511], [-73.76880795776505, 40.622516271902114], [-73.77067093812195, 40.62006678593006], [-73.77171699447305, 40.620961678797975], [-73.77092465891758, 40.62336690128194], [-73.77654229887835, 40.627651724728906], [-73.77946897687782, 40.62731550562398], [-73.78419483297871, 40.62089266991026], [-73.78675608135411, 40.61973920921053], [-73.78547463952067, 40.61566691195237], [-73.78585245783472, 40.61446198652661], [-73.79035464459227, 40.61278971146847], [-73.79063092418832, 40.610298578080496], [-73.79249966118846, 40.61057962728553], [-73.79304836022571, 40.60987185259608], [-73.79241744956103, 40.60870300781497], [-73.79365104095648, 40.608985814969074], [-73.79505655097414, 40.61048896619428], [-73.80049472403944, 40.61164318147943], [-73.7993748959427, 40.61331425785438], [-73.79949960874126, 40.61457275634521], [-73.79900828287975, 40.615582930731755], [-73.7973219532894, 40.61661282311842], [-73.79700484778851, 40.61837994395796], [-73.7963556790424, 40.618454684535344], [-73.79434564765558, 40.622745847485355], [-73.79075818793628, 40.622328368324254], [-73.78924104900376, 40.62294628492781], [-73.78363079015836, 40.62814252187033], [-73.78348975751075, 40.630165115720075], [-73.78434764242147, 40.63137332043348], [-73.78690666684497, 40.632261900728906], [-73.78954187941461, 40.63418645941252], [-73.79083876178119, 40.63389933481527], [-73.79222318037628, 40.63589008827996], [-73.79923711983864, 40.638420109703546], [-73.81203333683297, 40.64430357504573], [-73.81881842240617, 40.646592515721125], [-73.82133468245691, 40.649092091528715], [-73.82321849406942, 40.65411655721842], [-73.82342121447223, 40.65602549514695], [-73.82246765596562, 40.659159866398824], [-73.81869531558691, 40.66110505105516], [-73.81309228037954, 40.660194038556384], [-73.81149882578255, 40.66022623784133], [-73.81151448346189, 40.66076714280107], [-73.81830259716168, 40.66197075974247], [-73.82347625129688, 40.660060038354075], [-73.8249219145979, 40.655666789981225], [-73.82319444111556, 40.64801116168027], [-73.8240914075425, 40.649266156717964], [-73.82618844431943, 40.649494737783996], [-73.82622033639022, 40.64836102709182], [-73.82928146821352, 40.649577625213404], [-73.83212330981654, 40.65427316167605], [-73.83260036370606, 40.65782659162728], [-73.83338439472544, 40.65805185920798], [-73.83079877895906, 40.648976559206424], [-73.83148723517212, 40.647887278516215], [-73.83453497304606, 40.64802513129084], [-73.83597223496369, 40.649348763918596], [-73.83889239488927, 40.66140352475577], [-73.83807555639623, 40.66158796032557], [-73.83872354362994, 40.662407161486634], [-73.83969596515551, 40.662238304105095], [-73.83592320073285, 40.645499790674954], [-73.84579484060227, 40.64410150925733], [-73.84950699084176, 40.64413376567875], [-73.85207628474056, 40.64617614809097], [-73.85237453098152, 40.64758203920858], [-73.85158871219382, 40.64906743355763], [-73.84921658357294, 40.651168997987604], [-73.85078499726184, 40.65153285190427], [-73.85256339779563, 40.650553671452094], [-73.8557191105909, 40.651250207881645], [-73.85671288977001, 40.652801664517284], [-73.85852026658146, 40.653311189403745], [-73.85930573554424, 40.65497238338423], [-73.86084030699917, 40.65617157477914], [-73.85963558669376, 40.658457772056444], [-73.86116835978319, 40.65880882206466], [-73.86124850937952, 40.65822408602444], [-73.86036791109125, 40.657889201484714], [-73.86088798593688, 40.656908736036826], [-73.86161371163618, 40.65699651025276], [-73.86172714514386, 40.658033653993144], [-73.8626977823354, 40.657618309011575]]]]}, "properties": {"boro_name": "Queens", "boro_code": 4}}, {"type": "Feature", "geometry": {"type": "MultiPolygon", "coordinates": [[[[-74.01193259977079, 40.683887749154884], [-74.01217596614636, 40.68409518562847], [-74.0081641459391, 40.686174717161464], [-74.01193259977079, 40.683887749154884]]], [[[-74.00500373315076, 40.68760598540084], [-74.00562986330395, 40.68678420554103], [-74.00783293766683, 40.68738505516271], [-74.00742012154099, 40.68820629043589], [-74.00500373315076, 40.68760598540084]]], [[[-74.00382038919734, 40.688929644699286], [-74.00459270521772, 40.68821522298657], [-74.0067843843981, 40.68882687995825], [-74.00636461225268, 40.68966966863696], [-74.00382038919734, 40.688929644699286]]], [[[-74.00297565436567, 40.69042657592069], [-74.00340921624519, 40.68961326065751], [-74.00575900670344, 40.690236400016175], [-74.00534209624915, 40.69109160297785], [-74.00297565436567, 40.69042657592069]]], [[[-74.04387761639912, 40.69018767537122], [-74.04364078627414, 40.68876655957014], [-74.04478399106388, 40.68859566011561], [-74.04720029366253, 40.69042481562374], [-74.04699690697936, 40.69104932631987], [-74.04599418395532, 40.691104955694705], [-74.04387761639912, 40.69018767537122]]], [[[-74.00069905841879, 40.690611857916444], [-74.00479415294552, 40.69176162037439], [-74.00440941259977, 40.69252880038929], [-74.0019693859211, 40.69184320882006], [-74.00069905841879, 40.690611857916444]]], [[[-74.0167475609607, 40.69334336821759], [-74.01422123084907, 40.69282290634402], [-74.01218355071057, 40.69113621594061], [-74.01230688304493, 40.689280182937544], [-74.01316926402764, 40.68815477120316], [-74.02354160370125, 40.68400298359252], [-74.02604653184775, 40.68451415115493], [-74.02657021545329, 40.68590538468132], [-74.01979706616886, 40.69304156274446], [-74.0167475609607, 40.69334336821759]]], [[[-74.0017436211104, 40.69240674970546], [-74.00400795971098, 40.69320819963235], [-74.00345348490625, 40.69405163067134], [-74.00127014968672, 40.6932960621763], [-74.0017436211104, 40.69240674970546]]], [[[-74.0009586848302, 40.69406908358218], [-74.00301393829083, 40.69477784447912], [-74.00239802583795, 40.69571165486447], [-74.00026872377788, 40.6949658025779], [-74.0009586848302, 40.69406908358218]]], [[[-73.99837760685773, 40.69806329564348], [-73.99887117097656, 40.697157577295805], [-74.00104903057525, 40.69790823669738], [-74.00048768562517, 40.69875777763451], [-73.99837760685773, 40.69806329564348]]], [[[-73.99802102725113, 40.69876173657377], [-74.0000184043362, 40.69946604807362], [-73.99947463838926, 40.7003227780183], [-73.9974989831, 40.69963886932123], [-73.99802102725113, 40.69876173657377]]], [[[-74.03995040788514, 40.70089063064272], [-74.03771124796636, 40.69934404034772], [-74.03822954445391, 40.69836859169771], [-74.0393403767015, 40.69811551483596], [-74.04124261832222, 40.69953674143485], [-74.04174768868015, 40.69914786356664], [-74.03991248872624, 40.69770204039839], [-74.04166051914842, 40.69645297163974], [-74.04367371230778, 40.69802040433007], [-74.03995040788514, 40.70089063064272]]], [[[-73.99669768997464, 40.700876976917044], [-73.99813879899455, 40.70151878824836], [-73.99619227228733, 40.70337714086412], [-73.99513826840686, 40.70297411472282], [-73.99669768997464, 40.700876976917044]]], [[[-73.94035533477512, 40.77049657437102], [-73.95254079336877, 40.75709531453724], [-73.95692404304644, 40.75296115989115], [-73.96153855464473, 40.749723119840475], [-73.95950079995097, 40.75295638219572], [-73.94472353220667, 40.769734058884], [-73.94027460921178, 40.77294743789811], [-73.94035533477512, 40.77049657437102]]], [[[-73.92263378594897, 40.80186873814103], [-73.92031465521231, 40.799375459289976], [-73.91662985247802, 40.79785813943707], [-73.91443827233314, 40.79566551786383], [-73.91378385370595, 40.793836285482065], [-73.9151413442611, 40.792012482994856], [-73.91812330871126, 40.790040239934214], [-73.92219098057298, 40.78551067157379], [-73.92285203280154, 40.78355569341767], [-73.92448052280425, 40.78232049064581], [-73.92849269561364, 40.781008353480836], [-73.9306381969117, 40.78226141304894], [-73.93502345134512, 40.78300638202879], [-73.93607064617002, 40.784217215620245], [-73.93571265997697, 40.78568048949252], [-73.93312843469003, 40.78871017948545], [-73.93147595329808, 40.790479159257906], [-73.92972400781915, 40.791366178343004], [-73.92786889241084, 40.7909548386344], [-73.9271356372808, 40.79192930660311], [-73.92826720296156, 40.792328523948164], [-73.92826520921278, 40.7932128750662], [-73.92695390638403, 40.79541532977797], [-73.92747588603496, 40.79812289966491], [-73.92577551811746, 40.80173060099628], [-73.92263378594897, 40.80186873814103]]], [[[-73.92640556921116, 40.87762147653733], [-73.92629581989738, 40.87709457833313], [-73.92482719737032, 40.87742342441071], [-73.9223766931572, 40.876758934981716], [-73.92267322073161, 40.87475084521321], [-73.92111741577973, 40.87303345518621], [-73.92006343503769, 40.87325378750953], [-73.91999878749601, 40.87384560517076], [-73.92091322183161, 40.875464660315146], [-73.91886873676987, 40.87464804140398], [-73.91924248763574, 40.87404837016301], [-73.91859729866316, 40.87349549732509], [-73.91634348667569, 40.87452384988965], [-73.91228918621249, 40.87362890482139], [-73.91122441407732, 40.873027752434545], [-73.91043363570449, 40.87138081638424], [-73.91254775130282, 40.8665149430043], [-73.91391863133241, 40.86474558440358], [-73.91533281435508, 40.86406732542081], [-73.91534506689362, 40.863164542777405], [-73.91950213660927, 40.85879113379046], [-73.92132187073454, 40.86021411051681], [-73.92187159464766, 40.85920002908447], [-73.92072417703403, 40.85788498852891], [-73.92237695742354, 40.856583569624824], [-73.92227873064485, 40.855654988843746], [-73.92971850477537, 40.84523177826374], [-73.9349153357865, 40.83523082193877], [-73.93378997399208, 40.81715137370163], [-73.93433864584739, 40.809562213831335], [-73.9290349024031, 40.801080903851854], [-73.92927936741171, 40.79585313952059], [-73.93019664392844, 40.7945932248548], [-73.93583106788908, 40.7910947048702], [-73.93982619696462, 40.78525655241545], [-73.94320565536941, 40.783369842987646], [-73.94388068102414, 40.7815320438669], [-73.94200266722275, 40.776185317382705], [-73.94293043781397, 40.774676268035805], [-73.95441826078607, 40.76218410495105], [-73.95918103219994, 40.75785611105222], [-73.97188888913045, 40.7427248203555], [-73.97265743803038, 40.739222754276945], [-73.97248994174741, 40.7358032801076], [-73.97441385816532, 40.73641439385894], [-73.97444065082593, 40.73531677190052], [-73.97341321730859, 40.731282416428634], [-73.97147994907208, 40.72924957769838], [-73.97149039092832, 40.727350098109895], [-73.97351345120518, 40.71877484470658], [-73.97705659401736, 40.711197626969366], [-73.98124579569946, 40.70982621460122], [-73.98816491726686, 40.70915678150645], [-73.98873681707525, 40.70997074184506], [-73.99728287195579, 40.708731619842894], [-74.0011868526283, 40.70685982577176], [-74.00140666691955, 40.70617938802063], [-74.0005829704798, 40.705433933648884], [-74.00143719471637, 40.7048722249406], [-74.00332307270787, 40.70562859522004], [-74.00383327532258, 40.705303243026385], [-74.002866897815, 40.70407522551155], [-74.00405666439265, 40.70514736343891], [-74.00929072600613, 40.701930071821955], [-74.01105603841502, 40.701454181412046], [-74.01110886351555, 40.70090142060629], [-74.01514231812101, 40.70084289235424], [-74.01757548561503, 40.703307503056], [-74.01757035640019, 40.70418388098655], [-74.01844742686767, 40.70416230497783], [-74.01934155704542, 40.70607053820402], [-74.01819029259649, 40.707821626109904], [-74.01885500911968, 40.708047534447374], [-74.01780037888393, 40.712345124158524], [-74.01662424425291, 40.71215731899529], [-74.01632006627581, 40.71340798247825], [-74.01754443334657, 40.713611222664234], [-74.01671018605823, 40.718624176057965], [-74.01321322719194, 40.71831571989575], [-74.01290892764027, 40.71973485220901], [-74.0163784829147, 40.72037660832826], [-74.01299980679079, 40.720333090750024], [-74.01289730270861, 40.72086804547322], [-74.01562245781949, 40.72154345367371], [-74.01253875807262, 40.721503176576356], [-74.01165326569944, 40.72587176185134], [-74.01516324118423, 40.72631971193678], [-74.01512356549462, 40.72679394256452], [-74.01154201897606, 40.72644734692707], [-74.01138323604756, 40.72822927236716], [-74.01439069932388, 40.728463047520115], [-74.01401552295432, 40.73068283965607], [-74.01116195696476, 40.73045067634903], [-74.01094118226757, 40.733007763771894], [-74.01399957240966, 40.7333322775177], [-74.01090389883285, 40.73329761713955], [-74.01039303134556, 40.73917429605917], [-74.01158818724917, 40.73927159590019], [-74.01137438820489, 40.74072394764129], [-74.00963145571755, 40.74064536737421], [-74.0095769279162, 40.74121065665437], [-74.01211745872139, 40.74175851621156], [-74.00951947145009, 40.74149030219855], [-74.00909156846201, 40.74288614957493], [-74.01211940028661, 40.743516612182546], [-74.01202085006399, 40.743939770208826], [-74.00890032962842, 40.74391792709599], [-74.00872986359421, 40.74488153782963], [-74.01173958552816, 40.745519918190176], [-74.01163451251725, 40.74597839430351], [-74.00946389855972, 40.74575014365942], [-74.0093636273423, 40.746335601977215], [-74.01153382764764, 40.74656775471225], [-74.01144491250467, 40.74698628502843], [-74.00924314658677, 40.746762790753706], [-74.00913736259926, 40.74735976280297], [-74.01135675337727, 40.747592418346784], [-74.01126611253966, 40.74801371918113], [-74.00905847901345, 40.74778564533282], [-74.00894606502322, 40.74841189316869], [-74.01116687561546, 40.748645046766136], [-74.0099481793803, 40.74893198800566], [-74.00910453215725, 40.750371069730306], [-74.0105646347644, 40.75132146210129], [-74.00900098259456, 40.750648183782566], [-74.00761949611858, 40.75428184227665], [-74.00480392560185, 40.75780984316469], [-74.0069642874931, 40.759160057561594], [-74.00652959987842, 40.75987475124117], [-74.00450483093914, 40.75908499655267], [-74.00233528130057, 40.76154372700161], [-74.00454520983433, 40.76249280194481], [-74.0022008207327, 40.761728432226455], [-74.00153309066982, 40.76264459812758], [-74.00375735037696, 40.763582241640556], [-74.001386036986, 40.76285009500186], [-74.00097308022018, 40.76342027172564], [-74.00294809515725, 40.76461683643387], [-73.9999271236773, 40.76340652847932], [-73.99915098087908, 40.76420525958269], [-74.00227436642373, 40.76552518109955], [-74.00202454330335, 40.765893266570366], [-73.99888473174988, 40.76456937704847], [-73.99828160709528, 40.76556777543732], [-74.00154217871203, 40.76694470253266], [-73.99806675905354, 40.76587188113567], [-73.99737808447965, 40.76682338637953], [-74.00062837395306, 40.768203111058696], [-73.99715588949212, 40.76712869617278], [-73.99645715405042, 40.76809881579563], [-73.999728191901, 40.76947350663368], [-73.99707176039311, 40.76873264357683], [-73.99657126439577, 40.769424568273806], [-73.99902682832904, 40.770463272982056], [-73.99876206914315, 40.77082505670921], [-73.99631327022087, 40.769798836336406], [-73.9949768849473, 40.771658774923324], [-73.99707328169318, 40.772542868399334], [-73.99477407930823, 40.771929547530185], [-73.99429402982382, 40.773156243991785], [-73.99609524522623, 40.77408618643761], [-73.99393694182211, 40.77317951096688], [-73.99092717414969, 40.777566878762954], [-73.99039616003651, 40.77758506567905], [-73.9634039510228, 40.81668419794024], [-73.95793904909122, 40.82277435354727], [-73.95955575493863, 40.82369379776877], [-73.95725896977147, 40.82711730987307], [-73.95631784510311, 40.82794421538854], [-73.95503912978396, 40.82741343191186], [-73.95454188062128, 40.827861476365484], [-73.95109620887548, 40.83280509670184], [-73.94842860791512, 40.839860854653196], [-73.94612416421772, 40.84389249655712], [-73.94704980259193, 40.850223349228344], [-73.94186996426673, 40.85386773944279], [-73.93242538215341, 40.867568248423645], [-73.9319137713681, 40.87112949372272], [-73.92997686743148, 40.87433896233037], [-73.92640556921116, 40.87762147653733]]], [[[-73.90893235241589, 40.872157347970614], [-73.91080913136378, 40.87408502211105], [-73.91578515638106, 40.87571694506479], [-73.91148913190445, 40.879018858809516], [-73.9094983211747, 40.878776732181706], [-73.9068282285684, 40.87663155188876], [-73.90665099539478, 40.8757525041926], [-73.90774270784561, 40.872845952111554], [-73.90893235241589, 40.872157347970614]]]]}, "properties": {"boro_name": "Manhattan", "boro_code": 1}}]}