{"type": "FeatureCollection", "features": [{"type": "Feature", "geometry": {"type": "Point", "coordinates": [-74.004, 40.7087]}, "properties": {"id": "brooklyn_bridge", "name": "Brooklyn Bridge", "layer": "crz_entry", "approx": true, "region": null, "periods": {"post_2025": {"total_entries": 9812754, "excluded_entries": 7273716, "excluded_share": 0.4257, "days": 361, "avg_daily_entries": 27182, "avg_weekday_entries": 27378, "avg_weekend_entries": 26693, "peak_share": 0.7102, "class_mix": {"cars": 0.5627, "trucks_single": 0.0062, "trucks_multi": 0.0001, "buses": 0.002, "motorcycles": 0.0023, "taxi_fhv": 0.4268}, "trucks_avg_daily": 171, "hourly_weekday": [647.5, 426.4, 301.9, 333.1, 777.9, 845.7, 1232.9, 1361.8, 1428.7, 1442.7, 1376.0, 1312.5, 1249.0, 1270.7, 1339.8, 1353.7, 1386.9, 1404.4, 1393.1, 1324.3, 1266.3, 1473.7, 1346.9, 1081.5], "hourly_weekend": [1066.4, 934.7, 698.3, 572.1, 594.2, 754.1, 1081.5, 1127.6, 1233.3, 1169.2, 1224.3, 1285.2, 1292.0, 1323.6, 1342.8, 1322.4, 1299.2, 1250.1, 1244.8, 1203.7, 1129.2, 1250.7, 1226.9, 1066.3]}, "post_2026_ytd": {"total_entries": 6201389, "excluded_entries": 4691383, "excluded_share": 0.4307, "days": 243, "avg_daily_entries": 25520, "avg_weekday_entries": 25686, "avg_weekend_entries": 25110, "peak_share": 0.7062, "class_mix": {"cars": 0.522, "trucks_single": 0.0078, "trucks_multi": 0.0001, "buses": 0.002, "motorcycles": 0.0023, "taxi_fhv": 0.4657}, "trucks_avg_daily": 203, "hourly_weekday": [626.8, 415.6, 295.5, 326.6, 741.8, 777.9, 1105.8, 1255.4, 1346.0, 1368.9, 1305.1, 1241.3, 1188.2, 1211.4, 1279.3, 1272.4, 1284.3, 1286.2, 1274.1, 1235.4, 1188.5, 1346.6, 1232.9, 1080.0], "hourly_weekend": [1048.9, 918.3, 682.4, 562.0, 602.1, 739.5, 1033.7, 1053.9, 1137.9, 1094.5, 1166.7, 1185.9, 1213.3, 1234.7, 1242.4, 1234.6, 1226.7, 1167.0, 1155.6, 1110.0, 1045.3, 1148.6, 1095.9, 1010.2]}, "ytd_2025": {"total_entries": 6522750, "excluded_entries": 4907442, "excluded_share": 0.4293, "days": 239, "avg_daily_entries": 27292, "avg_weekday_entries": 27579, "avg_weekend_entries": 26586, "peak_share": 0.7115, "class_mix": {"cars": 0.5794, "trucks_single": 0.0064, "trucks_multi": 0.0001, "buses": 0.0021, "motorcycles": 0.0024, "taxi_fhv": 0.4097}, "trucks_avg_daily": 176, "hourly_weekday": [637.2, 423.5, 300.5, 331.0, 785.0, 868.8, 1285.9, 1390.4, 1442.7, 1452.2, 1373.9, 1300.9, 1239.0, 1272.4, 1349.4, 1372.8, 1408.7, 1420.4, 1407.2, 1339.0, 1272.8, 1498.6, 1349.1, 1057.0], "hourly_weekend": [1048.1, 904.2, 685.1, 566.2, 575.9, 749.4, 1096.9, 1117.0, 1229.3, 1158.3, 1208.8, 1264.0, 1273.7, 1316.4, 1336.6, 1321.0, 1308.6, 1253.7, 1258.6, 1210.6, 1124.3, 1258.3, 1248.5, 1072.2]}}, "change": {"pct_2026ytd_vs_2025ytd": -6.5, "weekday_pct_2026ytd_vs_2025ytd": -6.9, "trucks_pct_2026ytd_vs_2025ytd": 15.3}, "dac_designated": false, "dac_combined_pct": 0.585, "dac_asthma_pct": 0.317, "uhf42_code": "310", "uhf42_name": "Lower Manhattan", "uhf42_asthma_ed_pm25_children": 33.0, "uhf42_asthma_ed_children": 109.5, "uhf42_poverty_pct": 9.7, "uhf42_pm25_2024": 7.96}}, {"type": "Feature", "geometry": {"type": "Point", "coordinates": [-73.966, 40.7628]}, "properties": {"id": "east_60th", "name": "East 60th St", "layer": "crz_entry", "approx": true, "region": null, "periods": {"post_2025": {"total_entries": 27296133, "excluded_entries": 0, "excluded_share": 0.0, "days": 361, "avg_daily_entries": 75613, "avg_weekday_entries": 77489, "avg_weekend_entries": 70913, "peak_share": 0.7292, "class_mix": {"cars": 0.3971, "trucks_single": 0.0413, "trucks_multi": 0.0024, "buses": 0.0225, "motorcycles": 0.0073, "taxi_fhv": 0.5294}, "trucks_avg_daily": 3301, "hourly_weekday": [2178.8, 1378.3, 966.6, 902.6, 1316.0, 1535.6, 2436.0, 3337.7, 3831.8, 3812.4, 3785.1, 3751.7, 3802.8, 3806.6, 3955.6, 4334.4, 4547.7, 4375.7, 4409.8, 4315.3, 3799.2, 3909.0, 3760.6, 3239.3], "hourly_weekend": [3085.0, 2469.5, 1880.9, 1446.7, 1198.4, 1136.0, 1550.7, 2181.5, 2551.3, 2666.5, 3023.6, 3273.2, 3414.8, 3512.5, 3751.1, 4062.2, 4176.0, 4106.5, 4027.3, 3846.1, 3495.3, 3539.0, 3444.0, 3074.8]}, "post_2026_ytd": {"total_entries": 17344145, "excluded_entries": 0, "excluded_share": 0.0, "days": 243, "avg_daily_entries": 71375, "avg_weekday_entries": 73060, "avg_weekend_entries": 67211, "peak_share": 0.7241, "class_mix": {"cars": 0.3783, "trucks_single": 0.0415, "trucks_multi": 0.0021, "buses": 0.0221, "motorcycles": 0.005, "taxi_fhv": 0.551}, "trucks_avg_daily": 3107, "hourly_weekday": [2172.3, 1412.6, 963.2, 881.9, 1215.6, 1421.6, 2251.1, 3147.6, 3603.4, 3623.3, 3539.3, 3493.2, 3517.5, 3534.2, 3704.0, 4067.6, 4265.9, 4101.1, 4157.3, 4093.4, 3591.4, 3659.1, 3542.8, 3100.7], "hourly_weekend": [2958.9, 2433.9, 1916.7, 1473.1, 1224.0, 1161.6, 1516.0, 2090.3, 2425.9, 2516.4, 2847.9, 3088.7, 3213.4, 3296.4, 3519.7, 3825.6, 3922.0, 3813.3, 3779.7, 3619.9, 3303.2, 3244.4, 3165.0, 2854.7]}, "ytd_2025": {"total_entries": 18091227, "excluded_entries": 0, "excluded_share": 0.0, "days": 239, "avg_daily_entries": 75696, "avg_weekday_entries": 78245, "avg_weekend_entries": 69415, "peak_share": 0.7324, "class_mix": {"cars": 0.3986, "trucks_single": 0.0425, "trucks_multi": 0.0026, "buses": 0.0231, "motorcycles": 0.0082, "taxi_fhv": 0.525}, "trucks_avg_daily": 3412, "hourly_weekday": [2142.9, 1367.4, 963.0, 899.5, 1328.3, 1556.2, 2474.5, 3376.9, 3879.3, 3874.8, 3843.0, 3825.1, 3884.9, 3890.5, 4048.4, 4428.9, 4652.4, 4449.6, 4466.5, 4300.7, 3744.8, 3910.3, 3728.7, 3207.9], "hourly_weekend": [2986.0, 2390.5, 1843.5, 1424.5, 1168.0, 1123.8, 1547.8, 2152.7, 2466.1, 2575.8, 2942.9, 3197.5, 3349.2, 3439.2, 3698.1, 4021.9, 4150.8, 4035.3, 3960.0, 3752.7, 3360.1, 3462.2, 3354.7, 3012.2]}}, "change": {"pct_2026ytd_vs_2025ytd": -5.7, "weekday_pct_2026ytd_vs_2025ytd": -6.6, "trucks_pct_2026ytd_vs_2025ytd": -8.9}, "dac_designated": false, "dac_combined_pct": 0.17, "dac_asthma_pct": 0.063, "uhf42_code": "305", "uhf42_name": "Upper East Side", "uhf42_asthma_ed_pm25_children": 16.0, "uhf42_asthma_ed_children": 23.9, "uhf42_poverty_pct": 7.3, "uhf42_pm25_2024": 7.04}}, {"type": "Feature", "geometry": {"type": "Point", "coordinates": [-73.9592, 40.7592]}, "properties": {"id": "fdr_60th", "name": "FDR Drive at 60th St", "layer": "crz_entry", "approx": true, "region": null, "periods": {"post_2025": {"total_entries": 18254322, "excluded_entries": 10715529, "excluded_share": 0.3699, "days": 361, "avg_daily_entries": 50566, "avg_weekday_entries": 51554, "avg_weekend_entries": 48092, "peak_share": 0.774, "class_mix": {"cars": 0.6219, "trucks_single": 0.0072, "trucks_multi": 0.0001, "buses": 0.0068, "motorcycles": 0.003, "taxi_fhv": 0.3611}, "trucks_avg_daily": 365, "hourly_weekday": [859.4, 527.6, 366.3, 360.9, 862.3, 1324.2, 2332.6, 2737.5, 3202.5, 3250.1, 2958.3, 2878.2, 2818.2, 2750.6, 2732.2, 2703.1, 2666.1, 2649.9, 2712.7, 2539.7, 2286.1, 2261.7, 2080.7, 1692.6], "hourly_weekend": [1584.3, 1277.9, 925.9, 710.2, 672.0, 850.2, 1499.7, 1633.2, 1909.0, 2069.4, 2410.5, 2628.6, 2686.4, 2723.2, 2725.1, 2653.3, 2631.4, 2635.9, 2636.7, 2483.0, 2336.8, 2327.0, 2208.0, 1874.6]}, "post_2026_ytd": {"total_entries": 12228328, "excluded_entries": 6822100, "excluded_share": 0.3581, "days": 243, "avg_daily_entries": 50322, "avg_weekday_entries": 50982, "avg_weekend_entries": 48691, "peak_share": 0.7718, "class_mix": {"cars": 0.6118, "trucks_single": 0.0083, "trucks_multi": 0.0001, "buses": 0.0061, "motorcycles": 0.0025, "taxi_fhv": 0.3712}, "trucks_avg_daily": 423, "hourly_weekday": [847.8, 539.7, 386.5, 368.7, 800.8, 1301.5, 2343.4, 2727.0, 3182.0, 3207.2, 2945.1, 2818.9, 2747.9, 2683.0, 2692.0, 2654.9, 2608.9, 2635.2, 2694.0, 2529.2, 2244.2, 2240.2, 2127.9, 1656.7], "hourly_weekend": [1629.0, 1266.8, 948.7, 738.7, 693.8, 835.4, 1496.9, 1632.1, 1971.0, 2162.7, 2532.0, 2709.4, 2740.2, 2752.9, 2721.8, 2670.8, 2603.7, 2612.9, 2649.8, 2501.0, 2331.3, 2321.7, 2222.9, 1945.4]}, "ytd_2025": {"total_entries": 12163787, "excluded_entries": 7241121, "excluded_share": 0.3732, "days": 239, "avg_daily_entries": 50895, "avg_weekday_entries": 52036, "avg_weekend_entries": 48083, "peak_share": 0.7714, "class_mix": {"cars": 0.6272, "trucks_single": 0.0073, "trucks_multi": 0.0001, "buses": 0.007, "motorcycles": 0.0032, "taxi_fhv": 0.3552}, "trucks_avg_daily": 375, "hourly_weekday": [895.1, 541.0, 371.9, 364.6, 876.8, 1343.0, 2401.1, 2790.9, 3224.7, 3275.9, 2960.6, 2858.4, 2816.6, 2751.5, 2741.2, 2729.8, 2713.4, 2699.9, 2761.1, 2548.5, 2260.7, 2256.4, 2132.4, 1720.3], "hourly_weekend": [1655.3, 1287.2, 915.8, 698.1, 652.8, 851.9, 1510.0, 1626.6, 1889.2, 2039.0, 2376.1, 2599.1, 2656.7, 2693.5, 2699.8, 2616.8, 2616.5, 2627.3, 2617.2, 2475.7, 2327.0, 2348.1, 2324.9, 1978.3]}}, "change": {"pct_2026ytd_vs_2025ytd": -1.1, "weekday_pct_2026ytd_vs_2025ytd": -2.0, "trucks_pct_2026ytd_vs_2025ytd": 12.8}, "dac_designated": false, "dac_combined_pct": 0.385, "dac_asthma_pct": 0.188, "uhf42_code": "305", "uhf42_name": "Upper East Side", "uhf42_asthma_ed_pm25_children": 16.0, "uhf42_asthma_ed_children": 23.9, "uhf42_poverty_pct": 7.3, "uhf42_pm25_2024": 7.04}}, {"type": "Feature", "geometry": {"type": "Point", "coordinates": [-74.0105, 40.7262]}, "properties": {"id": "holland_tunnel", "name": "Holland Tunnel", "layer": "crz_entry", "approx": true, "region": null, "periods": {"post_2025": {"total_entries": 15024310, "excluded_entries": 0, "excluded_share": 0.0, "days": 361, "avg_daily_entries": 41619, "avg_weekday_entries": 41025, "avg_weekend_entries": 43105, "peak_share": 0.7624, "class_mix": {"cars": 0.7118, "trucks_single": 0.0341, "trucks_multi": 0.0008, "buses": 0.0033, "motorcycles": 0.0006, "taxi_fhv": 0.2495}, "trucks_avg_daily": 1450, "hourly_weekday": [760.9, 554.0, 399.7, 398.7, 867.7, 1856.1, 2466.1, 2380.1, 2261.5, 2263.2, 2138.1, 1975.1, 1879.8, 1870.3, 1979.0, 2042.6, 2137.9, 2232.1, 2293.2, 1995.2, 1706.5, 1831.5, 1691.2, 1044.7], "hourly_weekend": [1325.0, 1084.3, 846.0, 718.0, 730.8, 957.5, 1296.7, 1510.9, 1906.2, 2101.6, 2276.4, 2330.5, 2343.0, 2349.8, 2338.9, 2306.3, 2332.2, 2340.6, 2334.3, 2224.4, 2080.5, 2057.3, 1906.7, 1407.5]}, "post_2026_ytd": {"total_entries": 9913590, "excluded_entries": 0, "excluded_share": 0.0, "days": 243, "avg_daily_entries": 40797, "avg_weekday_entries": 40290, "avg_weekend_entries": 42048, "peak_share": 0.7542, "class_mix": {"cars": 0.6892, "trucks_single": 0.0367, "trucks_multi": 0.0006, "buses": 0.0035, "motorcycles": 0.0006, "taxi_fhv": 0.2694}, "trucks_avg_daily": 1523, "hourly_weekday": [833.3, 608.1, 441.4, 431.1, 900.8, 1837.3, 2398.9, 2350.9, 2270.5, 2233.1, 2071.6, 1916.6, 1798.9, 1795.5, 1892.9, 1990.0, 2068.0, 2169.2, 2228.5, 1935.3, 1646.4, 1738.9, 1647.5, 1085.8], "hourly_weekend": [1404.5, 1144.9, 904.0, 782.1, 774.1, 988.5, 1323.0, 1494.9, 1823.5, 1983.7, 2181.7, 2256.2, 2254.4, 2254.6, 2260.0, 2250.7, 2247.8, 2250.6, 2213.5, 2124.4, 1963.1, 1936.6, 1831.1, 1399.8]}, "ytd_2025": {"total_entries": 9859826, "excluded_entries": 0, "excluded_share": 0.0, "days": 239, "avg_daily_entries": 41255, "avg_weekday_entries": 40772, "avg_weekend_entries": 42443, "peak_share": 0.7637, "class_mix": {"cars": 0.7221, "trucks_single": 0.0344, "trucks_multi": 0.0009, "buses": 0.0033, "motorcycles": 0.0006, "taxi_fhv": 0.2387}, "trucks_avg_daily": 1456, "hourly_weekday": [732.9, 533.4, 388.2, 386.3, 855.3, 1861.6, 2502.4, 2394.3, 2252.5, 2254.0, 2106.6, 1939.8, 1874.5, 1868.4, 1986.6, 2026.9, 2123.7, 2221.3, 2285.2, 1971.0, 1672.1, 1822.1, 1689.1, 1023.9], "hourly_weekend": [1317.2, 1028.3, 803.2, 679.8, 689.6, 911.7, 1258.6, 1466.9, 1869.8, 2045.0, 2243.2, 2305.6, 2318.7, 2328.9, 2319.8, 2296.2, 2310.6, 2317.6, 2301.8, 2180.2, 2015.9, 2050.8, 1959.6, 1423.6]}}, "change": {"pct_2026ytd_vs_2025ytd": -1.1, "weekday_pct_2026ytd_vs_2025ytd": -1.2, "trucks_pct_2026ytd_vs_2025ytd": 4.6}, "dac_designated": false, "dac_combined_pct": 0.633, "dac_asthma_pct": 0.083, "uhf42_code": "308", "uhf42_name": "Greenwich Village - SoHo", "uhf42_asthma_ed_pm25_children": 14.0, "uhf42_asthma_ed_children": 47.9, "uhf42_poverty_pct": 8.9, "uhf42_pm25_2024": 8.93}}, {"type": "Feature", "geometry": {"type": "Point", "coordinates": [-74.0138, 40.7028]}, "properties": {"id": "hugh_carey_tunnel", "name": "Hugh L. Carey Tunnel", "layer": "crz_entry", "approx": true, "region": null, "periods": {"post_2025": {"total_entries": 7740936, "excluded_entries": 3677488, "excluded_share": 0.3221, "days": 361, "avg_daily_entries": 21443, "avg_weekday_entries": 22645, "avg_weekend_entries": 18432, "peak_share": 0.8776, "class_mix": {"cars": 0.7053, "trucks_single": 0.024, "trucks_multi": 0.0006, "buses": 0.0493, "motorcycles": 0.0019, "taxi_fhv": 0.2188}, "trucks_avg_daily": 527, "hourly_weekday": [120.6, 65.1, 38.5, 46.0, 130.7, 513.8, 1498.0, 1942.9, 2135.7, 2072.9, 1580.6, 1323.9, 1245.8, 1248.8, 1286.4, 1356.2, 1073.6, 898.9, 891.6, 983.5, 728.6, 599.2, 510.5, 353.4], "hourly_weekend": [293.9, 172.2, 96.9, 67.4, 89.6, 166.6, 413.5, 542.8, 766.3, 940.0, 1086.3, 1157.3, 1232.1, 1283.7, 1301.9, 1279.7, 1261.9, 1231.2, 1196.8, 1049.9, 884.4, 776.5, 658.2, 482.7]}, "post_2026_ytd": {"total_entries": 4986457, "excluded_entries": 2294012, "excluded_share": 0.3151, "days": 243, "avg_daily_entries": 20520, "avg_weekday_entries": 21964, "avg_weekend_entries": 16952, "peak_share": 0.8766, "class_mix": {"cars": 0.7077, "trucks_single": 0.0265, "trucks_multi": 0.0005, "buses": 0.0501, "motorcycles": 0.0018, "taxi_fhv": 0.2135}, "trucks_avg_daily": 553, "hourly_weekday": [111.7, 61.1, 38.2, 45.6, 135.7, 542.0, 1499.5, 1877.2, 2006.3, 1941.9, 1542.0, 1273.2, 1212.4, 1214.7, 1232.2, 1265.8, 1107.0, 924.7, 916.6, 938.8, 704.3, 566.7, 470.7, 335.7], "hourly_weekend": [288.0, 161.0, 90.9, 71.1, 98.6, 172.0, 415.8, 539.6, 725.8, 851.8, 981.7, 1040.4, 1082.3, 1139.9, 1141.4, 1139.4, 1124.9, 1111.0, 1095.7, 984.9, 833.4, 741.5, 638.9, 482.5]}, "ytd_2025": {"total_entries": 5003017, "excluded_entries": 2464008, "excluded_share": 0.33, "days": 239, "avg_daily_entries": 20933, "avg_weekday_entries": 22302, "avg_weekend_entries": 17560, "peak_share": 0.8793, "class_mix": {"cars": 0.7055, "trucks_single": 0.0248, "trucks_multi": 0.0006, "buses": 0.051, "motorcycles": 0.002, "taxi_fhv": 0.2161}, "trucks_avg_daily": 533, "hourly_weekday": [118.4, 65.3, 38.3, 45.2, 127.1, 503.4, 1495.8, 1950.3, 2156.6, 2076.1, 1543.5, 1294.2, 1211.0, 1220.3, 1266.5, 1349.3, 1041.1, 887.4, 871.9, 943.0, 684.5, 574.1, 493.2, 346.0], "hourly_weekend": [281.3, 161.0, 91.4, 61.3, 78.9, 155.1, 396.2, 506.6, 717.4, 878.2, 1034.0, 1117.3, 1190.6, 1248.8, 1269.4, 1230.2, 1214.1, 1171.4, 1126.5, 966.0, 813.5, 734.8, 642.0, 473.9]}}, "change": {"pct_2026ytd_vs_2025ytd": -2.0, "weekday_pct_2026ytd_vs_2025ytd": -1.5, "trucks_pct_2026ytd_vs_2025ytd": 3.8}, "dac_designated": false, "dac_combined_pct": 0.339, "dac_asthma_pct": 0.317, "uhf42_code": "310", "uhf42_name": "Lower Manhattan", "uhf42_asthma_ed_pm25_children": 33.0, "uhf42_asthma_ed_children": 109.5, "uhf42_poverty_pct": 9.7, "uhf42_pm25_2024": 7.96}}, {"type": "Feature", "geometry": {"type": "Point", "coordinates": [-73.9998, 40.7606]}, "properties": {"id": "lincoln_tunnel", "name": "Lincoln Tunnel", "layer": "crz_entry", "approx": true, "region": null, "periods": {"post_2025": {"total_entries": 16506290, "excluded_entries": 0, "excluded_share": 0.0, "days": 361, "avg_daily_entries": 45724, "avg_weekday_entries": 45252, "avg_weekend_entries": 46906, "peak_share": 0.7832, "class_mix": {"cars": 0.7268, "trucks_single": 0.0651, "trucks_multi": 0.0066, "buses": 0.0328, "motorcycles": 0.0025, "taxi_fhv": 0.1662}, "trucks_avg_daily": 3276, "hourly_weekday": [916.7, 565.0, 425.9, 453.5, 1033.7, 2171.5, 3675.5, 3618.7, 3320.4, 2961.5, 2675.7, 2467.7, 2246.1, 1996.5, 1932.7, 1858.0, 1698.6, 1612.9, 1804.3, 1753.9, 1586.3, 1650.7, 1557.5, 1268.5], "hourly_weekend": [1348.9, 906.2, 629.3, 519.3, 592.1, 880.8, 1409.2, 1407.0, 1681.7, 1963.1, 2400.5, 2740.4, 2828.5, 2808.9, 2787.5, 2773.0, 2839.6, 2842.1, 2824.6, 2666.2, 2406.1, 2236.4, 1947.6, 1467.0]}, "post_2026_ytd": {"total_entries": 9823167, "excluded_entries": 0, "excluded_share": 0.0, "days": 243, "avg_daily_entries": 40425, "avg_weekday_entries": 39976, "avg_weekend_entries": 41532, "peak_share": 0.7792, "class_mix": {"cars": 0.7172, "trucks_single": 0.067, "trucks_multi": 0.0058, "buses": 0.0328, "motorcycles": 0.002, "taxi_fhv": 0.1752}, "trucks_avg_daily": 2944, "hourly_weekday": [871.9, 515.6, 394.5, 416.4, 895.4, 2059.4, 3332.3, 3126.9, 2798.9, 2595.4, 2439.3, 2230.0, 2044.4, 1791.7, 1711.9, 1640.3, 1486.9, 1289.1, 1536.4, 1507.6, 1384.4, 1470.4, 1358.1, 1079.1], "hourly_weekend": [1258.5, 868.8, 607.7, 499.7, 573.1, 837.3, 1308.1, 1272.0, 1515.4, 1727.7, 2073.1, 2416.0, 2506.1, 2473.0, 2435.0, 2463.2, 2506.6, 2497.3, 2485.9, 2278.3, 1986.7, 1925.3, 1735.5, 1281.6]}, "ytd_2025": {"total_entries": 10994459, "excluded_entries": 0, "excluded_share": 0.0, "days": 239, "avg_daily_entries": 46002, "avg_weekday_entries": 45689, "avg_weekend_entries": 46774, "peak_share": 0.7833, "class_mix": {"cars": 0.733, "trucks_single": 0.0651, "trucks_multi": 0.0069, "buses": 0.0332, "motorcycles": 0.0027, "taxi_fhv": 0.1591}, "trucks_avg_daily": 3311, "hourly_weekday": [914.0, 561.0, 428.2, 459.8, 1045.8, 2188.4, 3759.9, 3694.9, 3395.7, 3006.7, 2693.5, 2473.1, 2254.4, 1994.6, 1935.4, 1865.7, 1724.2, 1661.4, 1833.2, 1750.8, 1569.4, 1637.2, 1557.6, 1283.6], "hourly_weekend": [1367.8, 897.9, 610.5, 508.7, 576.8, 865.0, 1398.7, 1380.6, 1627.7, 1906.0, 2327.1, 2707.0, 2839.7, 2806.3, 2789.3, 2769.8, 2840.4, 2860.2, 2833.7, 2640.9, 2356.1, 2269.5, 2053.3, 1540.9]}}, "change": {"pct_2026ytd_vs_2025ytd": -12.1, "weekday_pct_2026ytd_vs_2025ytd": -12.5, "trucks_pct_2026ytd_vs_2025ytd": -11.1}, "dac_designated": true, "dac_combined_pct": 0.727, "dac_asthma_pct": 0.654, "uhf42_code": "306", "uhf42_name": "Chelsea - Clinton", "uhf42_asthma_ed_pm25_children": 50.0, "uhf42_asthma_ed_children": 129.9, "uhf42_poverty_pct": 11.9, "uhf42_pm25_2024": 9.51}}, {"type": "Feature", "geometry": {"type": "Point", "coordinates": [-73.993, 40.7139]}, "properties": {"id": "manhattan_bridge", "name": "Manhattan Bridge", "layer": "crz_entry", "approx": true, "region": null, "periods": {"post_2025": {"total_entries": 10459845, "excluded_entries": 0, "excluded_share": 0.0, "days": 361, "avg_daily_entries": 28975, "avg_weekday_entries": 28957, "avg_weekend_entries": 29019, "peak_share": 0.7276, "class_mix": {"cars": 0.5722, "trucks_single": 0.0577, "trucks_multi": 0.006, "buses": 0.0131, "motorcycles": 0.0037, "taxi_fhv": 0.3473}, "trucks_avg_daily": 1846, "hourly_weekday": [676.5, 458.9, 320.2, 300.8, 512.9, 725.2, 1352.9, 1727.3, 1847.5, 1850.3, 1614.9, 1414.8, 1329.7, 1324.6, 1396.4, 1353.3, 1337.5, 1422.4, 1432.9, 1368.6, 1234.4, 1485.1, 1365.2, 1104.7], "hourly_weekend": [1253.5, 1174.2, 856.6, 633.5, 541.6, 558.2, 824.6, 1052.6, 1466.5, 1418.5, 1493.5, 1518.4, 1460.6, 1437.4, 1451.3, 1440.4, 1399.3, 1382.7, 1408.0, 1316.0, 1222.4, 1382.4, 1269.8, 1057.2]}, "post_2026_ytd": {"total_entries": 6652718, "excluded_entries": 0, "excluded_share": 0.0, "days": 243, "avg_daily_entries": 27377, "avg_weekday_entries": 27169, "avg_weekend_entries": 27893, "peak_share": 0.7163, "class_mix": {"cars": 0.5659, "trucks_single": 0.0557, "trucks_multi": 0.0051, "buses": 0.0123, "motorcycles": 0.0031, "taxi_fhv": 0.3579}, "trucks_avg_daily": 1665, "hourly_weekday": [675.2, 472.4, 327.3, 306.4, 490.4, 666.3, 1237.0, 1591.1, 1724.7, 1753.4, 1536.9, 1342.9, 1237.0, 1220.5, 1276.8, 1224.4, 1211.1, 1261.8, 1288.9, 1305.1, 1198.2, 1412.2, 1317.3, 1091.9], "hourly_weekend": [1314.8, 1213.4, 889.3, 650.8, 536.3, 542.4, 792.4, 1005.6, 1359.4, 1328.5, 1397.1, 1430.2, 1378.4, 1353.3, 1358.8, 1365.4, 1325.8, 1307.5, 1315.0, 1267.7, 1160.5, 1300.2, 1224.2, 1075.4]}, "ytd_2025": {"total_entries": 6869023, "excluded_entries": 0, "excluded_share": 0.0, "days": 239, "avg_daily_entries": 28741, "avg_weekday_entries": 28863, "avg_weekend_entries": 28439, "peak_share": 0.7319, "class_mix": {"cars": 0.5768, "trucks_single": 0.0598, "trucks_multi": 0.0065, "buses": 0.0132, "motorcycles": 0.0039, "taxi_fhv": 0.3398}, "trucks_avg_daily": 1905, "hourly_weekday": [644.0, 437.0, 307.7, 289.0, 501.2, 728.1, 1373.9, 1736.4, 1869.2, 1858.9, 1602.7, 1410.1, 1327.3, 1317.6, 1399.5, 1361.8, 1360.4, 1454.5, 1445.5, 1354.3, 1200.7, 1457.4, 1354.6, 1071.5], "hourly_weekend": [1218.9, 1116.1, 814.9, 596.0, 505.0, 534.5, 822.1, 1039.2, 1433.1, 1386.7, 1468.2, 1485.9, 1429.6, 1421.3, 1440.2, 1427.9, 1394.5, 1369.1, 1386.9, 1294.4, 1184.1, 1362.2, 1268.1, 1040.1]}}, "change": {"pct_2026ytd_vs_2025ytd": -4.7, "weekday_pct_2026ytd_vs_2025ytd": -5.9, "trucks_pct_2026ytd_vs_2025ytd": -12.6}, "dac_designated": true, "dac_combined_pct": 0.947, "dac_asthma_pct": 0.654, "uhf42_code": "309", "uhf42_name": "Union Square - Lower East Side", "uhf42_asthma_ed_pm25_children": 90.0, "uhf42_asthma_ed_children": 159.7, "uhf42_poverty_pct": 20.1, "uhf42_pm25_2024": 8.45}}, {"type": "Feature", "geometry": {"type": "Point", "coordinates": [-73.9715, 40.7455]}, "properties": {"id": "queens_midtown_tunnel", "name": "Queens Midtown Tunnel", "layer": "crz_entry", "approx": true, "region": null, "periods": {"post_2025": {"total_entries": 16066166, "excluded_entries": 0, "excluded_share": 0.0, "days": 361, "avg_daily_entries": 44505, "avg_weekday_entries": 45630, "avg_weekend_entries": 41686, "peak_share": 0.8043, "class_mix": {"cars": 0.5473, "trucks_single": 0.0412, "trucks_multi": 0.0012, "buses": 0.0203, "motorcycles": 0.0011, "taxi_fhv": 0.3888}, "trucks_avg_daily": 1889, "hourly_weekday": [820.6, 448.3, 252.3, 241.1, 484.0, 1188.6, 2436.3, 3003.8, 3221.9, 3157.6, 2587.5, 2435.2, 2361.3, 2375.8, 2469.2, 2516.5, 2489.8, 2465.1, 2408.4, 2100.5, 1788.5, 1677.0, 1518.4, 1182.4], "hourly_weekend": [1318.7, 873.2, 594.1, 510.4, 509.7, 652.2, 1166.4, 1320.0, 1622.0, 1898.8, 2205.9, 2335.6, 2387.4, 2404.5, 2448.4, 2465.5, 2454.3, 2457.5, 2404.4, 2229.2, 2064.3, 1959.8, 1863.0, 1540.0]}, "post_2026_ytd": {"total_entries": 10325339, "excluded_entries": 0, "excluded_share": 0.0, "days": 243, "avg_daily_entries": 42491, "avg_weekday_entries": 43532, "avg_weekend_entries": 39920, "peak_share": 0.8062, "class_mix": {"cars": 0.5497, "trucks_single": 0.0414, "trucks_multi": 0.0009, "buses": 0.0199, "motorcycles": 0.0011, "taxi_fhv": 0.387}, "trucks_avg_daily": 1796, "hourly_weekday": [776.4, 420.1, 243.5, 227.4, 456.0, 1191.2, 2341.8, 2876.8, 3071.9, 3002.9, 2464.3, 2336.8, 2280.7, 2278.7, 2404.5, 2409.9, 2411.6, 2369.8, 2284.7, 1994.9, 1695.1, 1539.3, 1358.4, 1094.8], "hourly_weekend": [1259.2, 858.1, 602.9, 496.0, 524.5, 678.9, 1191.6, 1270.9, 1539.4, 1791.7, 2058.4, 2230.9, 2250.2, 2279.6, 2330.0, 2338.8, 2367.7, 2354.8, 2309.9, 2160.1, 1977.0, 1878.2, 1743.2, 1427.8]}, "ytd_2025": {"total_entries": 10582992, "excluded_entries": 0, "excluded_share": 0.0, "days": 239, "avg_daily_entries": 44280, "avg_weekday_entries": 45576, "avg_weekend_entries": 41088, "peak_share": 0.8047, "class_mix": {"cars": 0.5505, "trucks_single": 0.0424, "trucks_multi": 0.0014, "buses": 0.0209, "motorcycles": 0.0011, "taxi_fhv": 0.3837}, "trucks_avg_daily": 1941, "hourly_weekday": [819.1, 461.8, 260.3, 247.1, 480.2, 1175.4, 2453.1, 3030.2, 3262.5, 3185.2, 2586.4, 2445.5, 2355.7, 2361.6, 2472.7, 2532.3, 2489.5, 2460.6, 2382.8, 2045.4, 1735.8, 1654.2, 1495.7, 1183.2], "hourly_weekend": [1302.5, 849.3, 575.7, 505.4, 491.6, 635.9, 1123.6, 1259.5, 1544.3, 1808.2, 2130.7, 2292.2, 2387.7, 2398.9, 2433.4, 2448.1, 2456.1, 2461.9, 2376.3, 2199.7, 2008.4, 1946.8, 1891.3, 1560.2]}}, "change": {"pct_2026ytd_vs_2025ytd": -4.0, "weekday_pct_2026ytd_vs_2025ytd": -4.5, "trucks_pct_2026ytd_vs_2025ytd": -7.5}, "dac_designated": false, "dac_combined_pct": 0.294, "dac_asthma_pct": 0.17, "uhf42_code": "307", "uhf42_name": "Gramercy Park - Murray Hill", "uhf42_asthma_ed_pm25_children": 35.0, "uhf42_asthma_ed_children": 99.9, "uhf42_poverty_pct": 8.9, "uhf42_pm25_2024": 8.89}}, {"type": "Feature", "geometry": {"type": "Point", "coordinates": [-73.9635, 40.7583]}, "properties": {"id": "queensboro_bridge", "name": "Queensboro Bridge", "layer": "crz_entry", "approx": true, "region": null, "periods": {"post_2025": {"total_entries": 12985145, "excluded_entries": 0, "excluded_share": 0.0, "days": 361, "avg_daily_entries": 35970, "avg_weekday_entries": 37478, "avg_weekend_entries": 32194, "peak_share": 0.7737, "class_mix": {"cars": 0.4597, "trucks_single": 0.055, "trucks_multi": 0.0041, "buses": 0.0096, "motorcycles": 0.004, "taxi_fhv": 0.4676}, "trucks_avg_daily": 2125, "hourly_weekday": [635.7, 474.2, 427.8, 530.3, 996.3, 1353.3, 2388.3, 2640.9, 2580.1, 2074.3, 1812.8, 1716.6, 1704.1, 1784.7, 1984.7, 2094.7, 2077.7, 2000.1, 1826.1, 1547.0, 1334.9, 1374.8, 1198.8, 919.3], "hourly_weekend": [852.9, 693.2, 548.7, 511.4, 659.4, 948.5, 1392.2, 1509.3, 1669.6, 1569.8, 1630.3, 1698.5, 1747.1, 1832.1, 1955.8, 1908.9, 1806.3, 1727.3, 1637.2, 1394.8, 1181.9, 1250.2, 1162.6, 905.8]}, "post_2026_ytd": {"total_entries": 8311430, "excluded_entries": 0, "excluded_share": 0.0, "days": 243, "avg_daily_entries": 34203, "avg_weekday_entries": 35765, "avg_weekend_entries": 30343, "peak_share": 0.7774, "class_mix": {"cars": 0.4314, "trucks_single": 0.0556, "trucks_multi": 0.0032, "buses": 0.0084, "motorcycles": 0.0028, "taxi_fhv": 0.4986}, "trucks_avg_daily": 2012, "hourly_weekday": [589.8, 450.9, 389.1, 488.8, 890.0, 1253.0, 2277.6, 2567.9, 2486.8, 2026.8, 1760.8, 1662.5, 1637.8, 1725.4, 1939.6, 2011.4, 1963.2, 1854.2, 1729.4, 1482.8, 1273.8, 1298.8, 1144.0, 860.9], "hourly_weekend": [787.4, 650.9, 516.4, 481.0, 603.3, 888.7, 1349.3, 1445.6, 1575.7, 1493.3, 1544.8, 1578.5, 1661.5, 1757.4, 1893.2, 1852.6, 1730.7, 1602.7, 1513.2, 1305.4, 1084.6, 1141.2, 1070.0, 816.0]}, "ytd_2025": {"total_entries": 8614288, "excluded_entries": 0, "excluded_share": 0.0, "days": 239, "avg_daily_entries": 36043, "avg_weekday_entries": 37723, "avg_weekend_entries": 31904, "peak_share": 0.7722, "class_mix": {"cars": 0.4687, "trucks_single": 0.0569, "trucks_multi": 0.0044, "buses": 0.0101, "motorcycles": 0.0043, "taxi_fhv": 0.4556}, "trucks_avg_daily": 2211, "hourly_weekday": [645.1, 479.8, 431.2, 536.1, 1009.4, 1357.6, 2425.5, 2657.0, 2619.4, 2098.3, 1828.2, 1723.7, 1707.7, 1786.7, 2004.1, 2110.4, 2107.1, 2020.0, 1832.3, 1524.6, 1320.3, 1372.1, 1193.2, 933.4], "hourly_weekend": [873.0, 703.6, 549.5, 510.1, 656.6, 950.4, 1422.1, 1515.8, 1670.1, 1544.3, 1609.5, 1670.1, 1723.9, 1798.9, 1942.1, 1882.9, 1779.9, 1691.1, 1592.6, 1351.3, 1142.5, 1229.9, 1168.9, 924.4]}}, "change": {"pct_2026ytd_vs_2025ytd": -5.1, "weekday_pct_2026ytd_vs_2025ytd": -5.2, "trucks_pct_2026ytd_vs_2025ytd": -9.0}, "dac_designated": false, "dac_combined_pct": 0.214, "dac_asthma_pct": 0.17, "uhf42_code": "307", "uhf42_name": "Gramercy Park - Murray Hill", "uhf42_asthma_ed_pm25_children": 35.0, "uhf42_asthma_ed_children": 99.9, "uhf42_poverty_pct": 8.9, "uhf42_pm25_2024": 8.89}}, {"type": "Feature", "geometry": {"type": "Point", "coordinates": [-73.9855, 40.771]}, "properties": {"id": "west_60th", "name": "West 60th St", "layer": "crz_entry", "approx": true, "region": null, "periods": {"post_2025": {"total_entries": 13640048, "excluded_entries": 0, "excluded_share": 0.0, "days": 361, "avg_daily_entries": 37784, "avg_weekday_entries": 39090, "avg_weekend_entries": 34514, "peak_share": 0.7694, "class_mix": {"cars": 0.3561, "trucks_single": 0.0503, "trucks_multi": 0.0033, "buses": 0.0241, "motorcycles": 0.0077, "taxi_fhv": 0.5585}, "trucks_avg_daily": 2027, "hourly_weekday": [874.2, 544.4, 355.1, 276.2, 322.6, 476.2, 919.0, 1623.9, 2216.7, 2181.2, 2096.9, 2085.2, 2066.6, 2099.7, 2201.9, 2338.8, 2354.3, 2340.2, 2373.7, 2275.7, 1940.7, 1879.0, 1820.3, 1427.0], "hourly_weekend": [1320.1, 1083.5, 827.3, 610.5, 445.6, 403.2, 536.2, 814.6, 1132.5, 1386.5, 1638.7, 1792.4, 1886.2, 1996.6, 2036.1, 2070.6, 2123.0, 2093.5, 2055.1, 1979.7, 1699.1, 1673.7, 1608.7, 1300.3]}, "post_2026_ytd": {"total_entries": 8663927, "excluded_entries": 0, "excluded_share": 0.0, "days": 243, "avg_daily_entries": 35654, "avg_weekday_entries": 36869, "avg_weekend_entries": 32651, "peak_share": 0.7653, "class_mix": {"cars": 0.3454, "trucks_single": 0.0501, "trucks_multi": 0.0028, "buses": 0.025, "motorcycles": 0.0046, "taxi_fhv": 0.572}, "trucks_avg_daily": 1887, "hourly_weekday": [860.8, 546.9, 354.3, 269.7, 321.9, 442.9, 859.1, 1526.5, 2067.4, 2083.5, 1998.8, 1966.7, 1943.5, 1962.6, 2035.3, 2178.0, 2220.3, 2204.3, 2257.0, 2138.5, 1825.6, 1751.4, 1715.7, 1338.4], "hourly_weekend": [1261.5, 1040.4, 824.0, 622.1, 456.4, 405.1, 536.6, 800.6, 1087.5, 1328.0, 1525.3, 1679.2, 1760.0, 1875.7, 1895.1, 1938.2, 1950.8, 1942.7, 1933.5, 1857.0, 1606.8, 1561.0, 1509.5, 1253.5]}, "ytd_2025": {"total_entries": 8872958, "excluded_entries": 0, "excluded_share": 0.0, "days": 239, "avg_daily_entries": 37125, "avg_weekday_entries": 38675, "avg_weekend_entries": 33308, "peak_share": 0.7708, "class_mix": {"cars": 0.351, "trucks_single": 0.0521, "trucks_multi": 0.0035, "buses": 0.0248, "motorcycles": 0.0089, "taxi_fhv": 0.5597}, "trucks_avg_daily": 2063, "hourly_weekday": [856.2, 530.6, 348.6, 270.9, 309.8, 469.6, 928.5, 1626.3, 2200.6, 2179.0, 2084.7, 2078.3, 2049.7, 2071.5, 2199.9, 2330.2, 2343.4, 2312.0, 2338.0, 2221.7, 1877.9, 1841.1, 1801.7, 1404.3], "hourly_weekend": [1287.9, 1037.6, 797.5, 584.0, 422.2, 381.5, 516.5, 783.7, 1084.9, 1325.0, 1575.2, 1729.3, 1820.8, 1933.0, 1987.4, 2009.7, 2067.3, 2025.8, 1994.6, 1897.4, 1615.2, 1610.2, 1554.3, 1266.9]}}, "change": {"pct_2026ytd_vs_2025ytd": -4.0, "weekday_pct_2026ytd_vs_2025ytd": -4.7, "trucks_pct_2026ytd_vs_2025ytd": -8.5}, "dac_designated": false, "dac_combined_pct": 0.291, "dac_asthma_pct": 0.427, "uhf42_code": "304", "uhf42_name": "Upper West Side", "uhf42_asthma_ed_pm25_children": 40.0, "uhf42_asthma_ed_children": 90.8, "uhf42_poverty_pct": 11.5, "uhf42_pm25_2024": 6.77}}, {"type": "Feature", "geometry": {"type": "Point", "coordinates": [-73.9925, 40.7735]}, "properties": {"id": "wsh_60th", "name": "West Side Highway at 60th St", "layer": "crz_entry", "approx": true, "region": null, "periods": {"post_2025": {"total_entries": 15821242, "excluded_entries": 1794628, "excluded_share": 0.1019, "days": 361, "avg_daily_entries": 43826, "avg_weekday_entries": 45456, "avg_weekend_entries": 39745, "peak_share": 0.8092, "class_mix": {"cars": 0.7321, "trucks_single": 0.0068, "trucks_multi": 0.0001, "buses": 0.0103, "motorcycles": 0.002, "taxi_fhv": 0.2486}, "trucks_avg_daily": 305, "hourly_weekday": [619.6, 408.6, 308.1, 320.6, 776.5, 1263.3, 2740.5, 3230.7, 3489.6, 3237.3, 2687.4, 2293.2, 2144.3, 2137.4, 2311.9, 2397.8, 2435.9, 2522.4, 2464.7, 1984.5, 1511.9, 1617.1, 1475.7, 1076.5], "hourly_weekend": [1078.7, 868.2, 626.9, 492.5, 504.0, 721.1, 1201.5, 1272.5, 1580.5, 1742.0, 2002.4, 2277.1, 2461.4, 2528.8, 2499.7, 2435.5, 2432.5, 2464.2, 2352.9, 2076.4, 1700.6, 1666.3, 1557.3, 1201.7]}, "post_2026_ytd": {"total_entries": 10278489, "excluded_entries": 1119667, "excluded_share": 0.0982, "days": 243, "avg_daily_entries": 42298, "avg_weekday_entries": 43994, "avg_weekend_entries": 38106, "peak_share": 0.807, "class_mix": {"cars": 0.7213, "trucks_single": 0.008, "trucks_multi": 0.0001, "buses": 0.0104, "motorcycles": 0.0021, "taxi_fhv": 0.2582}, "trucks_avg_daily": 343, "hourly_weekday": [627.8, 424.0, 310.2, 320.9, 710.9, 1229.0, 2695.1, 3182.8, 3377.8, 3134.8, 2672.3, 2231.7, 2086.6, 2075.2, 2243.0, 2270.2, 2296.8, 2397.6, 2365.6, 1864.6, 1430.7, 1530.6, 1429.8, 1086.3], "hourly_weekend": [1072.0, 866.9, 652.9, 507.5, 517.3, 716.0, 1206.2, 1227.8, 1514.3, 1683.9, 1914.9, 2159.0, 2352.4, 2395.2, 2401.6, 2323.9, 2311.1, 2324.0, 2248.0, 1958.5, 1616.6, 1560.7, 1443.7, 1131.9]}, "ytd_2025": {"total_entries": 10363078, "excluded_entries": 1173875, "excluded_share": 0.1017, "days": 239, "avg_daily_entries": 43360, "avg_weekday_entries": 45153, "avg_weekend_entries": 38942, "peak_share": 0.8106, "class_mix": {"cars": 0.7365, "trucks_single": 0.0069, "trucks_multi": 0.0001, "buses": 0.0106, "motorcycles": 0.0022, "taxi_fhv": 0.2437}, "trucks_avg_daily": 303, "hourly_weekday": [597.9, 394.4, 303.0, 316.2, 781.7, 1277.5, 2791.7, 3287.2, 3540.2, 3234.2, 2652.8, 2259.8, 2118.6, 2105.9, 2280.3, 2363.6, 2418.1, 2530.6, 2441.5, 1945.2, 1469.8, 1596.8, 1413.9, 1032.4], "hourly_weekend": [1058.7, 836.3, 612.8, 480.6, 486.2, 721.9, 1199.1, 1258.8, 1529.4, 1691.6, 1953.6, 2222.3, 2397.0, 2479.7, 2449.3, 2388.9, 2377.4, 2416.4, 2298.8, 2034.2, 1650.6, 1641.7, 1550.8, 1205.9]}}, "change": {"pct_2026ytd_vs_2025ytd": -2.4, "weekday_pct_2026ytd_vs_2025ytd": -2.6, "trucks_pct_2026ytd_vs_2025ytd": 13.2}, "dac_designated": true, "dac_combined_pct": 0.83, "dac_asthma_pct": 0.427, "uhf42_code": "304", "uhf42_name": "Upper West Side", "uhf42_asthma_ed_pm25_children": 40.0, "uhf42_asthma_ed_children": 90.8, "uhf42_poverty_pct": 11.5, "uhf42_pm25_2024": 6.77}}, {"type": "Feature", "geometry": {"type": "Point", "coordinates": [-73.985, 40.7175]}, "properties": {"id": "williamsburg_bridge", "name": "Williamsburg Bridge", "layer": "crz_entry", "approx": true, "region": null, "periods": {"post_2025": {"total_entries": 14596043, "excluded_entries": 0, "excluded_share": 0.0, "days": 361, "avg_daily_entries": 40432, "avg_weekday_entries": 39915, "avg_weekend_entries": 41728, "peak_share": 0.7036, "class_mix": {"cars": 0.5709, "trucks_single": 0.0424, "trucks_multi": 0.0022, "buses": 0.0057, "motorcycles": 0.0029, "taxi_fhv": 0.3759}, "trucks_avg_daily": 1801, "hourly_weekday": [1089.0, 782.9, 567.9, 565.8, 1181.6, 1535.5, 1998.3, 2121.2, 1995.3, 1894.4, 1858.3, 1829.5, 1846.2, 1899.1, 1964.5, 1990.2, 1943.4, 1927.0, 1949.8, 1909.4, 1811.4, 1961.3, 1802.4, 1490.6], "hourly_weekend": [1720.7, 1545.4, 1191.3, 1010.9, 1023.2, 1149.2, 1538.4, 1756.8, 2046.5, 1846.3, 1966.5, 1990.6, 1976.6, 1979.8, 2034.3, 2010.9, 1967.9, 1946.6, 1948.8, 1883.7, 1822.1, 1938.2, 1841.3, 1592.1]}, "post_2026_ytd": {"total_entries": 9522059, "excluded_entries": 0, "excluded_share": 0.0, "days": 243, "avg_daily_entries": 39185, "avg_weekday_entries": 38566, "avg_weekend_entries": 40716, "peak_share": 0.6959, "class_mix": {"cars": 0.5521, "trucks_single": 0.0417, "trucks_multi": 0.0017, "buses": 0.0056, "motorcycles": 0.0023, "taxi_fhv": 0.3967}, "trucks_avg_daily": 1700, "hourly_weekday": [1094.9, 825.8, 609.4, 606.8, 1154.5, 1476.5, 1965.3, 2033.8, 1910.5, 1823.7, 1768.6, 1739.2, 1739.8, 1788.9, 1868.8, 1902.6, 1892.2, 1864.6, 1865.3, 1830.1, 1737.1, 1831.5, 1739.6, 1496.5], "hourly_weekend": [1724.2, 1562.0, 1237.8, 1074.9, 1094.3, 1168.7, 1555.4, 1692.4, 1979.6, 1816.2, 1920.5, 1906.9, 1883.1, 1900.8, 1955.9, 1923.6, 1871.7, 1864.7, 1868.4, 1810.0, 1763.3, 1819.6, 1768.7, 1553.7]}, "ytd_2025": {"total_entries": 9644061, "excluded_entries": 0, "excluded_share": 0.0, "days": 239, "avg_daily_entries": 40352, "avg_weekday_entries": 39821, "avg_weekend_entries": 41659, "peak_share": 0.7046, "class_mix": {"cars": 0.5759, "trucks_single": 0.0435, "trucks_multi": 0.0023, "buses": 0.0057, "motorcycles": 0.003, "taxi_fhv": 0.3696}, "trucks_avg_daily": 1849, "hourly_weekday": [1063.4, 762.4, 547.2, 541.2, 1160.4, 1532.9, 2012.7, 2126.6, 2004.5, 1897.8, 1851.5, 1823.1, 1842.4, 1904.6, 1969.5, 1994.0, 1948.7, 1938.7, 1960.2, 1910.0, 1785.8, 1970.7, 1798.5, 1474.5], "hourly_weekend": [1732.2, 1532.0, 1181.4, 1001.5, 994.1, 1132.3, 1530.0, 1742.2, 2052.5, 1824.8, 1955.1, 1976.9, 1973.0, 1969.6, 2043.0, 2015.6, 1970.9, 1942.8, 1955.0, 1888.1, 1820.1, 1951.5, 1867.9, 1606.3]}}, "change": {"pct_2026ytd_vs_2025ytd": -2.9, "weekday_pct_2026ytd_vs_2025ytd": -3.2, "trucks_pct_2026ytd_vs_2025ytd": -8.1}, "dac_designated": true, "dac_combined_pct": 0.928, "dac_asthma_pct": 0.925, "uhf42_code": "309", "uhf42_name": "Union Square - Lower East Side", "uhf42_asthma_ed_pm25_children": 90.0, "uhf42_asthma_ed_children": 159.7, "uhf42_poverty_pct": 20.1, "uhf42_pm25_2024": 8.45}}]}