{"type": "FeatureCollection", "features": [{"type": "Feature", "geometry": {"type": "Polygon", "coordinates": [[[-73.877928, 40.905562], [-73.902168, 40.912841], [-73.910731, 40.915775], [-73.914292, 40.904242], [-73.915148, 40.903069], [-73.918149, 40.89411], [-73.91976, 40.89113], [-73.920557, 40.887201], [-73.924678, 40.8789], [-73.922779, 40.878849], [-73.919803, 40.876419], [-73.913012, 40.874791], [-73.910341, 40.873842], [-73.908772, 40.871777], [-73.911053, 40.866308], [-73.914343, 40.862519], [-73.913605, 40.862205], [-73.912918, 40.861961], [-73.909044, 40.862673], [-73.907102, 40.867886], [-73.902659, 40.870579], [-73.900964, 40.875355], [-73.896691, 40.880156], [-73.896377, 40.881823], [-73.887102, 40.882925], [-73.887068, 40.8844], [-73.881243, 40.882708], [-73.877987, 40.887034], [-73.880404, 40.892828], [-73.880107, 40.8952], [-73.877928, 40.905562]]]}, "properties": {"uhf_code": "101", "name": "Kingsbridge - Riverdale", "borough": "Bronx", "pm25_2024": 6.33, "pm25_2009": 11.03, "pm25_change_pct_2009_2024": -42.6, "pm25_series": {"2024": 6.33, "2023": 6.8, "2022": 6.05, "2021": 6.57, "2020": 5.89, "2019": 6.71, "2018": 6.95, "2017": 7.41, "2016": 7.5, "2015": 9.17, "2014": 9.0, "2013": 8.88, "2012": 9.27, "2011": 10.65, "2010": 10.09, "2009": 11.03}, "asthma_ed_pm25_children": 48.0, "asthma_ed_pm25_adults": 16.0, "asthma_period": "2017-2019", "asthma_ed_children": 134.3, "asthma_ed_adults": 47.6, "poverty_pct": 16.5, "health_period": "2023", "health_note": "Asthma ED visits per 10,000 children ages 5-17, 2023: the newest year published (health data lag about two years)"}}, {"type": "Feature", "geometry": {"type": "Polygon", "coordinates": [[[-73.815044, 40.889002], [-73.822852, 40.891207], [-73.823268, 40.889989], [-73.838046, 40.894142], [-73.839648, 40.897327], [-73.83925, 40.8995], [-73.841386, 40.904159], [-73.844761, 40.904242], [-73.845388, 40.905639], [-73.850204, 40.907478], [-73.853536, 40.907465], [-73.857529, 40.904793], [-73.857232, 40.903024], [-73.859682, 40.902294], [-73.859326, 40.900589], [-73.874248, 40.904806], [-73.877928, 40.905562], [-73.880107, 40.8952], [-73.870484, 40.896642], [-73.861361, 40.894661], [-73.865371, 40.886874], [-73.855884, 40.883861], [-73.856266, 40.88315], [-73.861073, 40.87447], [-73.861794, 40.857986], [-73.861836, 40.857383], [-73.849483, 40.858107], [-73.83802, 40.856947], [-73.833077, 40.857537], [-73.830661, 40.857069], [-73.827414, 40.859595], [-73.826117, 40.856677], [-73.823081, 40.857017], [-73.818672, 40.858806], [-73.816604, 40.860935], [-73.819368, 40.859249], [-73.821199, 40.859441], [-73.819113, 40.862], [-73.820216, 40.862923], [-73.821004, 40.868046], [-73.823726, 40.869758], [-73.823938, 40.874073], [-73.821877, 40.879246], [-73.820834, 40.884855], [-73.819359, 40.885727], [-73.81534, 40.886778], [-73.815044, 40.889002]]]}, "properties": {"uhf_code": "102", "name": "Northeast Bronx", "borough": "Bronx", "pm25_2024": 6.13, "pm25_2009": 10.68, "pm25_change_pct_2009_2024": -42.6, "pm25_series": {"2024": 6.13, "2023": 6.81, "2022": 6.03, "2021": 6.49, "2020": 5.95, "2019": 6.68, "2018": 6.99, "2017": 7.46, "2016": 7.55, "2015": 9.13, "2014": 9.0, "2013": 8.73, "2012": 9.11, "2011": 10.48, "2010": 9.65, "2009": 10.68}, "asthma_ed_pm25_children": 81.0, "asthma_ed_pm25_adults": 36.0, "asthma_period": "2017-2019", "asthma_ed_children": 180.2, "asthma_ed_adults": 112.8, "poverty_pct": 16.7, "health_period": "2023", "health_note": "Asthma ED visits per 10,000 children ages 5-17, 2023: the newest year published (health data lag about two years)"}}, {"type": "Feature", "geometry": {"type": "Polygon", "coordinates": [[[-73.856266, 40.88315], [-73.855884, 40.883861], [-73.865371, 40.886874], [-73.861361, 40.894661], [-73.870484, 40.896642], [-73.880107, 40.8952], [-73.880404, 40.892828], [-73.877987, 40.887034], [-73.881243, 40.882708], [-73.887068, 40.8844], [-73.887102, 40.882925], [-73.896377, 40.881823], [-73.896691, 40.880156], [-73.900964, 40.875355], [-73.902659, 40.870579], [-73.907102, 40.867886], [-73.909044, 40.862673], [-73.912918, 40.861961], [-73.914444, 40.859781], [-73.910994, 40.860595], [-73.896038, 40.856408], [-73.889459, 40.853221], [-73.88382, 40.851502], [-73.881667, 40.853349], [-73.88059, 40.85696], [-73.877241, 40.855401], [-73.868856, 40.857223], [-73.868381, 40.857812], [-73.861794, 40.857986], [-73.861073, 40.87447], [-73.856266, 40.88315]]]}, "properties": {"uhf_code": "103", "name": "Fordham - Bronx Pk", "borough": "Bronx", "pm25_2024": 6.38, "pm25_2009": 11.1, "pm25_change_pct_2009_2024": -42.5, "pm25_series": {"2024": 6.38, "2023": 6.84, "2022": 6.13, "2021": 6.58, "2020": 6.0, "2019": 6.7, "2018": 7.19, "2017": 7.52, "2016": 7.57, "2015": 9.14, "2014": 9.19, "2013": 9.06, "2012": 9.47, "2011": 10.77, "2010": 10.26, "2009": 11.1}, "asthma_ed_pm25_children": 112.0, "asthma_ed_pm25_adults": 49.0, "asthma_period": "2017-2019", "asthma_ed_children": 254.9, "asthma_ed_adults": 132.3, "poverty_pct": 27.7, "health_period": "2023", "health_note": "Asthma ED visits per 10,000 children ages 5-17, 2023: the newest year published (health data lag about two years)"}}, {"type": "Feature", "geometry": {"type": "MultiPolygon", "coordinates": [[[[-73.883659, 40.821533], [-73.880548, 40.818466], [-73.877513, 40.816586], [-73.870297, 40.813988], [-73.867457, 40.810651], [-73.862489, 40.810292], [-73.859208, 40.810702], [-73.857665, 40.805325], [-73.854426, 40.804901], [-73.852696, 40.80612], [-73.848025, 40.805369], [-73.850288, 40.808476], [-73.849373, 40.812178], [-73.846253, 40.810792], [-73.844133, 40.815906], [-73.84008, 40.819942], [-73.839809, 40.814424], [-73.840386, 40.812082], [-73.837469, 40.80612], [-73.831712, 40.804959], [-73.832204, 40.808476], [-73.831017, 40.81101], [-73.826473, 40.811427], [-73.821131, 40.813089], [-73.816315, 40.813898], [-73.810169, 40.812987], [-73.803717, 40.808565], [-73.801063, 40.808495], [-73.796095, 40.806197], [-73.793653, 40.804388], [-73.790601, 40.804734], [-73.790982, 40.806602], [-73.793966, 40.806993], [-73.803132, 40.810625], [-73.804997, 40.812364], [-73.801834, 40.812916], [-73.798307, 40.816574], [-73.803657, 40.817902], [-73.806048, 40.820186], [-73.807362, 40.825139], [-73.808575, 40.825595], [-73.811873, 40.8241], [-73.814442, 40.825877], [-73.813119, 40.827712], [-73.815807, 40.831837], [-73.816646, 40.83736], [-73.814883, 40.839111], [-73.817129, 40.844108], [-73.815722, 40.849296], [-73.817384, 40.85131], [-73.816663, 40.853785], [-73.818639, 40.85678], [-73.815078, 40.858281], [-73.814993, 40.860634], [-73.816604, 40.860935], [-73.818672, 40.858806], [-73.823081, 40.857017], [-73.826117, 40.856677], [-73.827414, 40.859595], [-73.830661, 40.857069], [-73.833077, 40.857537], [-73.83802, 40.856947], [-73.849483, 40.858107], [-73.861836, 40.857383], [-73.861794, 40.857986], [-73.868381, 40.857812], [-73.868856, 40.857223], [-73.870959, 40.854369], [-73.871434, 40.85224], [-73.871747, 40.844191], [-73.870993, 40.843107], [-73.867788, 40.844877], [-73.863583, 40.841279], [-73.86477, 40.841016], [-73.86354, 40.83779], [-73.864786, 40.837693], [-73.862938, 40.833479], [-73.87212, 40.836289], [-73.880065, 40.837334], [-73.881277, 40.835134], [-73.881625, 40.833158], [-73.883303, 40.832966], [-73.884677, 40.824902], [-73.883659, 40.821533]]], [[[-73.819359, 40.885727], [-73.81991, 40.879381], [-73.821275, 40.877098], [-73.819546, 40.873137], [-73.821996, 40.872508], [-73.821445, 40.870034], [-73.818579, 40.870072], [-73.814594, 40.867828], [-73.816392, 40.865238], [-73.815103, 40.863058], [-73.813848, 40.864032], [-73.810966, 40.862711], [-73.808227, 40.859428], [-73.805582, 40.861596], [-73.803606, 40.855427], [-73.804624, 40.854478], [-73.800207, 40.84793], [-73.798494, 40.850656], [-73.798418, 40.854965], [-73.794467, 40.856511], [-73.794738, 40.858569], [-73.791889, 40.861064], [-73.792932, 40.865161], [-73.790609, 40.86829], [-73.785827, 40.869046], [-73.783674, 40.87054], [-73.784225, 40.87279], [-73.787701, 40.872996], [-73.785302, 40.876637], [-73.785759, 40.878842], [-73.788574, 40.878784], [-73.790736, 40.880195], [-73.79428, 40.877842], [-73.793271, 40.876977], [-73.794814, 40.872938], [-73.797578, 40.87213], [-73.80219, 40.865231], [-73.8037, 40.869392], [-73.799198, 40.875137], [-73.797485, 40.875041], [-73.795493, 40.880874], [-73.793432, 40.883477], [-73.815044, 40.889002], [-73.81534, 40.886778], [-73.819359, 40.885727]]], [[[-73.788676, 40.854965], [-73.789134, 40.858492], [-73.792373, 40.855895], [-73.789295, 40.85097], [-73.791194, 40.846955], [-73.786836, 40.839945], [-73.78414, 40.836693], [-73.781715, 40.838521], [-73.781876, 40.841805], [-73.783606, 40.843761], [-73.782885, 40.848103], [-73.785081, 40.850976], [-73.788328, 40.853606], [-73.788676, 40.854965]]], [[[-73.765471, 40.85501], [-73.770668, 40.859852], [-73.772397, 40.859781], [-73.772423, 40.851707], [-73.770888, 40.849751], [-73.771185, 40.846942], [-73.769778, 40.8475], [-73.768786, 40.850579], [-73.769506, 40.852714], [-73.767836, 40.854439], [-73.765471, 40.85501]]]]}, "properties": {"uhf_code": "104", "name": "Pelham - Throgs Neck", "borough": "Bronx", "pm25_2024": 6.26, "pm25_2009": 10.59, "pm25_change_pct_2009_2024": -40.9, "pm25_series": {"2024": 6.26, "2023": 6.88, "2022": 6.06, "2021": 6.6, "2020": 6.12, "2019": 6.74, "2018": 7.0, "2017": 7.52, "2016": 7.5, "2015": 8.93, "2014": 8.97, "2013": 8.74, "2012": 9.23, "2011": 10.5, "2010": 9.68, "2009": 10.59}, "asthma_ed_pm25_children": 80.0, "asthma_ed_pm25_adults": 34.0, "asthma_period": "2017-2019", "asthma_ed_children": 199.5, "asthma_ed_adults": 100.0, "poverty_pct": 21.4, "health_period": "2023", "health_note": "Asthma ED visits per 10,000 children ages 5-17, 2023: the newest year published (health data lag about two years)"}}, {"type": "Feature", "geometry": {"type": "Polygon", "coordinates": [[[-73.914444, 40.859781], [-73.912918, 40.861961], [-73.913605, 40.862205], [-73.914343, 40.862519], [-73.917946, 40.858903], [-73.918556, 40.8583], [-73.918862, 40.857992], [-73.919235, 40.857614], [-73.919599, 40.85721], [-73.920837, 40.855562], [-73.921007, 40.855247], [-73.921108, 40.855106], [-73.923855, 40.851419], [-73.923457, 40.851855], [-73.924576, 40.850598], [-73.927527, 40.846455], [-73.922448, 40.845217], [-73.915267, 40.846814], [-73.914385, 40.846455], [-73.911706, 40.843902], [-73.913139, 40.839817], [-73.911392, 40.837873], [-73.910731, 40.838995], [-73.905983, 40.838502], [-73.900565, 40.83659], [-73.901218, 40.83541], [-73.896301, 40.833543], [-73.893011, 40.835641], [-73.892155, 40.833646], [-73.891629, 40.832735], [-73.885635, 40.830644], [-73.882227, 40.835461], [-73.881277, 40.835134], [-73.880065, 40.837334], [-73.87212, 40.836289], [-73.862938, 40.833479], [-73.864786, 40.837693], [-73.86354, 40.83779], [-73.86477, 40.841016], [-73.863583, 40.841279], [-73.867788, 40.844877], [-73.870993, 40.843107], [-73.871747, 40.844191], [-73.871434, 40.85224], [-73.870959, 40.854369], [-73.868856, 40.857223], [-73.877241, 40.855401], [-73.88059, 40.85696], [-73.881667, 40.853349], [-73.88382, 40.851502], [-73.889459, 40.853221], [-73.896038, 40.856408], [-73.910994, 40.860595], [-73.914444, 40.859781]]]}, "properties": {"uhf_code": "105", "name": "Crotona - Tremont", "borough": "Bronx", "pm25_2024": 6.58, "pm25_2009": 11.76, "pm25_change_pct_2009_2024": -44.0, "pm25_series": {"2024": 6.58, "2023": 7.0, "2022": 6.23, "2021": 6.79, "2020": 6.28, "2019": 7.23, "2018": 7.53, "2017": 8.16, "2016": 8.18, "2015": 9.67, "2014": 9.82, "2013": 9.75, "2012": 10.22, "2011": 11.45, "2010": 10.99, "2009": 11.76}, "asthma_ed_pm25_children": 119.0, "asthma_ed_pm25_adults": 67.0, "asthma_period": "2017-2019", "asthma_ed_children": 258.9, "asthma_ed_adults": 171.0, "poverty_pct": 33.9, "health_period": "2023", "health_note": "Asthma ED visits per 10,000 children ages 5-17, 2023: the newest year published (health data lag about two years)"}}, {"type": "Feature", "geometry": {"type": "Polygon", "coordinates": [[[-73.914385, 40.846455], [-73.915267, 40.846814], [-73.922448, 40.845217], [-73.927527, 40.846455], [-73.933122, 40.835589], [-73.933809, 40.833088], [-73.932834, 40.826602], [-73.932249, 40.819345], [-73.932673, 40.811453], [-73.931893, 40.80793], [-73.920481, 40.814565], [-73.917556, 40.821392], [-73.90533, 40.817921], [-73.903618, 40.818768], [-73.898692, 40.830522], [-73.896301, 40.833543], [-73.901218, 40.83541], [-73.900565, 40.83659], [-73.905983, 40.838502], [-73.910731, 40.838995], [-73.911392, 40.837873], [-73.913139, 40.839817], [-73.911706, 40.843902], [-73.914385, 40.846455]]]}, "properties": {"uhf_code": "106", "name": "High Bridge - Morrisania", "borough": "Bronx", "pm25_2024": 6.57, "pm25_2009": 11.8, "pm25_change_pct_2009_2024": -44.3, "pm25_series": {"2024": 6.57, "2023": 6.91, "2022": 6.07, "2021": 6.63, "2020": 6.12, "2019": 7.14, "2018": 7.68, "2017": 8.16, "2016": 8.16, "2015": 9.6, "2014": 9.87, "2013": 9.83, "2012": 10.26, "2011": 11.44, "2010": 11.0, "2009": 11.8}, "asthma_ed_pm25_children": 138.0, "asthma_ed_pm25_adults": 78.0, "asthma_period": "2017-2019", "asthma_ed_children": 287.9, "asthma_ed_adults": 179.0, "poverty_pct": 35.3, "health_period": "2023", "health_note": "Asthma ED visits per 10,000 children ages 5-17, 2023: the newest year published (health data lag about two years)"}}, {"type": "Feature", "geometry": {"type": "Polygon", "coordinates": [[[-73.892155, 40.833646], [-73.893011, 40.835641], [-73.896301, 40.833543], [-73.898692, 40.830522], [-73.903618, 40.818768], [-73.90533, 40.817921], [-73.917556, 40.821392], [-73.920481, 40.814565], [-73.931893, 40.80793], [-73.931868, 40.807885], [-73.93124, 40.807263], [-73.926535, 40.802096], [-73.922855, 40.802283], [-73.918794, 40.799067], [-73.91536, 40.797321], [-73.91168, 40.796699], [-73.905737, 40.801718], [-73.902117, 40.805966], [-73.894995, 40.806576], [-73.890671, 40.806371], [-73.887975, 40.805049], [-73.884177, 40.802019], [-73.878581, 40.803053], [-73.873621, 40.80096], [-73.871883, 40.801596], [-73.868619, 40.806563], [-73.871951, 40.813397], [-73.878521, 40.815797], [-73.881404, 40.817992], [-73.881413, 40.817992], [-73.883659, 40.821533], [-73.884677, 40.824902], [-73.883303, 40.832966], [-73.881625, 40.833158], [-73.881277, 40.835134], [-73.882227, 40.835461], [-73.885635, 40.830644], [-73.891629, 40.832735], [-73.892155, 40.833646]]]}, "properties": {"uhf_code": "107", "name": "Hunts Point - Mott Haven", "borough": "Bronx", "pm25_2024": 6.89, "pm25_2009": 11.45, "pm25_change_pct_2009_2024": -39.8, "pm25_series": {"2024": 6.89, "2023": 7.16, "2022": 6.24, "2021": 6.98, "2020": 6.36, "2019": 7.52, "2018": 7.85, "2017": 8.26, "2016": 8.26, "2015": 9.62, "2014": 9.75, "2013": 9.57, "2012": 10.02, "2011": 11.24, "2010": 10.48, "2009": 11.45}, "asthma_ed_pm25_children": 147.0, "asthma_ed_pm25_adults": 83.0, "asthma_period": "2017-2019", "asthma_ed_children": 266.2, "asthma_ed_adults": 193.5, "poverty_pct": 35.8, "health_period": "2023", "health_note": "Asthma ED visits per 10,000 children ages 5-17, 2023: the newest year published (health data lag about two years)"}}, {"type": "Feature", "geometry": {"type": "Polygon", "coordinates": [[[-73.924042, 40.71401], [-73.923041, 40.716992], [-73.924178, 40.720019], [-73.927798, 40.726496], [-73.931791, 40.728474], [-73.937523, 40.729817], [-73.939659, 40.731488], [-73.94216, 40.735676], [-73.952623, 40.739255], [-73.957057, 40.739165], [-73.963, 40.736544], [-73.962296, 40.731616], [-73.960287, 40.729618], [-73.961932, 40.726913], [-73.961822, 40.724966], [-73.963492, 40.723167], [-73.967757, 40.716549], [-73.970334, 40.709261], [-73.96913, 40.707031], [-73.967205, 40.704254], [-73.962178, 40.700218], [-73.962839, 40.698039], [-73.957023, 40.698971], [-73.957455, 40.700822], [-73.95024, 40.705475], [-73.951113, 40.710958], [-73.940685, 40.71196], [-73.929604, 40.714723], [-73.926331, 40.714042], [-73.924042, 40.71401]]]}, "properties": {"uhf_code": "201", "name": "Greenpoint", "borough": "Brooklyn", "pm25_2024": 7.43, "pm25_2009": 11.93, "pm25_change_pct_2009_2024": -37.7, "pm25_series": {"2024": 7.43, "2023": 7.36, "2022": 6.5, "2021": 7.67, "2020": 7.04, "2019": 8.56, "2018": 8.72, "2017": 8.98, "2016": 9.46, "2015": 10.49, "2014": 10.54, "2013": 10.0, "2012": 10.27, "2011": 11.51, "2010": 10.57, "2009": 11.93}, "asthma_ed_pm25_children": 21.0, "asthma_ed_pm25_adults": 14.0, "asthma_period": "2017-2019", "asthma_ed_children": 48.9, "asthma_ed_adults": 38.5, "poverty_pct": 16.7, "health_period": "2023", "health_note": "Asthma ED visits per 10,000 children ages 5-17, 2023: the newest year published (health data lag about two years)"}}, {"type": "Feature", "geometry": {"type": "Polygon", "coordinates": [[[-73.96913, 40.707031], [-73.969325, 40.704929], [-73.973191, 40.705649], [-73.968833, 40.701677], [-73.969825, 40.700186], [-73.972759, 40.702622], [-73.974141, 40.701246], [-73.977439, 40.703322], [-73.978456, 40.705752], [-73.990445, 40.704852], [-73.992725, 40.705546], [-73.996235, 40.702994], [-74.003688, 40.68992], [-74.007207, 40.68684], [-74.01928, 40.679646], [-74.019983, 40.677067], [-74.017381, 40.67346], [-74.011887, 40.670438], [-74.0107, 40.668972], [-74.012005, 40.665621], [-74.016685, 40.665435], [-74.01772, 40.670939], [-74.018763, 40.671074], [-74.017889, 40.665853], [-74.015753, 40.664566], [-74.011675, 40.665081], [-74.005443, 40.67092], [-74.005536, 40.667525], [-74.000873, 40.669029], [-73.999016, 40.671428], [-73.998609, 40.671447], [-73.997236, 40.669203], [-73.995015, 40.666515], [-73.995795, 40.665518], [-73.991674, 40.663029], [-73.994582, 40.660225], [-73.99019, 40.657601], [-73.988427, 40.659248], [-73.981797, 40.655247], [-73.979516, 40.657479], [-73.977286, 40.656141], [-73.975158, 40.65872], [-73.979652, 40.661235], [-73.970419, 40.672515], [-73.972352, 40.677447], [-73.970622, 40.682263], [-73.971741, 40.682648], [-73.972682, 40.687419], [-73.957277, 40.689193], [-73.957133, 40.68846], [-73.951317, 40.689135], [-73.951758, 40.691328], [-73.953369, 40.699408], [-73.957023, 40.698971], [-73.962839, 40.698039], [-73.962178, 40.700218], [-73.967205, 40.704254], [-73.96913, 40.707031]]]}, "properties": {"uhf_code": "202", "name": "Downtown - Heights - Slope", "borough": "Brooklyn", "pm25_2024": 7.23, "pm25_2009": 11.5, "pm25_change_pct_2009_2024": -37.1, "pm25_series": {"2024": 7.23, "2023": 7.16, "2022": 6.39, "2021": 7.1, "2020": 6.69, "2019": 7.44, "2018": 7.85, "2017": 8.35, "2016": 8.86, "2015": 9.89, "2014": 9.99, "2013": 9.46, "2012": 9.9, "2011": 11.14, "2010": 10.49, "2009": 11.5}, "asthma_ed_pm25_children": 43.0, "asthma_ed_pm25_adults": 23.0, "asthma_period": "2017-2019", "asthma_ed_children": 114.0, "asthma_ed_adults": 45.8, "poverty_pct": 12.5, "health_period": "2023", "health_note": "Asthma ED visits per 10,000 children ages 5-17, 2023: the newest year published (health data lag about two years)"}}, {"type": "Feature", "geometry": {"type": "Polygon", "coordinates": [[[-73.916047, 40.686069], [-73.917853, 40.686229], [-73.94389, 40.68324], [-73.945645, 40.692035], [-73.951758, 40.691328], [-73.951317, 40.689135], [-73.957133, 40.68846], [-73.957277, 40.689193], [-73.972682, 40.687419], [-73.971741, 40.682648], [-73.970622, 40.682263], [-73.972352, 40.677447], [-73.970419, 40.672515], [-73.969249, 40.67274], [-73.962898, 40.663795], [-73.960957, 40.663286], [-73.962619, 40.671627], [-73.955268, 40.670123], [-73.947731, 40.669705], [-73.94807, 40.666142], [-73.942525, 40.66584], [-73.94283, 40.662849], [-73.93993, 40.663904], [-73.931579, 40.663229], [-73.921778, 40.654424], [-73.92138, 40.654436], [-73.91068, 40.654179], [-73.903177, 40.655298], [-73.899039, 40.657369], [-73.899217, 40.659112], [-73.903473, 40.675505], [-73.903465, 40.678893], [-73.916047, 40.686069]]]}, "properties": {"uhf_code": "203", "name": "Bedford Stuyvesant - Crown Heights", "borough": "Brooklyn", "pm25_2024": 6.55, "pm25_2009": 10.75, "pm25_change_pct_2009_2024": -39.1, "pm25_series": {"2024": 6.55, "2023": 6.82, "2022": 5.93, "2021": 6.61, "2020": 6.2, "2019": 6.61, "2018": 7.27, "2017": 7.53, "2016": 7.94, "2015": 8.87, "2014": 9.16, "2013": 8.75, "2012": 9.13, "2011": 10.29, "2010": 9.93, "2009": 10.75}, "asthma_ed_pm25_children": 107.0, "asthma_ed_pm25_adults": 55.0, "asthma_period": "2017-2019", "asthma_ed_children": 259.1, "asthma_ed_adults": 116.5, "poverty_pct": 22.6, "health_period": "2023", "health_note": "Asthma ED visits per 10,000 children ages 5-17, 2023: the newest year published (health data lag about two years)"}}, {"type": "Feature", "geometry": {"type": "Polygon", "coordinates": [[[-73.860598, 40.654784], [-73.862107, 40.656836], [-73.863167, 40.658276], [-73.857605, 40.660071], [-73.858428, 40.663454], [-73.855681, 40.663865], [-73.857631, 40.671653], [-73.860386, 40.671267], [-73.862345, 40.679163], [-73.863286, 40.679073], [-73.8641, 40.682372], [-73.866296, 40.683188], [-73.868593, 40.693886], [-73.868424, 40.694715], [-73.874019, 40.694188], [-73.879293, 40.691263], [-73.883778, 40.687862], [-73.887627, 40.686004], [-73.889628, 40.684236], [-73.892519, 40.683426], [-73.894037, 40.685136], [-73.896496, 40.682449], [-73.901159, 40.687875], [-73.900421, 40.688184], [-73.902074, 40.692003], [-73.903592, 40.690408], [-73.908849, 40.693404], [-73.916047, 40.686069], [-73.903465, 40.678893], [-73.903473, 40.675505], [-73.899217, 40.659112], [-73.899039, 40.657369], [-73.898598, 40.655832], [-73.898005, 40.6538], [-73.894215, 40.650403], [-73.89274, 40.651355], [-73.891256, 40.650024], [-73.887678, 40.649194], [-73.884804, 40.650764], [-73.886279, 40.652758], [-73.88221, 40.654501], [-73.879403, 40.648872], [-73.878437, 40.649329], [-73.875054, 40.645167], [-73.873731, 40.646872], [-73.873536, 40.646994], [-73.879734, 40.655562], [-73.874893, 40.657646], [-73.873189, 40.655761], [-73.86599, 40.658862], [-73.863515, 40.655819], [-73.860488, 40.654655], [-73.860598, 40.654784]]]}, "properties": {"uhf_code": "204", "name": "East New York", "borough": "Brooklyn", "pm25_2024": 6.31, "pm25_2009": 10.6, "pm25_change_pct_2009_2024": -40.5, "pm25_series": {"2024": 6.31, "2023": 6.79, "2022": 5.75, "2021": 6.55, "2020": 6.02, "2019": 6.56, "2018": 7.06, "2017": 7.52, "2016": 7.8, "2015": 8.72, "2014": 9.04, "2013": 8.69, "2012": 8.94, "2011": 10.09, "2010": 9.79, "2009": 10.6}, "asthma_ed_pm25_children": 99.0, "asthma_ed_pm25_adults": 58.0, "asthma_period": "2017-2019", "asthma_ed_children": 215.1, "asthma_ed_adults": 123.3, "poverty_pct": 23.4, "health_period": "2023", "health_note": "Asthma ED visits per 10,000 children ages 5-17, 2023: the newest year published (health data lag about two years)"}}, {"type": "Feature", "geometry": {"type": "MultiPolygon", "coordinates": [[[[-73.997236, 40.669203], [-73.998609, 40.671447], [-73.999093, 40.668875], [-74.002925, 40.666406], [-73.999559, 40.664361], [-74.000941, 40.663029], [-74.005435, 40.665602], [-74.005536, 40.662187], [-74.009029, 40.664097], [-74.014506, 40.661518], [-74.013591, 40.659981], [-74.015965, 40.658598], [-74.017652, 40.659582], [-74.024562, 40.653549], [-74.023833, 40.651535], [-74.025639, 40.649754], [-74.024062, 40.647599], [-74.025054, 40.646994], [-74.029089, 40.648776], [-74.031361, 40.646666], [-74.030403, 40.645399], [-74.033074, 40.644923], [-74.036499, 40.641455], [-74.035779, 40.640709], [-74.037703, 40.637601], [-74.041519, 40.629681], [-74.042494, 40.624668], [-74.042188, 40.620916], [-74.040671, 40.615202], [-74.03789, 40.610825], [-74.035694, 40.609158], [-74.034846, 40.611437], [-74.037432, 40.612898], [-74.040154, 40.617145], [-74.041154, 40.622159], [-74.040501, 40.630028], [-74.035965, 40.638811], [-74.026037, 40.635742], [-74.016957, 40.631624], [-74.016948, 40.630562], [-74.016049, 40.631032], [-74.0127, 40.629025], [-73.993989, 40.647103], [-73.989063, 40.644118], [-73.980364, 40.647695], [-73.981797, 40.655247], [-73.988427, 40.659248], [-73.99019, 40.657601], [-73.994582, 40.660225], [-73.991674, 40.663029], [-73.995795, 40.665518], [-73.995015, 40.666515], [-73.997236, 40.669203]]], [[[-74.005536, 40.667525], [-74.000178, 40.668599], [-73.999016, 40.671428], [-74.000873, 40.669029], [-74.005536, 40.667525]]]]}, "properties": {"uhf_code": "205", "name": "Sunset Park", "borough": "Brooklyn", "pm25_2024": 7.06, "pm25_2009": 11.04, "pm25_change_pct_2009_2024": -36.1, "pm25_series": {"2024": 7.06, "2023": 7.08, "2022": 6.18, "2021": 6.99, "2020": 6.47, "2019": 7.32, "2018": 7.72, "2017": 8.09, "2016": 8.4, "2015": 9.45, "2014": 9.63, "2013": 9.12, "2012": 9.59, "2011": 10.84, "2010": 10.21, "2009": 11.04}, "asthma_ed_pm25_children": 33.0, "asthma_ed_pm25_adults": 18.0, "asthma_period": "2017-2019", "asthma_ed_children": 87.4, "asthma_ed_adults": 36.2, "poverty_pct": 22.0, "health_period": "2023", "health_note": "Asthma ED visits per 10,000 children ages 5-17, 2023: the newest year published (health data lag about two years)"}}, {"type": "Feature", "geometry": {"type": "Polygon", "coordinates": [[[-73.953598, 40.610947], [-73.958396, 40.636327], [-73.96395, 40.633664], [-73.965383, 40.636282], [-73.967909, 40.649599], [-73.971394, 40.648255], [-73.974158, 40.657794], [-73.975158, 40.65872], [-73.977286, 40.656141], [-73.979516, 40.657479], [-73.981797, 40.655247], [-73.980364, 40.647695], [-73.989063, 40.644118], [-73.993989, 40.647103], [-74.0127, 40.629025], [-73.997287, 40.619713], [-74.000822, 40.616315], [-73.987359, 40.608147], [-73.987257, 40.607246], [-73.953598, 40.610947]]]}, "properties": {"uhf_code": "206", "name": "Borough Park", "borough": "Brooklyn", "pm25_2024": 6.3, "pm25_2009": 10.27, "pm25_change_pct_2009_2024": -38.7, "pm25_series": {"2024": 6.3, "2023": 6.58, "2022": 5.67, "2021": 6.43, "2020": 5.94, "2019": 6.32, "2018": 6.99, "2017": 7.27, "2016": 7.45, "2015": 8.44, "2014": 8.87, "2013": 8.49, "2012": 8.89, "2011": 10.07, "2010": 9.61, "2009": 10.27}, "asthma_ed_pm25_children": 14.0, "asthma_ed_pm25_adults": 10.0, "asthma_period": "2017-2019", "asthma_ed_children": 29.2, "asthma_ed_adults": 20.7, "poverty_pct": 21.5, "health_period": "2023", "health_note": "Asthma ED visits per 10,000 children ages 5-17, 2023: the newest year published (health data lag about two years)"}}, {"type": "Feature", "geometry": {"type": "Polygon", "coordinates": [[[-73.962898, 40.663795], [-73.969249, 40.67274], [-73.970419, 40.672515], [-73.979652, 40.661235], [-73.975158, 40.65872], [-73.974158, 40.657794], [-73.971394, 40.648255], [-73.967909, 40.649599], [-73.965383, 40.636282], [-73.96395, 40.633664], [-73.958396, 40.636327], [-73.953598, 40.610947], [-73.950706, 40.61125], [-73.944831, 40.616045], [-73.93999, 40.621167], [-73.936632, 40.622403], [-73.933453, 40.625942], [-73.934326, 40.634185], [-73.926085, 40.638161], [-73.919726, 40.642729], [-73.92088, 40.653607], [-73.92138, 40.654436], [-73.921778, 40.654424], [-73.931579, 40.663229], [-73.93993, 40.663904], [-73.94283, 40.662849], [-73.942525, 40.66584], [-73.94807, 40.666142], [-73.947731, 40.669705], [-73.955268, 40.670123], [-73.962619, 40.671627], [-73.960957, 40.663286], [-73.962898, 40.663795]]]}, "properties": {"uhf_code": "207", "name": "East Flatbush - Flatbush", "borough": "Brooklyn", "pm25_2024": 6.21, "pm25_2009": 10.47, "pm25_change_pct_2009_2024": -40.7, "pm25_series": {"2024": 6.21, "2023": 6.58, "2022": 5.64, "2021": 6.44, "2020": 5.97, "2019": 6.31, "2018": 7.04, "2017": 7.36, "2016": 7.64, "2015": 8.59, "2014": 8.97, "2013": 8.6, "2012": 8.98, "2011": 10.15, "2010": 9.8, "2009": 10.47}, "asthma_ed_pm25_children": 75.0, "asthma_ed_pm25_adults": 37.0, "asthma_period": "2017-2019", "asthma_ed_children": 174.1, "asthma_ed_adults": 89.4, "poverty_pct": 14.4, "health_period": "2023", "health_note": "Asthma ED visits per 10,000 children ages 5-17, 2023: the newest year published (health data lag about two years)"}}, {"type": "Feature", "geometry": {"type": "MultiPolygon", "coordinates": [[[[-73.898598, 40.655832], [-73.899039, 40.657369], [-73.903177, 40.655298], [-73.91068, 40.654179], [-73.92138, 40.654436], [-73.92088, 40.653607], [-73.919726, 40.642729], [-73.926085, 40.638161], [-73.934326, 40.634185], [-73.933453, 40.625942], [-73.936632, 40.622403], [-73.93999, 40.621167], [-73.944831, 40.616045], [-73.944577, 40.614803], [-73.939345, 40.610188], [-73.93754, 40.608553], [-73.936047, 40.609518], [-73.933512, 40.608341], [-73.929867, 40.605071], [-73.933555, 40.602689], [-73.928129, 40.597777], [-73.92957, 40.596818], [-73.915759, 40.584424], [-73.913452, 40.581507], [-73.911468, 40.581334], [-73.913054, 40.58568], [-73.910527, 40.585261], [-73.909069, 40.586607], [-73.904287, 40.587071], [-73.900082, 40.588545], [-73.896784, 40.583046], [-73.896877, 40.581205], [-73.899768, 40.58029], [-73.903999, 40.583046], [-73.905262, 40.581945], [-73.901769, 40.580812], [-73.896173, 40.576871], [-73.887593, 40.578082], [-73.879285, 40.580361], [-73.875944, 40.584186], [-73.884931, 40.604704], [-73.898776, 40.603893], [-73.898581, 40.605225], [-73.891527, 40.609287], [-73.887339, 40.609564], [-73.897013, 40.621566], [-73.896445, 40.622731], [-73.891493, 40.62185], [-73.889688, 40.622834], [-73.889204, 40.625582], [-73.887271, 40.626155], [-73.882659, 40.629913], [-73.878038, 40.634487], [-73.875808, 40.635787], [-73.873401, 40.634616], [-73.868347, 40.637376], [-73.868144, 40.638322], [-73.873731, 40.646872], [-73.875054, 40.645167], [-73.878437, 40.649329], [-73.879403, 40.648872], [-73.88221, 40.654501], [-73.886279, 40.652758], [-73.884804, 40.650764], [-73.887678, 40.649194], [-73.891256, 40.650024], [-73.89274, 40.651355], [-73.894215, 40.650403], [-73.898005, 40.6538], [-73.898598, 40.655832]]], [[[-73.863515, 40.655819], [-73.86599, 40.658862], [-73.873189, 40.655761], [-73.874893, 40.657646], [-73.879734, 40.655562], [-73.873536, 40.646994], [-73.872425, 40.645354], [-73.869678, 40.644595], [-73.86538, 40.645071], [-73.863574, 40.644247], [-73.858317, 40.645186], [-73.857766, 40.649381], [-73.856656, 40.650127], [-73.858385, 40.652668], [-73.858385, 40.652668], [-73.859903, 40.65407], [-73.859928, 40.654102], [-73.860488, 40.654655], [-73.863515, 40.655819]]]]}, "properties": {"uhf_code": "208", "name": "Canarsie - Flatlands", "borough": "Brooklyn", "pm25_2024": 5.83, "pm25_2009": 9.85, "pm25_change_pct_2009_2024": -40.8, "pm25_series": {"2024": 5.83, "2023": 6.42, "2022": 5.35, "2021": 6.27, "2020": 5.69, "2019": 6.15, "2018": 6.7, "2017": 7.02, "2016": 7.12, "2015": 8.1, "2014": 8.48, "2013": 8.18, "2012": 8.37, "2011": 9.55, "2010": 9.12, "2009": 9.85}, "asthma_ed_pm25_children": 55.0, "asthma_ed_pm25_adults": 27.0, "asthma_period": "2017-2019", "asthma_ed_children": 147.9, "asthma_ed_adults": 71.5, "poverty_pct": 12.7, "health_period": "2023", "health_note": "Asthma ED visits per 10,000 children ages 5-17, 2023: the newest year published (health data lag about two years)"}}, {"type": "Feature", "geometry": {"type": "Polygon", "coordinates": [[[-74.016948, 40.630562], [-74.016957, 40.631624], [-74.026037, 40.635742], [-74.035965, 40.638811], [-74.040501, 40.630028], [-74.041154, 40.622159], [-74.040154, 40.617145], [-74.037432, 40.612898], [-74.034846, 40.611437], [-74.035694, 40.609158], [-74.033939, 40.607027], [-74.02931, 40.604601], [-74.020085, 40.60323], [-74.01878, 40.602341], [-74.014778, 40.602013], [-74.012005, 40.600938], [-74.003442, 40.596181], [-74.000949, 40.592511], [-73.999152, 40.592942], [-73.997109, 40.591275], [-73.998584, 40.590541], [-73.998016, 40.588423], [-74.000483, 40.587373], [-73.998423, 40.585654], [-74.000152, 40.583484], [-73.995879, 40.582473], [-73.990648, 40.58474], [-73.992318, 40.581488], [-73.98746, 40.580381], [-73.985765, 40.581443], [-73.982814, 40.583793], [-73.987257, 40.607246], [-73.987359, 40.608147], [-74.000822, 40.616315], [-73.997287, 40.619713], [-74.0127, 40.629025], [-74.016049, 40.631032], [-74.016948, 40.630562]]]}, "properties": {"uhf_code": "209", "name": "Bensonhurst - Bay Ridge", "borough": "Brooklyn", "pm25_2024": 6.18, "pm25_2009": 9.91, "pm25_change_pct_2009_2024": -37.6, "pm25_series": {"2024": 6.18, "2023": 6.47, "2022": 5.58, "2021": 6.43, "2020": 5.93, "2019": 6.21, "2018": 6.67, "2017": 7.06, "2016": 7.11, "2015": 8.13, "2014": 8.62, "2013": 8.24, "2012": 8.6, "2011": 9.78, "2010": 9.18, "2009": 9.91}, "asthma_ed_pm25_children": 14.0, "asthma_ed_pm25_adults": 8.0, "asthma_period": "2017-2019", "asthma_ed_children": 38.5, "asthma_ed_adults": 17.9, "poverty_pct": 15.0, "health_period": "2023", "health_note": "Asthma ED visits per 10,000 children ages 5-17, 2023: the newest year published (health data lag about two years)"}}, {"type": "Feature", "geometry": {"type": "Polygon", "coordinates": [[[-73.939345, 40.610188], [-73.944577, 40.614803], [-73.944831, 40.616045], [-73.950706, 40.61125], [-73.953598, 40.610947], [-73.987257, 40.607246], [-73.982814, 40.583793], [-73.985765, 40.581443], [-73.987308, 40.579067], [-73.999746, 40.580748], [-74.000907, 40.581501], [-74.010471, 40.580439], [-74.012751, 40.578558], [-74.011403, 40.57398], [-73.997117, 40.570489], [-73.990733, 40.570592], [-73.989181, 40.571255], [-73.977439, 40.57152], [-73.972496, 40.572647], [-73.964094, 40.573774], [-73.954471, 40.574501], [-73.952326, 40.574134], [-73.943958, 40.575757], [-73.934945, 40.575274], [-73.931113, 40.576118], [-73.932453, 40.581128], [-73.944144, 40.581276], [-73.949698, 40.582319], [-73.953301, 40.582003], [-73.953496, 40.582988], [-73.948366, 40.583491], [-73.935437, 40.583265], [-73.931104, 40.582821], [-73.925975, 40.584263], [-73.919514, 40.583793], [-73.915759, 40.584424], [-73.92957, 40.596818], [-73.928129, 40.597777], [-73.933555, 40.602689], [-73.929867, 40.605071], [-73.933512, 40.608341], [-73.936047, 40.609518], [-73.93754, 40.608553], [-73.939345, 40.610188]]]}, "properties": {"uhf_code": "210", "name": "Coney Island - Sheepshead Bay", "borough": "Brooklyn", "pm25_2024": 5.9, "pm25_2009": 9.55, "pm25_change_pct_2009_2024": -38.2, "pm25_series": {"2024": 5.9, "2023": 6.35, "2022": 5.4, "2021": 6.27, "2020": 5.7, "2019": 6.04, "2018": 6.55, "2017": 6.83, "2016": 6.75, "2015": 7.72, "2014": 8.37, "2013": 8.11, "2012": 8.3, "2011": 9.44, "2010": 8.89, "2009": 9.55}, "asthma_ed_pm25_children": 30.0, "asthma_ed_pm25_adults": 18.0, "asthma_period": "2017-2019", "asthma_ed_children": 74.0, "asthma_ed_adults": 34.5, "poverty_pct": 19.3, "health_period": "2023", "health_note": "Asthma ED visits per 10,000 children ages 5-17, 2023: the newest year published (health data lag about two years)"}}, {"type": "Feature", "geometry": {"type": "Polygon", "coordinates": [[[-73.926331, 40.714042], [-73.929604, 40.714723], [-73.940685, 40.71196], [-73.951113, 40.710958], [-73.95024, 40.705475], [-73.957455, 40.700822], [-73.957023, 40.698971], [-73.953369, 40.699408], [-73.951758, 40.691328], [-73.945645, 40.692035], [-73.94389, 40.68324], [-73.917853, 40.686229], [-73.916047, 40.686069], [-73.908849, 40.693404], [-73.903592, 40.690408], [-73.902074, 40.692003], [-73.905796, 40.69413], [-73.904262, 40.695699], [-73.911808, 40.699935], [-73.91068, 40.701047], [-73.912901, 40.702364], [-73.911808, 40.703431], [-73.921888, 40.709396], [-73.920744, 40.710533], [-73.924042, 40.71401], [-73.926331, 40.714042]]]}, "properties": {"uhf_code": "211", "name": "Williamsburg - Bushwick", "borough": "Brooklyn", "pm25_2024": 7.2, "pm25_2009": 11.36, "pm25_change_pct_2009_2024": -36.6, "pm25_series": {"2024": 7.2, "2023": 7.23, "2022": 6.41, "2021": 7.25, "2020": 6.72, "2019": 7.5, "2018": 8.11, "2017": 8.22, "2016": 8.67, "2015": 9.61, "2014": 9.84, "2013": 9.36, "2012": 9.7, "2011": 10.88, "2010": 10.33, "2009": 11.36}, "asthma_ed_pm25_children": 88.0, "asthma_ed_pm25_adults": 51.0, "asthma_period": "2017-2019", "asthma_ed_children": 159.4, "asthma_ed_adults": 92.1, "poverty_pct": 26.2, "health_period": "2023", "health_note": "Asthma ED visits per 10,000 children ages 5-17, 2023: the newest year published (health data lag about two years)"}}, {"type": "Feature", "geometry": {"type": "MultiPolygon", "coordinates": [[[[-73.93453, 40.836013], [-73.930172, 40.844364], [-73.92205, 40.85576], [-73.920464, 40.859121], [-73.919489, 40.858832], [-73.914928, 40.863603], [-73.91185, 40.867668], [-73.910587, 40.872457], [-73.91146, 40.873323], [-73.917505, 40.874528], [-73.920685, 40.873124], [-73.92238, 40.874797], [-73.92255, 40.877573], [-73.928468, 40.877246], [-73.931478, 40.873431], [-73.933173, 40.866571], [-73.938116, 40.859339], [-73.944738, 40.8519], [-73.947052, 40.850515], [-73.945976, 40.844601], [-73.949731, 40.835468], [-73.955039, 40.827417], [-73.956302, 40.827936], [-73.959549, 40.823663], [-73.958167, 40.82299], [-73.958888, 40.819987], [-73.952275, 40.817222], [-73.950927, 40.81837], [-73.948112, 40.817164], [-73.944865, 40.824081], [-73.943847, 40.823644], [-73.939718, 40.829322], [-73.938786, 40.832645], [-73.93453, 40.836013]]], [[[-73.923457, 40.851855], [-73.923855, 40.851419], [-73.924576, 40.850598], [-73.923457, 40.851855]]], [[[-73.921007, 40.855247], [-73.920837, 40.855562], [-73.921108, 40.855106], [-73.921007, 40.855247]]], [[[-73.918556, 40.8583], [-73.918862, 40.857992], [-73.917946, 40.858903], [-73.918556, 40.8583]]]]}, "properties": {"uhf_code": "301", "name": "Washington Heights", "borough": "Manhattan", "pm25_2024": 6.67, "pm25_2009": 11.55, "pm25_change_pct_2009_2024": -42.3, "pm25_series": {"2024": 6.67, "2023": 6.98, "2022": 6.29, "2021": 6.86, "2020": 6.29, "2019": 7.11, "2018": 7.32, "2017": 7.79, "2016": 7.81, "2015": 9.36, "2014": 9.49, "2013": 9.48, "2012": 9.89, "2011": 11.12, "2010": 10.71, "2009": 11.55}, "asthma_ed_pm25_children": 62.0, "asthma_ed_pm25_adults": 23.0, "asthma_period": "2017-2019", "asthma_ed_children": 153.7, "asthma_ed_adults": 52.6, "poverty_pct": 18.7, "health_period": "2023", "health_note": "Asthma ED visits per 10,000 children ages 5-17, 2023: the newest year published (health data lag about two years)"}}, {"type": "Feature", "geometry": {"type": "Polygon", "coordinates": [[[-73.933945, 40.808264], [-73.933902, 40.818665], [-73.935208, 40.832228], [-73.93453, 40.836013], [-73.938786, 40.832645], [-73.939718, 40.829322], [-73.943847, 40.823644], [-73.944865, 40.824081], [-73.948112, 40.817164], [-73.950927, 40.81837], [-73.952275, 40.817222], [-73.958888, 40.819987], [-73.958167, 40.82299], [-73.96417, 40.815791], [-73.968299, 40.809817], [-73.963899, 40.808007], [-73.964848, 40.806704], [-73.962008, 40.805511], [-73.959312, 40.806095], [-73.961076, 40.801808], [-73.958193, 40.800556], [-73.952487, 40.798252], [-73.949223, 40.796911], [-73.944602, 40.803232], [-73.942991, 40.802571], [-73.941168, 40.805061], [-73.942754, 40.805742], [-73.939947, 40.809579], [-73.936726, 40.808225], [-73.933945, 40.808264]]]}, "properties": {"uhf_code": "302", "name": "Central Harlem - Morningside Heights", "borough": "Manhattan", "pm25_2024": 6.85, "pm25_2009": 11.6, "pm25_change_pct_2009_2024": -40.9, "pm25_series": {"2024": 6.85, "2023": 6.92, "2022": 6.25, "2021": 6.78, "2020": 6.35, "2019": 7.0, "2018": 7.53, "2017": 7.93, "2016": 7.95, "2015": 9.36, "2014": 9.73, "2013": 9.7, "2012": 9.99, "2011": 11.13, "2010": 10.62, "2009": 11.6}, "asthma_ed_pm25_children": 138.0, "asthma_ed_pm25_adults": 75.0, "asthma_period": "2017-2019", "asthma_ed_children": 345.8, "asthma_ed_adults": 157.9, "poverty_pct": 25.2, "health_period": "2023", "health_note": "Asthma ED visits per 10,000 children ages 5-17, 2023: the newest year published (health data lag about two years)"}}, {"type": "Feature", "geometry": {"type": "MultiPolygon", "coordinates": [[[[-73.936726, 40.808225], [-73.939947, 40.809579], [-73.942754, 40.805742], [-73.941168, 40.805061], [-73.942991, 40.802571], [-73.944602, 40.803232], [-73.949223, 40.796911], [-73.955802, 40.787924], [-73.943466, 40.782622], [-73.939083, 40.785799], [-73.934979, 40.791705], [-73.929239, 40.795357], [-73.928917, 40.800839], [-73.930918, 40.80476], [-73.933945, 40.808264], [-73.936726, 40.808225]]], [[[-73.915589, 40.792], [-73.914427, 40.793053], [-73.914682, 40.7958], [-73.920515, 40.799407], [-73.922753, 40.801923], [-73.925322, 40.80193], [-73.926874, 40.799985], [-73.926543, 40.794516], [-73.927654, 40.791898], [-73.931223, 40.79053], [-73.935666, 40.785671], [-73.935564, 40.783501], [-73.927832, 40.781074], [-73.926111, 40.782943], [-73.923296, 40.783411], [-73.92166, 40.786249], [-73.915589, 40.792]]]]}, "properties": {"uhf_code": "303", "name": "East Harlem", "borough": "Manhattan", "pm25_2024": 6.66, "pm25_2009": 11.55, "pm25_change_pct_2009_2024": -42.3, "pm25_series": {"2024": 6.66, "2023": 6.9, "2022": 6.15, "2021": 6.79, "2020": 6.37, "2019": 7.11, "2018": 7.39, "2017": 8.11, "2016": 8.19, "2015": 9.51, "2014": 9.84, "2013": 9.73, "2012": 9.98, "2011": 11.12, "2010": 10.41, "2009": 11.55}, "asthma_ed_pm25_children": 160.0, "asthma_ed_pm25_adults": 90.0, "asthma_period": "2017-2019", "asthma_ed_children": 355.8, "asthma_ed_adults": 176.2, "poverty_pct": 32.9, "health_period": "2023", "health_note": "Asthma ED visits per 10,000 children ages 5-17, 2023: the newest year published (health data lag about two years)"}}, {"type": "Feature", "geometry": {"type": "Polygon", "coordinates": [[[-73.964848, 40.806704], [-73.963899, 40.808007], [-73.968299, 40.809817], [-73.981932, 40.79055], [-73.993446, 40.773794], [-73.995973, 40.774012], [-73.993336, 40.772728], [-73.984764, 40.769222], [-73.982382, 40.767399], [-73.981678, 40.768445], [-73.958193, 40.800556], [-73.961076, 40.801808], [-73.959312, 40.806095], [-73.962008, 40.805511], [-73.964848, 40.806704]]]}, "properties": {"uhf_code": "304", "name": "Upper West Side", "borough": "Manhattan", "pm25_2024": 6.77, "pm25_2009": 12.18, "pm25_change_pct_2009_2024": -44.4, "pm25_series": {"2024": 6.77, "2023": 6.87, "2022": 6.11, "2021": 6.8, "2020": 6.35, "2019": 7.38, "2018": 8.16, "2017": 8.33, "2016": 8.49, "2015": 9.78, "2014": 10.42, "2013": 10.35, "2012": 10.46, "2011": 11.49, "2010": 11.01, "2009": 12.18}, "asthma_ed_pm25_children": 40.0, "asthma_ed_pm25_adults": 18.0, "asthma_period": "2017-2019", "asthma_ed_children": 90.8, "asthma_ed_adults": 27.0, "poverty_pct": 11.5, "health_period": "2023", "health_note": "Asthma ED visits per 10,000 children ages 5-17, 2023: the newest year published (health data lag about two years)"}}, {"type": "Feature", "geometry": {"type": "MultiPolygon", "coordinates": [[[[-73.958295, 40.758761], [-73.951529, 40.76501], [-73.946357, 40.771412], [-73.94272, 40.774783], [-73.942254, 40.776587], [-73.943593, 40.780285], [-73.943466, 40.782622], [-73.955802, 40.787924], [-73.972572, 40.764914], [-73.958295, 40.758761]]], [[[-73.959906, 40.75056], [-73.952546, 40.757111], [-73.942856, 40.768298], [-73.940227, 40.770853], [-73.942143, 40.772035], [-73.946679, 40.768009], [-73.951877, 40.761247], [-73.960211, 40.752031], [-73.959906, 40.75056]]]]}, "properties": {"uhf_code": "305", "name": "Upper East Side", "borough": "Manhattan", "pm25_2024": 7.04, "pm25_2009": 12.88, "pm25_change_pct_2009_2024": -45.3, "pm25_series": {"2024": 7.04, "2023": 6.98, "2022": 6.36, "2021": 7.02, "2020": 6.72, "2019": 8.0, "2018": 8.68, "2017": 8.85, "2016": 9.07, "2015": 10.2, "2014": 11.15, "2013": 11.1, "2012": 11.19, "2011": 12.1, "2010": 11.83, "2009": 12.88}, "asthma_ed_pm25_children": 16.0, "asthma_ed_pm25_adults": 6.0, "asthma_period": "2017-2019", "asthma_ed_children": 23.9, "asthma_ed_adults": 14.5, "poverty_pct": 7.3, "health_period": "2023", "health_note": "Asthma ED visits per 10,000 children ages 5-17, 2023: the newest year published (health data lag about two years)"}}, {"type": "Feature", "geometry": {"type": "Polygon", "coordinates": [[[-73.993336, 40.772728], [-73.995973, 40.774012], [-73.993836, 40.772824], [-73.996337, 40.770063], [-73.998754, 40.764682], [-74.001204, 40.762846], [-74.008063, 40.753328], [-74.009996, 40.748929], [-74.008521, 40.748472], [-74.009318, 40.742653], [-74.002526, 40.739749], [-73.999559, 40.733614], [-74.000958, 40.731706], [-73.996575, 40.729554], [-73.996973, 40.731411], [-73.990945, 40.739672], [-73.994158, 40.741028], [-73.99142, 40.744798], [-73.988189, 40.743449], [-73.972572, 40.764914], [-73.973632, 40.76458], [-73.981373, 40.767829], [-73.981678, 40.768445], [-73.982382, 40.767399], [-73.984764, 40.769222], [-73.993336, 40.772728]]]}, "properties": {"uhf_code": "306", "name": "Chelsea - Clinton", "borough": "Manhattan", "pm25_2024": 9.51, "pm25_2009": 14.24, "pm25_change_pct_2009_2024": -33.2, "pm25_series": {"2024": 9.51, "2023": 8.08, "2022": 8.38, "2021": 8.44, "2020": 8.5, "2019": 10.21, "2018": 9.97, "2017": 9.91, "2016": 10.32, "2015": 11.39, "2014": 12.53, "2013": 12.41, "2012": 12.42, "2011": 13.27, "2010": 13.21, "2009": 14.24}, "asthma_ed_pm25_children": 50.0, "asthma_ed_pm25_adults": 18.0, "asthma_period": "2017-2019", "asthma_ed_children": 129.9, "asthma_ed_adults": 33.0, "poverty_pct": 11.9, "health_period": "2023", "health_note": "Asthma ED visits per 10,000 children ages 5-17, 2023: the newest year published (health data lag about two years)"}}, {"type": "Feature", "geometry": {"type": "Polygon", "coordinates": [[[-73.97359, 40.731995], [-73.97398, 40.733961], [-73.972148, 40.73567], [-73.972496, 40.739762], [-73.971691, 40.743032], [-73.967172, 40.748582], [-73.958295, 40.758761], [-73.972572, 40.764914], [-73.988189, 40.743449], [-73.99142, 40.744798], [-73.994158, 40.741028], [-73.990945, 40.739672], [-73.989766, 40.739178], [-73.984086, 40.737546], [-73.98451, 40.736961], [-73.97359, 40.731995]]]}, "properties": {"uhf_code": "307", "name": "Gramercy Park - Murray Hill", "borough": "Manhattan", "pm25_2024": 8.89, "pm25_2009": 15.03, "pm25_change_pct_2009_2024": -40.9, "pm25_series": {"2024": 8.89, "2023": 7.76, "2022": 7.9, "2021": 8.15, "2020": 8.18, "2019": 10.09, "2018": 10.3, "2017": 10.33, "2016": 10.76, "2015": 11.72, "2014": 13.23, "2013": 13.2, "2012": 13.23, "2011": 13.93, "2010": 14.24, "2009": 15.03}, "asthma_ed_pm25_children": 35.0, "asthma_ed_pm25_adults": 12.0, "asthma_period": "2017-2019", "asthma_ed_children": 99.9, "asthma_ed_adults": 19.5, "poverty_pct": 8.9, "health_period": "2023", "health_note": "Asthma ED visits per 10,000 children ages 5-17, 2023: the newest year published (health data lag about two years)"}}, {"type": "Feature", "geometry": {"type": "Polygon", "coordinates": [[[-74.009318, 40.742653], [-74.010394, 40.739139], [-74.011166, 40.73044], [-74.014074, 40.730691], [-74.014354, 40.728609], [-74.011378, 40.728237], [-74.013031, 40.719138], [-74.012896, 40.717191], [-74.007927, 40.714936], [-74.006655, 40.716523], [-74.004536, 40.716279], [-73.998525, 40.713445], [-73.997499, 40.71401], [-73.995422, 40.717275], [-73.991538, 40.727106], [-73.996575, 40.729554], [-74.000958, 40.731706], [-73.999559, 40.733614], [-74.002526, 40.739749], [-74.009318, 40.742653]]]}, "properties": {"uhf_code": "308", "name": "Greenwich Village - SoHo", "borough": "Manhattan", "pm25_2024": 8.93, "pm25_2009": 12.75, "pm25_change_pct_2009_2024": -30.0, "pm25_series": {"2024": 8.93, "2023": 7.9, "2022": 8.05, "2021": 8.22, "2020": 8.22, "2019": 9.65, "2018": 8.79, "2017": 9.02, "2016": 9.52, "2015": 10.6, "2014": 11.17, "2013": 10.81, "2012": 10.99, "2011": 12.04, "2010": 11.56, "2009": 12.75}, "asthma_ed_pm25_children": 14.0, "asthma_ed_pm25_adults": 6.0, "asthma_period": "2017-2019", "asthma_ed_children": 47.9, "asthma_ed_adults": 7.7, "poverty_pct": 8.9, "health_period": "2023", "health_note": "Asthma ED visits per 10,000 children ages 5-17, 2023: the newest year published (health data lag about two years)"}}, {"type": "Feature", "geometry": {"type": "Polygon", "coordinates": [[[-73.989766, 40.739178], [-73.990945, 40.739672], [-73.996973, 40.731411], [-73.996575, 40.729554], [-73.991538, 40.727106], [-73.995422, 40.717275], [-73.997499, 40.71401], [-73.996083, 40.709197], [-73.991895, 40.709537], [-73.989538, 40.70885], [-73.981237, 40.709826], [-73.9781, 40.710797], [-73.975836, 40.713464], [-73.972725, 40.721162], [-73.971284, 40.729252], [-73.97359, 40.731995], [-73.98451, 40.736961], [-73.984086, 40.737546], [-73.989766, 40.739178]]]}, "properties": {"uhf_code": "309", "name": "Union Square - Lower East Side", "borough": "Manhattan", "pm25_2024": 8.45, "pm25_2009": 12.08, "pm25_change_pct_2009_2024": -30.0, "pm25_series": {"2024": 8.45, "2023": 7.49, "2022": 7.45, "2021": 7.8, "2020": 7.76, "2019": 8.87, "2018": 8.14, "2017": 8.52, "2016": 9.02, "2015": 10.06, "2014": 10.53, "2013": 10.15, "2012": 10.35, "2011": 11.44, "2010": 10.87, "2009": 12.08}, "asthma_ed_pm25_children": 90.0, "asthma_ed_pm25_adults": 29.0, "asthma_period": "2017-2019", "asthma_ed_children": 159.7, "asthma_ed_adults": 44.6, "poverty_pct": 20.1, "health_period": "2023", "health_note": "Asthma ED visits per 10,000 children ages 5-17, 2023: the newest year published (health data lag about two years)"}}, {"type": "Feature", "geometry": {"type": "MultiPolygon", "coordinates": [[[[-74.013031, 40.719138], [-74.016863, 40.719614], [-74.017974, 40.715019], [-74.017788, 40.712044], [-74.01917, 40.704775], [-74.017253, 40.704794], [-74.01805, 40.703181], [-74.015532, 40.700276], [-74.011395, 40.700635], [-74.005977, 40.703374], [-74.00284, 40.705887], [-73.997643, 40.708644], [-73.991895, 40.709537], [-73.996083, 40.709197], [-73.997499, 40.71401], [-73.998525, 40.713445], [-74.004536, 40.716279], [-74.006655, 40.716523], [-74.007927, 40.714936], [-74.012896, 40.717191], [-74.013031, 40.719138]]], [[[-74.01627, 40.693256], [-74.019746, 40.692967], [-74.02017, 40.691925], [-74.026062, 40.686352], [-74.026452, 40.685329], [-74.023222, 40.684198], [-74.012387, 40.689315], [-74.012514, 40.691321], [-74.01627, 40.693256]]]]}, "properties": {"uhf_code": "310", "name": "Lower Manhattan", "borough": "Manhattan", "pm25_2024": 7.96, "pm25_2009": 13.06, "pm25_change_pct_2009_2024": -39.1, "pm25_series": {"2024": 7.96, "2023": 7.34, "2022": 7.11, "2021": 7.58, "2020": 7.42, "2019": 8.23, "2018": 8.94, "2017": 9.01, "2016": 9.53, "2015": 10.54, "2014": 11.36, "2013": 11.06, "2012": 11.32, "2011": 12.28, "2010": 12.19, "2009": 13.06}, "asthma_ed_pm25_children": 33.0, "asthma_ed_pm25_adults": 18.0, "asthma_period": "2017-2019", "asthma_ed_children": 109.5, "asthma_ed_adults": 22.5, "poverty_pct": 9.7, "health_period": "2023", "health_note": "Asthma ED visits per 10,000 children ages 5-17, 2023: the newest year published (health data lag about two years)"}}, {"type": "Feature", "geometry": {"type": "Polygon", "coordinates": [[[-73.902066, 40.780124], [-73.903601, 40.780214], [-73.907289, 40.780432], [-73.916318, 40.786602], [-73.927967, 40.77676], [-73.931825, 40.777049], [-73.931859, 40.778262], [-73.935191, 40.778076], [-73.938396, 40.774603], [-73.938074, 40.772548], [-73.935191, 40.771746], [-73.936539, 40.769832], [-73.940541, 40.767578], [-73.94378, 40.764599], [-73.951266, 40.75546], [-73.957472, 40.748896], [-73.961347, 40.743886], [-73.963, 40.736544], [-73.957057, 40.739165], [-73.952623, 40.739255], [-73.94216, 40.735676], [-73.939659, 40.731488], [-73.937523, 40.729817], [-73.931791, 40.728474], [-73.926585, 40.730331], [-73.923855, 40.735535], [-73.923041, 40.740437], [-73.916861, 40.742839], [-73.915945, 40.742685], [-73.914673, 40.749038], [-73.910163, 40.748505], [-73.909451, 40.750643], [-73.91068, 40.752994], [-73.913529, 40.753482], [-73.912613, 40.755968], [-73.909883, 40.757946], [-73.903414, 40.76596], [-73.893698, 40.774218], [-73.892858, 40.777158], [-73.89575, 40.781306], [-73.902066, 40.780124]]]}, "properties": {"uhf_code": "401", "name": "Long Island City - Astoria", "borough": "Queens", "pm25_2024": 7.31, "pm25_2009": 11.4, "pm25_change_pct_2009_2024": -35.9, "pm25_series": {"2024": 7.31, "2023": 7.25, "2022": 6.44, "2021": 7.2, "2020": 6.83, "2019": 7.99, "2018": 8.16, "2017": 8.42, "2016": 8.65, "2015": 9.78, "2014": 9.98, "2013": 9.6, "2012": 9.84, "2011": 11.02, "2010": 10.05, "2009": 11.4}, "asthma_ed_pm25_children": 42.0, "asthma_ed_pm25_adults": 16.0, "asthma_period": "2017-2019", "asthma_ed_children": 91.3, "asthma_ed_adults": 39.1, "poverty_pct": 11.4, "health_period": "2023", "health_note": "Asthma ED visits per 10,000 children ages 5-17, 2023: the newest year published (health data lag about two years)"}}, {"type": "Feature", "geometry": {"type": "MultiPolygon", "coordinates": [[[[-73.83936, 40.765055], [-73.842607, 40.76467], [-73.846168, 40.761433], [-73.850399, 40.759596], [-73.855138, 40.760412], [-73.859742, 40.762794], [-73.863031, 40.766808], [-73.869577, 40.771277], [-73.874257, 40.772163], [-73.877284, 40.771463], [-73.884711, 40.767822], [-73.887729, 40.767212], [-73.889425, 40.773036], [-73.889662, 40.773088], [-73.893698, 40.774218], [-73.903414, 40.76596], [-73.909883, 40.757946], [-73.912613, 40.755968], [-73.913529, 40.753482], [-73.91068, 40.752994], [-73.909451, 40.750643], [-73.910163, 40.748505], [-73.914673, 40.749038], [-73.915945, 40.742685], [-73.916861, 40.742839], [-73.923041, 40.740437], [-73.923855, 40.735535], [-73.926585, 40.730331], [-73.931791, 40.728474], [-73.927798, 40.726496], [-73.924178, 40.720019], [-73.923041, 40.716992], [-73.924042, 40.71401], [-73.902939, 40.712789], [-73.902854, 40.713792], [-73.88644, 40.721651], [-73.888975, 40.724819], [-73.887102, 40.72532], [-73.88722, 40.727524], [-73.879556, 40.728603], [-73.873672, 40.730421], [-73.871425, 40.729245], [-73.86755, 40.734013], [-73.864422, 40.733903], [-73.849593, 40.738034], [-73.845532, 40.739942], [-73.850009, 40.740565], [-73.854477, 40.748954], [-73.851306, 40.749963], [-73.851899, 40.752757], [-73.842666, 40.754221], [-73.837969, 40.754523], [-73.838809, 40.75758], [-73.837274, 40.76266], [-73.839334, 40.765036], [-73.83936, 40.765055]]], [[[-73.887831, 40.798213], [-73.890417, 40.797867], [-73.892265, 40.792353], [-73.891951, 40.79037], [-73.890315, 40.790293], [-73.889043, 40.787359], [-73.878962, 40.785742], [-73.87368, 40.786159], [-73.871323, 40.787006], [-73.871094, 40.78872], [-73.874197, 40.791885], [-73.878649, 40.794407], [-73.883854, 40.795434], [-73.887831, 40.798213]]]]}, "properties": {"uhf_code": "402", "name": "West Queens", "borough": "Queens", "pm25_2024": 6.78, "pm25_2009": 10.99, "pm25_change_pct_2009_2024": -38.3, "pm25_series": {"2024": 6.78, "2023": 7.07, "2022": 6.2, "2021": 7.14, "2020": 6.56, "2019": 7.35, "2018": 7.57, "2017": 7.93, "2016": 8.14, "2015": 9.17, "2014": 9.47, "2013": 9.13, "2012": 9.46, "2011": 10.6, "2010": 9.89, "2009": 10.99}, "asthma_ed_pm25_children": 51.0, "asthma_ed_pm25_adults": 12.0, "asthma_period": "2017-2019", "asthma_ed_children": 112.7, "asthma_ed_adults": 30.4, "poverty_pct": 13.9, "health_period": "2023", "health_note": "Asthma ED visits per 10,000 children ages 5-17, 2023: the newest year published (health data lag about two years)"}}, {"type": "Feature", "geometry": {"type": "Polygon", "coordinates": [[[-73.764597, 40.773768], [-73.767514, 40.779457], [-73.774195, 40.786705], [-73.770863, 40.788496], [-73.772414, 40.791551], [-73.775509, 40.79564], [-73.778069, 40.79684], [-73.782003, 40.795909], [-73.781071, 40.794369], [-73.781825, 40.790633], [-73.784454, 40.790087], [-73.790177, 40.790203], [-73.793593, 40.789022], [-73.79495, 40.79175], [-73.795052, 40.794979], [-73.803191, 40.796692], [-73.810075, 40.796654], [-73.812008, 40.797937], [-73.813068, 40.796955], [-73.819851, 40.80089], [-73.824031, 40.79779], [-73.829211, 40.796461], [-73.828245, 40.792546], [-73.832162, 40.790126], [-73.833425, 40.788463], [-73.837028, 40.789568], [-73.836477, 40.792495], [-73.838436, 40.796789], [-73.840598, 40.796808], [-73.844599, 40.794914], [-73.846321, 40.796166], [-73.848813, 40.795287], [-73.849237, 40.79338], [-73.852586, 40.794613], [-73.853722, 40.793964], [-73.852662, 40.791089], [-73.854451, 40.790274], [-73.856647, 40.786724], [-73.859309, 40.785864], [-73.85808, 40.783726], [-73.855375, 40.782204], [-73.849322, 40.782513], [-73.848694, 40.773601], [-73.849593, 40.7698], [-73.847719, 40.767071], [-73.844269, 40.765472], [-73.839792, 40.766076], [-73.837274, 40.76266], [-73.838809, 40.75758], [-73.837969, 40.754523], [-73.842666, 40.754221], [-73.851899, 40.752757], [-73.851306, 40.749963], [-73.854477, 40.748954], [-73.850009, 40.740565], [-73.845532, 40.739942], [-73.844956, 40.736486], [-73.837944, 40.735927], [-73.836952, 40.739904], [-73.838648, 40.741728], [-73.835943, 40.743745], [-73.825472, 40.742691], [-73.815095, 40.739235], [-73.810355, 40.738869], [-73.810135, 40.742293], [-73.802809, 40.749083], [-73.798028, 40.748742], [-73.796451, 40.74986], [-73.794814, 40.748421], [-73.792296, 40.748472], [-73.781215, 40.751511], [-73.780087, 40.752493], [-73.784098, 40.759038], [-73.785259, 40.762261], [-73.789303, 40.76971], [-73.778858, 40.772799], [-73.774814, 40.773672], [-73.775195, 40.775316], [-73.773296, 40.775829], [-73.772787, 40.773922], [-73.767751, 40.775194], [-73.764597, 40.773768]]]}, "properties": {"uhf_code": "403", "name": "Flushing - Clearview", "borough": "Queens", "pm25_2024": 5.99, "pm25_2009": 10.16, "pm25_change_pct_2009_2024": -41.0, "pm25_series": {"2024": 5.99, "2023": 6.68, "2022": 5.85, "2021": 6.45, "2020": 6.24, "2019": 6.61, "2018": 6.9, "2017": 7.27, "2016": 7.22, "2015": 8.45, "2014": 8.65, "2013": 8.39, "2012": 8.9, "2011": 10.05, "2010": 9.34, "2009": 10.16}, "asthma_ed_pm25_children": 25.0, "asthma_ed_pm25_adults": 6.0, "asthma_period": "2017-2019", "asthma_ed_children": 72.9, "asthma_ed_adults": 19.2, "poverty_pct": 14.9, "health_period": "2023", "health_note": "Asthma ED visits per 10,000 children ages 5-17, 2023: the newest year published (health data lag about two years)"}}, {"type": "Feature", "geometry": {"type": "Polygon", "coordinates": [[[-73.71321, 40.759641], [-73.728708, 40.76946], [-73.73399, 40.772375], [-73.750803, 40.782891], [-73.754262, 40.779553], [-73.755169, 40.776458], [-73.753533, 40.7726], [-73.755737, 40.771482], [-73.753253, 40.765536], [-73.758518, 40.767514], [-73.764597, 40.773768], [-73.767751, 40.775194], [-73.772787, 40.773922], [-73.773296, 40.775829], [-73.775195, 40.775316], [-73.774814, 40.773672], [-73.778858, 40.772799], [-73.789303, 40.76971], [-73.785259, 40.762261], [-73.784098, 40.759038], [-73.780087, 40.752493], [-73.781215, 40.751511], [-73.779808, 40.751896], [-73.778315, 40.748742], [-73.772864, 40.736274], [-73.770108, 40.731777], [-73.746538, 40.735779], [-73.74157, 40.736929], [-73.739145, 40.739724], [-73.731922, 40.743353], [-73.726987, 40.751119], [-73.722951, 40.753103], [-73.721179, 40.756873], [-73.71705, 40.75932], [-73.713447, 40.759609], [-73.71321, 40.759641]]]}, "properties": {"uhf_code": "404", "name": "Bayside - Little Neck", "borough": "Queens", "pm25_2024": 5.46, "pm25_2009": 9.72, "pm25_change_pct_2009_2024": -43.8, "pm25_series": {"2024": 5.46, "2023": 6.48, "2022": 5.59, "2021": 6.29, "2020": 6.0, "2019": 6.21, "2018": 6.48, "2017": 7.03, "2016": 6.88, "2015": 8.26, "2014": 8.31, "2013": 8.08, "2012": 8.55, "2011": 9.71, "2010": 8.98, "2009": 9.72}, "asthma_ed_pm25_children": 10.0, "asthma_ed_pm25_adults": 2.0, "asthma_period": "2017-2019", "asthma_ed_children": 32.5, "asthma_ed_adults": 19.2, "poverty_pct": 7.6, "health_period": "2023", "health_note": "Asthma ED visits per 10,000 children ages 5-17, 2023: the newest year published (health data lag about two years)"}}, {"type": "Feature", "geometry": {"type": "Polygon", "coordinates": [[[-73.826379, 40.715308], [-73.829627, 40.714858], [-73.83111, 40.71739], [-73.835578, 40.721914], [-73.836443, 40.723514], [-73.83546, 40.727003], [-73.837766, 40.726695], [-73.843599, 40.733274], [-73.844956, 40.736486], [-73.845532, 40.739942], [-73.849593, 40.738034], [-73.864422, 40.733903], [-73.86755, 40.734013], [-73.871425, 40.729245], [-73.873672, 40.730421], [-73.879556, 40.728603], [-73.88722, 40.727524], [-73.887102, 40.72532], [-73.888975, 40.724819], [-73.88644, 40.721651], [-73.902854, 40.713792], [-73.902939, 40.712789], [-73.924042, 40.71401], [-73.920744, 40.710533], [-73.921888, 40.709396], [-73.911808, 40.703431], [-73.912901, 40.702364], [-73.91068, 40.701047], [-73.911808, 40.699935], [-73.904262, 40.695699], [-73.905796, 40.69413], [-73.902074, 40.692003], [-73.900421, 40.688184], [-73.901159, 40.687875], [-73.896496, 40.682449], [-73.894037, 40.685136], [-73.892519, 40.683426], [-73.889628, 40.684236], [-73.887627, 40.686004], [-73.883778, 40.687862], [-73.879293, 40.691263], [-73.874019, 40.694188], [-73.868424, 40.694715], [-73.852773, 40.697557], [-73.854138, 40.700764], [-73.850924, 40.700803], [-73.848745, 40.698379], [-73.845023, 40.699356], [-73.83696, 40.704209], [-73.838037, 40.706632], [-73.834044, 40.710019], [-73.836113, 40.711825], [-73.831254, 40.714441], [-73.826379, 40.715308]]]}, "properties": {"uhf_code": "405", "name": "Ridgewood - Forest Hills", "borough": "Queens", "pm25_2024": 6.23, "pm25_2009": 10.44, "pm25_change_pct_2009_2024": -40.3, "pm25_series": {"2024": 6.23, "2023": 6.73, "2022": 5.75, "2021": 6.54, "2020": 6.11, "2019": 6.56, "2018": 6.99, "2017": 7.32, "2016": 7.56, "2015": 8.51, "2014": 8.85, "2013": 8.51, "2012": 8.83, "2011": 9.95, "2010": 9.52, "2009": 10.44}, "asthma_ed_pm25_children": 24.0, "asthma_ed_pm25_adults": 9.0, "asthma_period": "2017-2019", "asthma_ed_children": 51.2, "asthma_ed_adults": 25.9, "poverty_pct": 10.3, "health_period": "2023", "health_note": "Asthma ED visits per 10,000 children ages 5-17, 2023: the newest year published (health data lag about two years)"}}, {"type": "Feature", "geometry": {"type": "Polygon", "coordinates": [[[-73.778315, 40.748742], [-73.779808, 40.751896], [-73.781215, 40.751511], [-73.792296, 40.748472], [-73.794814, 40.748421], [-73.796451, 40.74986], [-73.798028, 40.748742], [-73.802809, 40.749083], [-73.810135, 40.742293], [-73.810355, 40.738869], [-73.815095, 40.739235], [-73.825472, 40.742691], [-73.835943, 40.743745], [-73.838648, 40.741728], [-73.836952, 40.739904], [-73.837944, 40.735927], [-73.844956, 40.736486], [-73.843599, 40.733274], [-73.837766, 40.726695], [-73.83546, 40.727003], [-73.836443, 40.723514], [-73.835578, 40.721914], [-73.83111, 40.71739], [-73.829627, 40.714858], [-73.826379, 40.715308], [-73.826032, 40.715405], [-73.809041, 40.719909], [-73.793339, 40.725288], [-73.781164, 40.729213], [-73.770108, 40.731777], [-73.772864, 40.736274], [-73.778315, 40.748742]]]}, "properties": {"uhf_code": "406", "name": "Fresh Meadows", "borough": "Queens", "pm25_2024": 5.57, "pm25_2009": 10.0, "pm25_change_pct_2009_2024": -44.3, "pm25_series": {"2024": 5.57, "2023": 6.46, "2022": 5.5, "2021": 6.27, "2020": 5.95, "2019": 6.16, "2018": 6.55, "2017": 7.05, "2016": 7.03, "2015": 8.19, "2014": 8.43, "2013": 8.21, "2012": 8.63, "2011": 9.74, "2010": 9.25, "2009": 10.0}, "asthma_ed_pm25_children": 34.0, "asthma_ed_pm25_adults": 10.0, "asthma_period": "2017-2019", "asthma_ed_children": 76.3, "asthma_ed_adults": 23.9, "poverty_pct": 11.5, "health_period": "2023", "health_note": "Asthma ED visits per 10,000 children ages 5-17, 2023: the newest year published (health data lag about two years)"}}, {"type": "Feature", "geometry": {"type": "MultiPolygon", "coordinates": [[[[-73.83178, 40.665152], [-73.826066, 40.665171], [-73.823251, 40.666142], [-73.817291, 40.664907], [-73.817053, 40.664123], [-73.812076, 40.663286], [-73.810321, 40.667081], [-73.80102, 40.666727], [-73.800647, 40.672463], [-73.802055, 40.676669], [-73.806065, 40.684841], [-73.814603, 40.699511], [-73.820682, 40.709254], [-73.824056, 40.71142], [-73.823861, 40.712943], [-73.826032, 40.715405], [-73.826379, 40.715308], [-73.831254, 40.714441], [-73.836113, 40.711825], [-73.834044, 40.710019], [-73.838037, 40.706632], [-73.83696, 40.704209], [-73.845023, 40.699356], [-73.848745, 40.698379], [-73.850924, 40.700803], [-73.854138, 40.700764], [-73.852773, 40.697557], [-73.868424, 40.694715], [-73.868593, 40.693886], [-73.866296, 40.683188], [-73.8641, 40.682372], [-73.863286, 40.679073], [-73.862345, 40.679163], [-73.860386, 40.671267], [-73.857631, 40.671653], [-73.855681, 40.663865], [-73.858428, 40.663454], [-73.857605, 40.660071], [-73.863167, 40.658276], [-73.862107, 40.656836], [-73.860632, 40.656945], [-73.857351, 40.65306], [-73.856062, 40.653214], [-73.854129, 40.650481], [-73.849203, 40.651021], [-73.851899, 40.647612], [-73.851831, 40.645862], [-73.849508, 40.644131], [-73.835926, 40.645502], [-73.839784, 40.660489], [-73.838783, 40.661087], [-73.835689, 40.649265], [-73.826795, 40.649869], [-73.829042, 40.657833], [-73.83178, 40.665152]]], [[[-73.859928, 40.654102], [-73.860598, 40.654784], [-73.860488, 40.654655], [-73.859928, 40.654102]]]]}, "properties": {"uhf_code": "407", "name": "Southwest Queens", "borough": "Queens", "pm25_2024": 5.83, "pm25_2009": 9.96, "pm25_change_pct_2009_2024": -41.5, "pm25_series": {"2024": 5.83, "2023": 6.52, "2022": 5.53, "2021": 6.3, "2020": 5.91, "2019": 6.19, "2018": 6.56, "2017": 6.94, "2016": 7.02, "2015": 8.05, "2014": 8.39, "2013": 8.14, "2012": 8.32, "2011": 9.43, "2010": 9.19, "2009": 9.96}, "asthma_ed_pm25_children": 38.0, "asthma_ed_pm25_adults": 16.0, "asthma_period": "2017-2019", "asthma_ed_children": 87.7, "asthma_ed_adults": 40.3, "poverty_pct": 10.6, "health_period": "2023", "health_note": "Asthma ED visits per 10,000 children ages 5-17, 2023: the newest year published (health data lag about two years)"}}, {"type": "Feature", "geometry": {"type": "Polygon", "coordinates": [[[-73.76408, 40.654404], [-73.765716, 40.655626], [-73.766157, 40.660084], [-73.763529, 40.666283], [-73.762596, 40.670734], [-73.764046, 40.672849], [-73.762486, 40.674193], [-73.757874, 40.676135], [-73.759697, 40.678675], [-73.758679, 40.679016], [-73.761808, 40.684866], [-73.756102, 40.686763], [-73.755135, 40.685432], [-73.749726, 40.687837], [-73.745284, 40.694117], [-73.753711, 40.713323], [-73.759442, 40.721066], [-73.764801, 40.724684], [-73.770108, 40.731777], [-73.781164, 40.729213], [-73.793339, 40.725288], [-73.809041, 40.719909], [-73.826032, 40.715405], [-73.823861, 40.712943], [-73.824056, 40.71142], [-73.820682, 40.709254], [-73.814603, 40.699511], [-73.806065, 40.684841], [-73.802055, 40.676669], [-73.800647, 40.672463], [-73.80102, 40.666727], [-73.810321, 40.667081], [-73.812076, 40.663286], [-73.817053, 40.664123], [-73.817291, 40.664907], [-73.823251, 40.666142], [-73.826066, 40.665171], [-73.83178, 40.665152], [-73.827117, 40.66373], [-73.824107, 40.663576], [-73.814857, 40.66247], [-73.811635, 40.662669], [-73.812042, 40.66137], [-73.807464, 40.660714], [-73.806116, 40.664952], [-73.802182, 40.665261], [-73.804904, 40.661248], [-73.799342, 40.662611], [-73.796468, 40.664791], [-73.786166, 40.66366], [-73.776459, 40.659859], [-73.769498, 40.655813], [-73.767344, 40.656083], [-73.76408, 40.654404]]]}, "properties": {"uhf_code": "408", "name": "Jamaica", "borough": "Queens", "pm25_2024": 5.78, "pm25_2009": 9.95, "pm25_change_pct_2009_2024": -41.9, "pm25_series": {"2024": 5.78, "2023": 6.59, "2022": 5.63, "2021": 6.43, "2020": 5.97, "2019": 6.24, "2018": 6.69, "2017": 7.08, "2016": 6.99, "2015": 8.2, "2014": 8.46, "2013": 8.27, "2012": 8.48, "2011": 9.57, "2010": 9.25, "2009": 9.95}, "asthma_ed_pm25_children": 59.0, "asthma_ed_pm25_adults": 23.0, "asthma_period": "2017-2019", "asthma_ed_children": 139.3, "asthma_ed_adults": 55.8, "poverty_pct": 12.7, "health_period": "2023", "health_note": "Asthma ED visits per 10,000 children ages 5-17, 2023: the newest year published (health data lag about two years)"}}, {"type": "Feature", "geometry": {"type": "Polygon", "coordinates": [[[-73.713447, 40.759609], [-73.71705, 40.75932], [-73.721179, 40.756873], [-73.722951, 40.753103], [-73.726987, 40.751119], [-73.731922, 40.743353], [-73.739145, 40.739724], [-73.74157, 40.736929], [-73.746538, 40.735779], [-73.770108, 40.731777], [-73.764801, 40.724684], [-73.759442, 40.721066], [-73.753711, 40.713323], [-73.745284, 40.694117], [-73.749726, 40.687837], [-73.755135, 40.685432], [-73.756102, 40.686763], [-73.761808, 40.684866], [-73.758679, 40.679016], [-73.759697, 40.678675], [-73.757874, 40.676135], [-73.762486, 40.674193], [-73.764046, 40.672849], [-73.762596, 40.670734], [-73.763529, 40.666283], [-73.766157, 40.660084], [-73.765716, 40.655626], [-73.76408, 40.654404], [-73.758586, 40.651272], [-73.757704, 40.650776], [-73.746547, 40.644813], [-73.742842, 40.639885], [-73.744885, 40.638541], [-73.742274, 40.640123], [-73.741434, 40.646891], [-73.734185, 40.650198], [-73.730184, 40.650596], [-73.725096, 40.652532], [-73.7258, 40.657189], [-73.728318, 40.662418], [-73.728267, 40.668071], [-73.727538, 40.674206], [-73.725631, 40.679588], [-73.72619, 40.688647], [-73.726818, 40.709704], [-73.729175, 40.71917], [-73.730328, 40.722158], [-73.725673, 40.724035], [-73.718288, 40.726039], [-73.707919, 40.727774], [-73.700272, 40.739165], [-73.701637, 40.752493], [-73.71321, 40.759641], [-73.713447, 40.759609]]]}, "properties": {"uhf_code": "409", "name": "Southeast Queens", "borough": "Queens", "pm25_2024": 5.37, "pm25_2009": 9.35, "pm25_change_pct_2009_2024": -42.6, "pm25_series": {"2024": 5.37, "2023": 6.39, "2022": 5.4, "2021": 6.23, "2020": 5.78, "2019": 6.01, "2018": 6.42, "2017": 6.75, "2016": 6.51, "2015": 7.9, "2014": 8.02, "2013": 7.85, "2012": 8.04, "2011": 9.17, "2010": 8.65, "2009": 9.35}, "asthma_ed_pm25_children": 35.0, "asthma_ed_pm25_adults": 11.0, "asthma_period": "2017-2019", "asthma_ed_children": 97.1, "asthma_ed_adults": 39.0, "poverty_pct": 6.8, "health_period": "2023", "health_note": "Asthma ED visits per 10,000 children ages 5-17, 2023: the newest year published (health data lag about two years)"}}, {"type": "Feature", "geometry": {"type": "MultiPolygon", "coordinates": [[[[-73.754856, 40.610078], [-73.755195, 40.610593], [-73.76514, 40.612164], [-73.767014, 40.614217], [-73.772915, 40.613985], [-73.77333, 40.611327], [-73.769125, 40.609396], [-73.770693, 40.604845], [-73.76993, 40.598872], [-73.772448, 40.597797], [-73.775933, 40.601685], [-73.778315, 40.598382], [-73.780426, 40.597764], [-73.781791, 40.599187], [-73.778231, 40.600487], [-73.775823, 40.602522], [-73.77316, 40.607201], [-73.774907, 40.610027], [-73.78074, 40.60966], [-73.781605, 40.607504], [-73.784649, 40.605206], [-73.783691, 40.603996], [-73.789871, 40.597011], [-73.789244, 40.595183], [-73.79105, 40.595241], [-73.790168, 40.599593], [-73.78609, 40.603281], [-73.787226, 40.604517], [-73.792839, 40.600198], [-73.798782, 40.599219], [-73.8037, 40.599766], [-73.804912, 40.59844], [-73.804522, 40.595872], [-73.80682, 40.596425], [-73.809821, 40.593065], [-73.821131, 40.587154], [-73.822276, 40.587566], [-73.828372, 40.585854], [-73.828592, 40.58503], [-73.839538, 40.582023], [-73.845201, 40.58181], [-73.84883, 40.582448], [-73.852264, 40.581817], [-73.862981, 40.576214], [-73.866889, 40.574508], [-73.878191, 40.568718], [-73.884872, 40.568647], [-73.888907, 40.567926], [-73.892189, 40.568724], [-73.895368, 40.566953], [-73.89614, 40.565382], [-73.900608, 40.563256], [-73.908009, 40.563527], [-73.912054, 40.565066], [-73.917683, 40.562432], [-73.924212, 40.561955], [-73.926153, 40.56097], [-73.935386, 40.559276], [-73.937565, 40.55668], [-73.937658, 40.553272], [-73.936327, 40.549652], [-73.928239, 40.551217], [-73.912503, 40.555424], [-73.903499, 40.556744], [-73.900031, 40.556422], [-73.891858, 40.558097], [-73.879166, 40.561595], [-73.865304, 40.566367], [-73.862667, 40.566509], [-73.845396, 40.573703], [-73.834171, 40.577625], [-73.830322, 40.578462], [-73.806362, 40.585178], [-73.790863, 40.58747], [-73.787184, 40.588423], [-73.774661, 40.590799], [-73.753558, 40.590902], [-73.745428, 40.595086], [-73.738136, 40.594758], [-73.738153, 40.602708], [-73.743359, 40.607497], [-73.74575, 40.611977], [-73.746471, 40.611713], [-73.747217, 40.612177], [-73.753007, 40.610626], [-73.753474, 40.610458], [-73.754856, 40.610078]]], [[[-73.822403, 40.635433], [-73.82381, 40.636392], [-73.827795, 40.635176], [-73.832806, 40.638817], [-73.832619, 40.635806], [-73.831051, 40.632351], [-73.833128, 40.628246], [-73.830627, 40.625099], [-73.833009, 40.621348], [-73.836096, 40.619411], [-73.835485, 40.617589], [-73.838249, 40.617081], [-73.838665, 40.615729], [-73.834035, 40.61349], [-73.831076, 40.615311], [-73.827176, 40.613361], [-73.825879, 40.614532], [-73.823793, 40.609898], [-73.819469, 40.609724], [-73.822437, 40.60536], [-73.822886, 40.60258], [-73.824421, 40.600404], [-73.834578, 40.596973], [-73.832611, 40.595093], [-73.829008, 40.595659], [-73.824743, 40.594668], [-73.819283, 40.597533], [-73.817257, 40.603938], [-73.815103, 40.606905], [-73.816222, 40.612872], [-73.813925, 40.612376], [-73.814391, 40.614481], [-73.81646, 40.613676], [-73.817977, 40.618304], [-73.816104, 40.62091], [-73.819139, 40.621521], [-73.81958, 40.624134], [-73.817011, 40.62378], [-73.817638, 40.627545], [-73.82019, 40.627113], [-73.821521, 40.630459], [-73.822403, 40.635433]]]]}, "properties": {"uhf_code": "410", "name": "Rockaways", "borough": "Queens", "pm25_2024": 5.26, "pm25_2009": 8.75, "pm25_change_pct_2009_2024": -39.9, "pm25_series": {"2024": 5.26, "2023": 6.13, "2022": 5.03, "2021": 5.92, "2020": 5.33, "2019": 5.59, "2018": 6.06, "2017": 6.32, "2016": 5.98, "2015": 7.16, "2014": 7.69, "2013": 7.61, "2012": 7.36, "2011": 8.44, "2010": 7.99, "2009": 8.75}, "asthma_ed_pm25_children": 46.0, "asthma_ed_pm25_adults": 33.0, "asthma_period": "2017-2019", "asthma_ed_children": 132.8, "asthma_ed_adults": 92.3, "poverty_pct": 19.7, "health_period": "2023", "health_note": "Asthma ED visits per 10,000 children ages 5-17, 2023: the newest year published (health data lag about two years)"}}, {"type": "Feature", "geometry": {"type": "Polygon", "coordinates": [[[-74.107853, 40.645823], [-74.110923, 40.645547], [-74.118426, 40.642774], [-74.123742, 40.640201], [-74.127472, 40.640162], [-74.128575, 40.641288], [-74.134416, 40.642092], [-74.137638, 40.640966], [-74.149525, 40.638714], [-74.15273, 40.638837], [-74.160191, 40.640213], [-74.162734, 40.641429], [-74.16783, 40.641275], [-74.173807, 40.645026], [-74.175765, 40.643539], [-74.178877, 40.643096], [-74.178716, 40.644993], [-74.185075, 40.644414], [-74.193129, 40.63919], [-74.195893, 40.635247], [-74.186465, 40.630099], [-74.178555, 40.624662], [-74.176885, 40.625421], [-74.164489, 40.61981], [-74.163904, 40.621129], [-74.155282, 40.619977], [-74.154137, 40.619321], [-74.149448, 40.622879], [-74.148889, 40.624984], [-74.145464, 40.6249], [-74.148033, 40.621232], [-74.144607, 40.620492], [-74.145209, 40.616926], [-74.142335, 40.616611], [-74.141725, 40.622075], [-74.137689, 40.621554], [-74.137418, 40.623639], [-74.133942, 40.622107], [-74.132856, 40.623246], [-74.122131, 40.624166], [-74.119833, 40.621669], [-74.117163, 40.624514], [-74.113441, 40.622989], [-74.110168, 40.620678], [-74.104293, 40.623053], [-74.106607, 40.634622], [-74.104013, 40.634648], [-74.106548, 40.644241], [-74.107853, 40.645823]]]}, "properties": {"uhf_code": "501", "name": "Port Richmond", "borough": "Staten Island", "pm25_2024": 6.4, "pm25_2009": 10.22, "pm25_change_pct_2009_2024": -37.4, "pm25_series": {"2024": 6.4, "2023": 6.48, "2022": 5.5, "2021": 6.37, "2020": 5.93, "2019": 6.34, "2018": 6.78, "2017": 7.19, "2016": 7.3, "2015": 8.34, "2014": 8.79, "2013": 8.27, "2012": 8.55, "2011": 9.73, "2010": 9.02, "2009": 10.22}, "asthma_ed_pm25_children": 58.0, "asthma_ed_pm25_adults": 44.0, "asthma_period": "2017-2019", "asthma_ed_children": 101.8, "asthma_ed_adults": 84.5, "poverty_pct": 17.1, "health_period": "2023", "health_note": "Asthma ED visits per 10,000 children ages 5-17, 2023: the newest year published (health data lag about two years)"}}, {"type": "Feature", "geometry": {"type": "Polygon", "coordinates": [[[-74.090931, 40.566863], [-74.088328, 40.568757], [-74.089481, 40.569278], [-74.077289, 40.578887], [-74.06564, 40.589627], [-74.059773, 40.594191], [-74.054134, 40.599309], [-74.051413, 40.604697], [-74.055593, 40.606628], [-74.060315, 40.611733], [-74.061519, 40.614835], [-74.063961, 40.616843], [-74.062299, 40.618136], [-74.067708, 40.624938], [-74.06876, 40.627409], [-74.069251, 40.631734], [-74.069472, 40.642838], [-74.072473, 40.646344], [-74.073635, 40.645637], [-74.075127, 40.648525], [-74.078247, 40.649471], [-74.08224, 40.648686], [-74.086276, 40.648892], [-74.093796, 40.646055], [-74.100019, 40.645418], [-74.102758, 40.646061], [-74.107853, 40.645823], [-74.106548, 40.644241], [-74.104013, 40.634648], [-74.106607, 40.634622], [-74.104293, 40.623053], [-74.110168, 40.620678], [-74.113441, 40.622989], [-74.117163, 40.624514], [-74.119833, 40.621669], [-74.118061, 40.617834], [-74.114908, 40.618104], [-74.114238, 40.611604], [-74.111304, 40.609499], [-74.111109, 40.606455], [-74.115069, 40.601859], [-74.111364, 40.597288], [-74.115976, 40.595833], [-74.120664, 40.588133], [-74.124844, 40.586163], [-74.119138, 40.581173], [-74.11829, 40.578185], [-74.115815, 40.578352], [-74.11367, 40.580316], [-74.109227, 40.582666], [-74.102029, 40.588713], [-74.100189, 40.587766], [-74.102614, 40.584102], [-74.101885, 40.58454], [-74.097679, 40.581784], [-74.096976, 40.582377], [-74.092533, 40.580342], [-74.091346, 40.576974], [-74.085818, 40.574134], [-74.088574, 40.572556], [-74.092796, 40.568119], [-74.090931, 40.566863]]]}, "properties": {"uhf_code": "502", "name": "Stapleton - St. George", "borough": "Staten Island", "pm25_2024": 6.05, "pm25_2009": 9.63, "pm25_change_pct_2009_2024": -37.2, "pm25_series": {"2024": 6.05, "2023": 6.31, "2022": 5.31, "2021": 6.25, "2020": 5.7, "2019": 5.9, "2018": 6.36, "2017": 6.8, "2016": 6.8, "2015": 7.82, "2014": 8.34, "2013": 7.9, "2012": 8.18, "2011": 9.36, "2010": 8.64, "2009": 9.63}, "asthma_ed_pm25_children": 49.0, "asthma_ed_pm25_adults": 30.0, "asthma_period": "2017-2019", "asthma_ed_children": 93.7, "asthma_ed_adults": 66.9, "poverty_pct": 14.7, "health_period": "2023", "health_note": "Asthma ED visits per 10,000 children ages 5-17, 2023: the newest year published (health data lag about two years)"}}, {"type": "Feature", "geometry": {"type": "MultiPolygon", "coordinates": [[[[-74.178555, 40.624662], [-74.186465, 40.630099], [-74.195893, 40.635247], [-74.199386, 40.632821], [-74.201158, 40.629353], [-74.201675, 40.623606], [-74.201294, 40.619044], [-74.200387, 40.616431], [-74.196546, 40.616167], [-74.195283, 40.613541], [-74.198293, 40.606757], [-74.195834, 40.602303], [-74.197173, 40.600005], [-74.197394, 40.596876], [-74.204058, 40.589633], [-74.203642, 40.585326], [-74.20594, 40.580052], [-74.203566, 40.580432], [-74.19502, 40.579479], [-74.190306, 40.576736], [-74.184973, 40.576523], [-74.183777, 40.573896], [-74.179292, 40.572022], [-74.176952, 40.570315], [-74.169831, 40.570882], [-74.149669, 40.571371], [-74.147897, 40.570888], [-74.146574, 40.572911], [-74.147948, 40.575615], [-74.136748, 40.57823], [-74.135281, 40.580767], [-74.130821, 40.582448], [-74.129151, 40.584135], [-74.124844, 40.586163], [-74.120664, 40.588133], [-74.115976, 40.595833], [-74.111364, 40.597288], [-74.115069, 40.601859], [-74.111109, 40.606455], [-74.111304, 40.609499], [-74.114238, 40.611604], [-74.114908, 40.618104], [-74.118061, 40.617834], [-74.119833, 40.621669], [-74.122131, 40.624166], [-74.132856, 40.623246], [-74.133942, 40.622107], [-74.137418, 40.623639], [-74.137689, 40.621554], [-74.141725, 40.622075], [-74.142335, 40.616611], [-74.145209, 40.616926], [-74.144607, 40.620492], [-74.148033, 40.621232], [-74.145464, 40.6249], [-74.148889, 40.624984], [-74.149448, 40.622879], [-74.154137, 40.619321], [-74.155282, 40.619977], [-74.163904, 40.621129], [-74.164489, 40.61981], [-74.176885, 40.625421], [-74.178555, 40.624662]]], [[[-74.200768, 40.61423], [-74.202362, 40.613155], [-74.202625, 40.605933], [-74.200149, 40.60368], [-74.199225, 40.60928], [-74.197326, 40.612363], [-74.198148, 40.614043], [-74.200768, 40.61423]]]]}, "properties": {"uhf_code": "503", "name": "Willowbrook", "borough": "Staten Island", "pm25_2024": 6.02, "pm25_2009": 10.1, "pm25_change_pct_2009_2024": -40.4, "pm25_series": {"2024": 6.02, "2023": 6.29, "2022": 5.23, "2021": 6.18, "2020": 5.62, "2019": 5.96, "2018": 6.63, "2017": 7.05, "2016": 7.1, "2015": 8.01, "2014": 8.68, "2013": 8.22, "2012": 8.52, "2011": 9.63, "2010": 8.99, "2009": 10.1}, "asthma_ed_pm25_children": 15.0, "asthma_ed_pm25_adults": 13.0, "asthma_period": "2017-2019", "asthma_ed_children": 29.2, "asthma_ed_adults": 26.1, "poverty_pct": 10.1, "health_period": "2023", "health_note": "Asthma ED visits per 10,000 children ages 5-17, 2023: the newest year published (health data lag about two years)"}}, {"type": "Feature", "geometry": {"type": "MultiPolygon", "coordinates": [[[[-74.102614, 40.584102], [-74.100189, 40.587766], [-74.102029, 40.588713], [-74.109227, 40.582666], [-74.11367, 40.580316], [-74.115815, 40.578352], [-74.11829, 40.578185], [-74.119138, 40.581173], [-74.124844, 40.586163], [-74.129151, 40.584135], [-74.130821, 40.582448], [-74.135281, 40.580767], [-74.136748, 40.57823], [-74.147948, 40.575615], [-74.146574, 40.572911], [-74.147897, 40.570888], [-74.149669, 40.571371], [-74.169831, 40.570882], [-74.176952, 40.570315], [-74.179292, 40.572022], [-74.183777, 40.573896], [-74.184973, 40.576523], [-74.190306, 40.576736], [-74.191781, 40.576176], [-74.197962, 40.57841], [-74.199047, 40.574154], [-74.201599, 40.572292], [-74.206542, 40.572576], [-74.208662, 40.571288], [-74.211341, 40.565118], [-74.211171, 40.560892], [-74.214122, 40.556577], [-74.217471, 40.555134], [-74.226169, 40.556222], [-74.229137, 40.555875], [-74.234165, 40.551913], [-74.235801, 40.551649], [-74.242346, 40.546843], [-74.243533, 40.547597], [-74.246594, 40.545374], [-74.248162, 40.543054], [-74.246645, 40.542301], [-74.245119, 40.538454], [-74.245975, 40.537037], [-74.24227, 40.534317], [-74.24177, 40.531121], [-74.243669, 40.524941], [-74.243347, 40.521351], [-74.241439, 40.519347], [-74.24439, 40.518773], [-74.246424, 40.516182], [-74.248086, 40.516717], [-74.252113, 40.514242], [-74.253826, 40.509704], [-74.255895, 40.507725], [-74.254487, 40.502768], [-74.249977, 40.496566], [-74.246526, 40.495928], [-74.241609, 40.496379], [-74.23887, 40.497559], [-74.23653, 40.499848], [-74.231689, 40.501627], [-74.228001, 40.501788], [-74.224703, 40.500834], [-74.217064, 40.501904], [-74.214588, 40.505243], [-74.211578, 40.506629], [-74.210086, 40.510787], [-74.20494, 40.512038], [-74.200175, 40.512141], [-74.195868, 40.509756], [-74.192018, 40.51178], [-74.186575, 40.517903], [-74.183354, 40.520146], [-74.17786, 40.519476], [-74.171611, 40.522789], [-74.169847, 40.522196], [-74.166032, 40.523736], [-74.163785, 40.526333], [-74.156223, 40.528563], [-74.152594, 40.530477], [-74.14944, 40.533737], [-74.142166, 40.537294], [-74.14147, 40.542256], [-74.140589, 40.543853], [-74.134933, 40.546675], [-74.130482, 40.546031], [-74.12771, 40.543132], [-74.128066, 40.540613], [-74.134145, 40.535258], [-74.13958, 40.535091], [-74.140199, 40.533538], [-74.137231, 40.530148], [-74.132882, 40.532951], [-74.128524, 40.537339], [-74.122903, 40.544002], [-74.11673, 40.54788], [-74.112805, 40.547848], [-74.109193, 40.552866], [-74.106819, 40.554116], [-74.104886, 40.553092], [-74.101376, 40.55849], [-74.098188, 40.559475], [-74.095382, 40.56316], [-74.094237, 40.563089], [-74.090931, 40.566863], [-74.092796, 40.568119], [-74.088574, 40.572556], [-74.085818, 40.574134], [-74.091346, 40.576974], [-74.092533, 40.580342], [-74.096976, 40.582377], [-74.097679, 40.581784], [-74.101885, 40.58454], [-74.102614, 40.584102]]], [[[-74.205168, 40.573645], [-74.200692, 40.573819], [-74.199471, 40.579015], [-74.204109, 40.579994], [-74.206203, 40.57908], [-74.207704, 40.573368], [-74.205168, 40.573645]]]]}, "properties": {"uhf_code": "504", "name": "South Beach - Tottenville", "borough": "Staten Island", "pm25_2024": 5.75, "pm25_2009": 9.63, "pm25_change_pct_2009_2024": -40.3, "pm25_series": {"2024": 5.75, "2023": 6.12, "2022": 5.01, "2021": 6.04, "2020": 5.34, "2019": 5.81, "2018": 6.18, "2017": 6.58, "2016": 6.59, "2015": 7.29, "2014": 8.2, "2013": 7.82, "2012": 8.28, "2011": 9.29, "2010": 8.71, "2009": 9.63}, "asthma_ed_pm25_children": 11.0, "asthma_ed_pm25_adults": 7.0, "asthma_period": "2017-2019", "asthma_ed_children": 23.2, "asthma_ed_adults": 20.1, "poverty_pct": 6.7, "health_period": "2023", "health_note": "Asthma ED visits per 10,000 children ages 5-17, 2023: the newest year published (health data lag about two years)"}}]}