{"type": "FeatureCollection", "features": [{"type": "Feature", "geometry": {"type": "Point", "coordinates": [-73.922487, 40.806486]}, "properties": {"id": "aq_36005NY11534", "site_id": "36005NY11534", "name": "Mott Haven", "layer": "aq_monitor", "approx": false, "address": "North side of E 135th St between Brown Pl and Willis Ave", "role": "site", "crz_status": "outside", "active_from": "2024-04-10", "active_to": "2026-09-21", "relocated": false, "periods": {"pre_2024": {"mean": 7.51, "median": 6.1, "days": 240, "coverage_pct": 66.3, "peak_mean": 7.66, "overnight_mean": 7.25, "smoke_days_excluded": 0, "hourly_weekday": [7.59, 7.15, 7.19, 7.17, 7.26, 7.51, 7.76, 8.06, 8.21, 8.42, 8.57, 8.99, 8.27, 8.09, 7.75, 7.46, 7.17, 6.85, 6.67, 6.45, 6.85, 7.07, 7.18, 7.25], "hourly_weekend": [7.33, 7.01, 6.93, 6.88, 7.13, 7.15, 7.06, 7.19, 7.23, 7.32, 7.72, 7.99, 7.86, 8.22, 7.84, 7.65, 7.7, 7.06, 6.69, 6.94, 7.6, 7.77, 8.09, 7.54]}, "post_2025": {"mean": 7.12, "median": 5.89, "days": 361, "coverage_pct": 100.0, "peak_mean": 7.15, "overnight_mean": 7.07, "smoke_days_excluded": 0, "hourly_weekday": [6.88, 6.74, 6.62, 6.58, 6.77, 6.88, 7.15, 7.42, 7.48, 7.53, 7.46, 7.53, 7.15, 6.97, 6.89, 6.81, 6.62, 6.45, 6.48, 6.55, 6.84, 6.89, 6.98, 6.87], "hourly_weekend": [7.74, 7.67, 7.5, 7.36, 7.27, 7.32, 7.49, 7.48, 7.45, 7.63, 7.56, 7.73, 8.33, 7.5, 7.62, 7.57, 7.53, 7.4, 7.45, 7.42, 7.68, 7.92, 7.78, 7.51]}, "post_2026_ytd": {"mean": 7.38, "median": 6.48, "days": 235, "coverage_pct": 96.7, "peak_mean": 7.35, "overnight_mean": 7.43, "smoke_days_excluded": 4, "hourly_weekday": [7.1, 7.0, 6.91, 6.95, 7.17, 7.46, 7.88, 7.93, 8.02, 7.96, 7.85, 7.77, 7.29, 7.21, 7.19, 7.17, 7.08, 7.1, 7.05, 7.1, 7.47, 7.65, 7.51, 7.3], "hourly_weekend": [8.23, 8.21, 8.14, 8.17, 7.88, 7.6, 7.85, 7.81, 7.42, 7.31, 7.23, 7.26, 6.96, 7.01, 6.86, 6.68, 6.62, 6.58, 6.74, 7.1, 6.87, 7.04, 7.84, 7.43]}, "ytd_2024": {"mean": 8.58, "median": 7.71, "days": 143, "coverage_pct": 59.6, "peak_mean": 8.73, "overnight_mean": 8.34, "smoke_days_excluded": 0, "hourly_weekday": [8.79, 8.41, 8.52, 8.51, 8.5, 8.64, 8.8, 9.01, 9.08, 9.32, 9.52, 10.15, 9.89, 9.5, 9.16, 8.94, 8.55, 8.05, 7.74, 7.37, 7.37, 7.81, 8.15, 8.39], "hourly_weekend": [8.56, 8.13, 7.9, 7.94, 8.18, 8.05, 7.85, 7.9, 7.96, 8.19, 8.64, 8.98, 8.88, 8.77, 8.67, 8.58, 7.98, 7.93, 8.22, 8.33, 8.31, 8.77, 8.89, 8.93]}, "ytd_2025": {"mean": 7.69, "median": 6.52, "days": 239, "coverage_pct": 100.0, "peak_mean": 7.79, "overnight_mean": 7.53, "smoke_days_excluded": 0, "hourly_weekday": [7.54, 7.38, 7.2, 7.26, 7.37, 7.52, 7.83, 8.14, 8.18, 8.3, 8.16, 8.22, 7.93, 7.83, 7.76, 7.68, 7.39, 7.17, 7.13, 7.16, 7.42, 7.51, 7.69, 7.59], "hourly_weekend": [8.19, 8.03, 7.68, 7.35, 7.27, 7.4, 7.5, 7.59, 7.49, 7.67, 7.82, 8.02, 9.14, 7.91, 7.92, 7.99, 7.92, 7.78, 7.78, 7.58, 7.83, 8.05, 7.91, 7.61]}}, "comparisons": {"post_2025_vs_pre_2024": {"months_used": ["04", "05", "06", "07", "08", "09", "10", "12"], "pre_mean": 7.61, "post_mean": 7.59, "delta_raw": -0.02, "pct_raw": -0.3, "delta_adj_control": 0.85, "control_site": "Van Wyck", "delta_adj_reference": -0.29, "reference_site": "Queens College", "ci_low": -0.75, "ci_high": 0.72, "coverage_ok": true, "classification": "unchanged", "delta_adj_control_months": ["04", "05", "06", "08", "09", "10", "12"], "control_pre_mean": 7.27, "control_post_mean": 6.5, "site_delta_on_control_months": 0.09, "delta_adj_reference_months": ["04", "08", "09"], "raw_class": "unchanged", "adj_class": "worsened", "relative_to_control": "lagged control", "basis": "raw_and_control_adjusted", "significant": false}, "post_2026ytd_vs_ytd_2025": {"months_used": ["01", "02", "03", "04", "05", "06", "07", "08"], "pre_mean": 7.69, "post_mean": 7.38, "delta_raw": -0.31, "pct_raw": -4.1, "delta_adj_control": -0.32, "control_site": "Van Wyck", "delta_adj_reference": 0.48, "reference_site": "Queens College", "ci_low": -1.06, "ci_high": 0.39, "coverage_ok": true, "classification": "unchanged", "delta_adj_control_months": ["01", "02", "03", "04", "05", "06", "07", "08"], "control_pre_mean": 7.03, "control_post_mean": 7.04, "site_delta_on_control_months": -0.31, "delta_adj_reference_months": ["04", "05", "07", "08"], "raw_class": "unchanged", "adj_class": "unchanged", "relative_to_control": "tracked control", "basis": "raw_and_control_adjusted", "significant": false}, "post_2026ytd_vs_ytd_2024": {"months_used": ["04", "05", "06", "07", "08"], "pre_mean": 8.58, "post_mean": 7.25, "delta_raw": -1.33, "pct_raw": -15.5, "delta_adj_control": 0.94, "control_site": "Van Wyck", "delta_adj_reference": null, "reference_site": "Queens College", "ci_low": -2.2, "ci_high": -0.45, "coverage_ok": true, "classification": "unchanged", "delta_adj_control_months": ["04", "05", "06", "08"], "control_pre_mean": 8.61, "control_post_mean": 6.62, "site_delta_on_control_months": -1.04, "raw_class": "improved", "adj_class": "worsened", "relative_to_control": "lagged control", "basis": "raw_and_control_adjusted", "significant": true}}, "classification": "unchanged", "classification_basis": "post_2025_vs_pre_2024", "dac_designated": true, "dac_combined_pct": 1.0, "dac_asthma_pct": 1.0, "uhf42_code": "107", "uhf42_name": "Hunts Point - Mott Haven", "uhf42_asthma_ed_pm25_children": 147.0, "uhf42_asthma_ed_children": 266.2, "uhf42_poverty_pct": 35.8, "uhf42_pm25_2024": 6.89}}, {"type": "Feature", "geometry": {"type": "Point", "coordinates": [-73.885659, 40.819092]}, "properties": {"id": "aq_36005NY11790", "site_id": "36005NY11790", "name": "Hunts Point", "layer": "aq_monitor", "approx": false, "address": "Southeast Corner of Seneca Ave and Longfellow Ave", "role": "site", "crz_status": "outside", "active_from": "2022-04-14", "active_to": "2026-09-21", "relocated": false, "periods": {"pre_2024": null, "post_2025": {"mean": 7.46, "median": 6.21, "days": 290, "coverage_pct": 80.3, "peak_mean": 7.56, "overnight_mean": 7.27, "smoke_days_excluded": 0, "hourly_weekday": [7.02, 6.97, 6.89, 6.72, 6.79, 7.53, 8.31, 7.99, 8.17, 7.82, 7.64, 7.58, 7.73, 7.51, 7.43, 7.4, 6.97, 6.8, 6.84, 7.38, 7.0, 7.18, 7.21, 7.1], "hourly_weekend": [7.88, 7.69, 7.65, 7.37, 7.36, 7.51, 7.98, 7.95, 7.58, 7.55, 7.36, 7.39, 7.79, 7.91, 8.01, 8.13, 8.04, 7.62, 7.62, 7.87, 7.88, 8.1, 8.04, 7.77]}, "post_2026_ytd": {"mean": 8.09, "median": 7.0, "days": 239, "coverage_pct": 98.4, "peak_mean": 8.08, "overnight_mean": 8.1, "smoke_days_excluded": 4, "hourly_weekday": [7.54, 7.46, 7.48, 7.5, 7.82, 8.25, 9.24, 9.05, 8.88, 8.43, 8.26, 8.18, 8.17, 8.16, 8.19, 7.97, 7.69, 7.66, 7.97, 8.18, 8.12, 8.39, 8.42, 8.14], "hourly_weekend": [9.17, 9.06, 8.73, 8.77, 8.67, 8.76, 8.68, 8.19, 8.0, 7.41, 7.23, 7.29, 7.55, 7.77, 7.53, 7.29, 7.12, 7.11, 7.5, 7.68, 7.55, 7.97, 8.06, 8.36]}, "ytd_2024": null, "ytd_2025": {"mean": 8.53, "median": 7.27, "days": 168, "coverage_pct": 70.3, "peak_mean": 8.75, "overnight_mean": 8.11, "smoke_days_excluded": 0, "hourly_weekday": [8.09, 8.02, 7.91, 7.69, 7.88, 8.88, 9.87, 9.29, 9.64, 9.33, 9.21, 9.01, 9.18, 9.0, 8.9, 8.83, 8.18, 7.86, 7.75, 8.61, 8.03, 8.39, 8.42, 8.27], "hourly_weekend": [8.76, 8.34, 8.2, 7.55, 7.57, 7.76, 8.05, 8.06, 7.69, 7.85, 8.1, 8.11, 8.71, 8.92, 8.92, 8.99, 8.47, 8.27, 8.16, 8.38, 8.37, 8.7, 8.72, 8.39]}}, "comparisons": {"post_2025_vs_pre_2024": {"months_used": [], "pre_mean": null, "post_mean": null, "delta_raw": null, "pct_raw": null, "delta_adj_control": null, "control_site": "Van Wyck", "delta_adj_reference": null, "reference_site": "Queens College", "ci_low": null, "ci_high": null, "coverage_ok": false, "classification": "insufficient"}, "post_2026ytd_vs_ytd_2025": {"months_used": ["03", "04", "05", "06", "07", "08"], "pre_mean": 8.53, "post_mean": 7.99, "delta_raw": -0.54, "pct_raw": -6.3, "delta_adj_control": -0.21, "control_site": "Van Wyck", "delta_adj_reference": 0.38, "reference_site": "Queens College", "ci_low": -1.58, "ci_high": 0.39, "coverage_ok": true, "classification": "unchanged", "delta_adj_control_months": ["03", "04", "05", "06", "07", "08"], "control_pre_mean": 7.21, "control_post_mean": 6.88, "site_delta_on_control_months": -0.54, "delta_adj_reference_months": ["04", "05", "07", "08"], "raw_class": "improved", "adj_class": "unchanged", "relative_to_control": "tracked control", "basis": "raw_and_control_adjusted", "significant": false}, "post_2026ytd_vs_ytd_2024": {"months_used": [], "pre_mean": null, "post_mean": null, "delta_raw": null, "pct_raw": null, "delta_adj_control": null, "control_site": "Van Wyck", "delta_adj_reference": null, "reference_site": "Queens College", "ci_low": null, "ci_high": null, "coverage_ok": false, "classification": "insufficient"}}, "classification": "insufficient", "classification_basis": "post_2026ytd_vs_ytd_2024", "dac_designated": true, "dac_combined_pct": 0.999, "dac_asthma_pct": 0.957, "uhf42_code": "107", "uhf42_name": "Hunts Point - Mott Haven", "uhf42_asthma_ed_pm25_children": 147.0, "uhf42_asthma_ed_children": 266.2, "uhf42_poverty_pct": 35.8, "uhf42_pm25_2024": 6.89}}, {"type": "Feature", "geometry": {"type": "Point", "coordinates": [-73.906143, 40.845167]}, "properties": {"id": "aq_36005NY12387", "site_id": "36005NY12387", "name": "Cross Bronx Expy", "layer": "aq_monitor", "approx": false, "address": "Cross Bronx Expressway Service road NS1E of Monroe Avenue (between Monroe and Topping)", "role": "site", "crz_status": "outside", "active_from": "2019-07-25", "active_to": "2026-09-21", "relocated": false, "periods": {"pre_2024": {"mean": 9.05, "median": 7.82, "days": 281, "coverage_pct": 77.6, "peak_mean": 9.07, "overnight_mean": 8.96, "smoke_days_excluded": 0, "hourly_weekday": [9.3, 9.09, 8.95, 9.16, 9.22, 9.6, 9.69, 9.66, 9.82, 9.97, 9.95, 9.79, 9.77, 9.59, 9.45, 9.07, 8.8, 8.5, 8.44, 8.65, 8.87, 9.16, 9.45, 9.4], "hourly_weekend": [8.94, 8.52, 8.29, 8.29, 8.31, 8.27, 8.22, 7.97, 8.1, 8.03, 8.24, 8.07, 8.19, 8.22, 7.96, 7.75, 7.66, 7.6, 8.07, 8.85, 8.98, 9.16, 9.3, 9.1]}, "post_2025": {"mean": 8.35, "median": 6.9, "days": 356, "coverage_pct": 98.6, "peak_mean": 8.31, "overnight_mean": 8.42, "smoke_days_excluded": 0, "hourly_weekday": [8.03, 7.86, 7.61, 7.67, 7.99, 8.31, 8.45, 8.67, 8.8, 8.54, 8.34, 8.27, 8.14, 8.02, 7.85, 7.97, 7.75, 7.87, 8.0, 8.08, 8.42, 8.48, 9.5, 8.36], "hourly_weekend": [9.25, 8.8, 8.42, 8.24, 8.32, 8.66, 8.78, 8.71, 8.54, 8.51, 8.31, 8.2, 8.36, 8.34, 8.37, 9.06, 8.84, 8.65, 8.38, 8.93, 9.17, 9.67, 9.35, 8.95]}, "post_2026_ytd": {"mean": 8.34, "median": 6.98, "days": 225, "coverage_pct": 92.6, "peak_mean": 8.16, "overnight_mean": 8.63, "smoke_days_excluded": 4, "hourly_weekday": [8.23, 8.09, 8.0, 8.02, 8.43, 8.93, 8.95, 8.8, 8.69, 8.48, 8.33, 8.1, 7.91, 7.68, 7.69, 7.73, 7.89, 8.05, 8.12, 8.39, 8.55, 8.95, 8.93, 8.8], "hourly_weekend": [9.64, 9.44, 9.22, 9.15, 9.09, 8.91, 8.91, 8.7, 8.32, 8.26, 8.16, 8.1, 7.87, 7.75, 7.5, 7.54, 7.3, 7.37, 7.87, 7.88, 8.12, 8.82, 8.65, 8.57]}, "ytd_2024": {"mean": 9.46, "median": 8.18, "days": 233, "coverage_pct": 97.1, "peak_mean": 9.48, "overnight_mean": 9.38, "smoke_days_excluded": 0, "hourly_weekday": [9.81, 9.61, 9.44, 9.64, 9.65, 10.01, 10.07, 10.01, 10.16, 10.32, 10.38, 10.24, 10.36, 10.19, 10.05, 9.67, 9.37, 8.96, 8.82, 9.0, 9.26, 9.62, 9.98, 9.96], "hourly_weekend": [9.46, 8.9, 8.74, 8.57, 8.56, 8.48, 8.45, 8.16, 8.29, 8.16, 8.38, 8.27, 8.45, 8.49, 8.32, 8.17, 7.99, 7.89, 8.34, 9.27, 9.31, 9.44, 9.65, 9.45]}, "ytd_2025": {"mean": 9.14, "median": 8.09, "days": 234, "coverage_pct": 97.9, "peak_mean": 9.17, "overnight_mean": 9.1, "smoke_days_excluded": 0, "hourly_weekday": [8.88, 8.68, 8.36, 8.52, 8.96, 9.28, 9.39, 9.62, 9.78, 9.6, 9.47, 9.41, 9.28, 9.22, 8.99, 9.01, 8.63, 8.68, 8.87, 8.85, 9.27, 9.44, 11.03, 9.41], "hourly_weekend": [9.76, 9.18, 8.55, 8.24, 8.37, 8.63, 8.83, 8.86, 8.73, 8.88, 8.86, 8.8, 9.16, 9.04, 8.93, 9.71, 9.27, 8.98, 8.53, 9.15, 9.32, 10.04, 9.71, 9.2]}}, "comparisons": {"post_2025_vs_pre_2024": {"months_used": ["01", "02", "03", "04", "05", "06", "07", "08", "12"], "pre_mean": 9.26, "post_mean": 9.02, "delta_raw": -0.24, "pct_raw": -2.6, "delta_adj_control": 0.87, "control_site": "Van Wyck", "delta_adj_reference": 0.14, "reference_site": "Queens College", "ci_low": -1.02, "ci_high": 0.55, "coverage_ok": true, "classification": "unchanged", "delta_adj_control_months": ["03", "04", "05", "06", "08", "12"], "control_pre_mean": 7.95, "control_post_mean": 6.73, "site_delta_on_control_months": -0.35, "delta_adj_reference_months": ["01", "02", "03", "04", "08"], "raw_class": "unchanged", "adj_class": "worsened", "relative_to_control": "lagged control", "basis": "raw_and_control_adjusted", "significant": false}, "post_2026ytd_vs_ytd_2025": {"months_used": ["01", "02", "03", "04", "05", "06", "07"], "pre_mean": 8.87, "post_mean": 8.18, "delta_raw": -0.69, "pct_raw": -7.8, "delta_adj_control": -0.63, "control_site": "Van Wyck", "delta_adj_reference": 0.06, "reference_site": "Queens College", "ci_low": -1.54, "ci_high": 0.12, "coverage_ok": true, "classification": "improved", "delta_adj_control_months": ["01", "02", "03", "04", "05", "06", "07"], "control_pre_mean": 6.92, "control_post_mean": 6.87, "site_delta_on_control_months": -0.69, "delta_adj_reference_months": ["04", "05", "07"], "raw_class": "improved", "adj_class": "improved", "relative_to_control": "beat control", "basis": "raw_and_control_adjusted", "significant": false}, "post_2026ytd_vs_ytd_2024": {"months_used": ["01", "02", "03", "04", "05", "06", "07"], "pre_mean": 9.55, "post_mean": 8.18, "delta_raw": -1.37, "pct_raw": -14.4, "delta_adj_control": -0.28, "control_site": "Van Wyck", "delta_adj_reference": null, "reference_site": "Queens College", "ci_low": -2.25, "ci_high": -0.51, "coverage_ok": true, "classification": "unchanged", "delta_adj_control_months": ["03", "04", "05", "06"], "control_pre_mean": 8.15, "control_post_mean": 6.27, "site_delta_on_control_months": -2.16, "raw_class": "improved", "adj_class": "unchanged", "relative_to_control": "tracked control", "basis": "raw_and_control_adjusted", "significant": true}}, "classification": "unchanged", "classification_basis": "post_2025_vs_pre_2024", "dac_designated": true, "dac_combined_pct": 0.958, "dac_asthma_pct": 0.966, "uhf42_code": "105", "uhf42_name": "Crotona - Tremont", "uhf42_asthma_ed_pm25_children": 119.0, "uhf42_asthma_ed_children": 258.9, "uhf42_poverty_pct": 33.9, "uhf42_pm25_2024": 6.58}}, {"type": "Feature", "geometry": {"type": "Point", "coordinates": [-73.960824, 40.702798]}, "properties": {"id": "aq_36047NY07974", "site_id": "36047NY07974", "name": "BQE", "layer": "aq_monitor", "approx": false, "address": "West side of Williamsburg St W between Bedford Ave and Wythe Ave", "role": "site", "crz_status": "outside", "active_from": "2024-08-15", "active_to": "2026-09-21", "relocated": false, "periods": {"pre_2024": {"mean": 5.84, "median": 5.08, "days": 139, "coverage_pct": 38.4, "peak_mean": 5.94, "overnight_mean": 5.68, "smoke_days_excluded": 0, "hourly_weekday": [5.41, 5.4, 5.49, 5.77, 6.09, 6.39, 6.64, 6.77, 7.09, 6.96, 6.64, 6.12, 5.65, 5.67, 5.4, 5.36, 5.66, 5.05, 5.17, 5.42, 5.53, 5.51, 5.38, 5.45], "hourly_weekend": [5.27, 5.54, 5.73, 5.98, 5.78, 5.91, 6.07, 6.26, 6.54, 6.93, 7.13, 6.64, 6.45, 6.15, 5.18, 4.93, 4.75, 4.94, 5.08, 5.65, 6.37, 6.17, 5.71, 5.63]}, "post_2025": {"mean": 6.51, "median": 5.56, "days": 359, "coverage_pct": 99.4, "peak_mean": 6.61, "overnight_mean": 6.34, "smoke_days_excluded": 0, "hourly_weekday": [6.17, 6.08, 6.1, 5.99, 6.21, 6.52, 6.92, 7.15, 7.34, 7.41, 7.4, 7.38, 6.91, 6.75, 6.51, 6.29, 6.12, 5.54, 5.49, 5.66, 6.09, 6.24, 6.14, 6.13], "hourly_weekend": [6.67, 6.66, 6.73, 6.58, 6.56, 6.64, 6.78, 6.77, 6.79, 6.99, 7.12, 7.12, 6.76, 6.95, 6.88, 6.95, 6.62, 6.08, 6.0, 6.02, 6.59, 6.8, 6.66, 6.55]}, "post_2026_ytd": {"mean": 6.67, "median": 5.82, "days": 230, "coverage_pct": 94.7, "peak_mean": 6.76, "overnight_mean": 6.51, "smoke_days_excluded": 4, "hourly_weekday": [6.14, 6.26, 6.19, 6.26, 6.46, 6.75, 7.1, 7.29, 7.38, 7.5, 7.58, 7.4, 6.87, 7.04, 7.08, 6.86, 6.62, 6.1, 6.04, 6.1, 6.63, 6.71, 6.53, 6.3], "hourly_weekend": [7.01, 7.26, 7.02, 7.03, 7.02, 6.73, 6.93, 7.15, 6.97, 7.07, 6.94, 6.85, 6.72, 6.79, 6.67, 6.42, 5.96, 5.51, 5.4, 5.54, 5.84, 5.85, 6.01, 6.19]}, "ytd_2024": {"mean": 8.68, "median": 9.53, "days": 17, "coverage_pct": 7.1, "peak_mean": 8.63, "overnight_mean": 8.75, "smoke_days_excluded": 0, "hourly_weekday": [6.9, 7.05, 7.23, 7.66, 7.57, 8.24, 8.55, 8.91, 8.96, 8.85, 8.3, 8.5, 7.95, 8.57, 8.86, 8.26, 7.41, 6.96, 6.89, 7.42, 7.71, 7.86, 7.47, 7.63], "hourly_weekend": [11.07, 11.2, 11.21, 11.67, 12.26, 12.37, 12.12, 11.67, 11.35, 11.12, 10.58, 10.3, 10.37, 10.33, 9.85, 9.75, 9.65, 10.09, 10.54, 10.74, 8.76, 8.45, 8.4, 8.4]}, "ytd_2025": {"mean": 6.97, "median": 6.27, "days": 237, "coverage_pct": 99.2, "peak_mean": 7.11, "overnight_mean": 6.73, "smoke_days_excluded": 0, "hourly_weekday": [6.74, 6.71, 6.67, 6.51, 6.75, 7.09, 7.56, 7.82, 8.0, 8.06, 8.07, 8.12, 7.66, 7.41, 7.15, 6.91, 6.65, 6.03, 5.9, 6.03, 6.51, 6.79, 6.67, 6.69], "hourly_weekend": [7.05, 6.95, 6.84, 6.68, 6.71, 6.72, 6.81, 6.8, 6.76, 7.05, 7.26, 7.19, 6.89, 7.25, 7.31, 7.36, 7.02, 6.36, 6.17, 6.0, 6.6, 6.85, 6.71, 6.67]}}, "comparisons": {"post_2025_vs_pre_2024": {"months_used": ["09", "10", "11", "12"], "pre_mean": 5.45, "post_mean": 5.61, "delta_raw": 0.16, "pct_raw": 3.0, "delta_adj_control": 0.15, "control_site": "Van Wyck", "delta_adj_reference": null, "reference_site": "Queens College", "ci_low": -0.47, "ci_high": 0.77, "coverage_ok": true, "classification": "unchanged", "delta_adj_control_months": ["09", "10", "12"], "control_pre_mean": 5.45, "control_post_mean": 5.52, "site_delta_on_control_months": 0.21, "raw_class": "unchanged", "adj_class": "unchanged", "relative_to_control": "tracked control", "basis": "raw_and_control_adjusted", "significant": false}, "post_2026ytd_vs_ytd_2025": {"months_used": ["01", "02", "03", "04", "05", "06", "07", "08"], "pre_mean": 6.97, "post_mean": 6.67, "delta_raw": -0.29, "pct_raw": -4.2, "delta_adj_control": -0.31, "control_site": "Van Wyck", "delta_adj_reference": 0.33, "reference_site": "Queens College", "ci_low": -0.88, "ci_high": 0.36, "coverage_ok": true, "classification": "unchanged", "delta_adj_control_months": ["01", "02", "03", "04", "05", "06", "07", "08"], "control_pre_mean": 7.03, "control_post_mean": 7.04, "site_delta_on_control_months": -0.29, "delta_adj_reference_months": ["04", "05", "07", "08"], "raw_class": "unchanged", "adj_class": "unchanged", "relative_to_control": "tracked control", "basis": "raw_and_control_adjusted", "significant": false}, "post_2026ytd_vs_ytd_2024": {"months_used": [], "pre_mean": null, "post_mean": null, "delta_raw": null, "pct_raw": null, "delta_adj_control": null, "control_site": "Van Wyck", "delta_adj_reference": null, "reference_site": "Queens College", "ci_low": null, "ci_high": null, "coverage_ok": false, "classification": "insufficient"}}, "classification": "unchanged", "classification_basis": "post_2025_vs_pre_2024", "dac_designated": true, "dac_combined_pct": 0.964, "dac_asthma_pct": 0.531, "uhf42_code": "201", "uhf42_name": "Greenpoint", "uhf42_asthma_ed_pm25_children": 21.0, "uhf42_asthma_ed_children": 48.9, "uhf42_poverty_pct": 16.7, "uhf42_pm25_2024": 7.43}}, {"type": "Feature", "geometry": {"type": "Point", "coordinates": [-73.997004, 40.71651]}, "properties": {"id": "aq_36061NY08454", "site_id": "36061NY08454", "name": "Manhattan Bridge", "layer": "aq_monitor", "approx": false, "address": "Canal St SS1E of Elizabeth St", "role": "site", "crz_status": "inside", "active_from": "2020-02-04", "active_to": "2026-09-21", "relocated": false, "periods": {"pre_2024": {"mean": 9.35, "median": 7.48, "days": 317, "coverage_pct": 87.6, "peak_mean": 9.7, "overnight_mean": 8.8, "smoke_days_excluded": 0, "hourly_weekday": [9.18, 9.08, 9.01, 9.02, 9.18, 9.77, 10.22, 10.23, 10.82, 10.81, 11.09, 11.11, 10.66, 10.3, 9.83, 9.48, 9.19, 9.2, 9.43, 9.36, 9.42, 9.38, 9.26, 9.24], "hourly_weekend": [8.25, 7.98, 7.8, 7.69, 7.52, 8.03, 7.82, 7.88, 8.31, 8.95, 9.41, 9.56, 8.88, 8.7, 7.94, 7.72, 7.37, 7.63, 8.13, 8.59, 8.99, 9.4, 8.92, 8.69]}, "post_2025": {"mean": 7.92, "median": 6.62, "days": 361, "coverage_pct": 100.0, "peak_mean": 8.16, "overnight_mean": 7.52, "smoke_days_excluded": 0, "hourly_weekday": [7.02, 6.95, 6.93, 6.9, 6.98, 7.42, 7.84, 8.2, 8.5, 8.45, 8.45, 8.58, 8.5, 8.25, 7.9, 7.63, 7.54, 7.49, 7.84, 7.87, 7.92, 8.09, 7.6, 7.31], "hourly_weekend": [8.29, 8.14, 7.99, 7.71, 7.76, 7.64, 7.76, 7.85, 7.93, 8.15, 8.45, 8.77, 8.71, 8.74, 8.58, 8.54, 8.41, 8.46, 8.82, 8.96, 8.94, 8.86, 8.31, 7.97]}, "post_2026_ytd": {"mean": 8.31, "median": 7.1, "days": 239, "coverage_pct": 98.4, "peak_mean": 8.5, "overnight_mean": 8.0, "smoke_days_excluded": 4, "hourly_weekday": [7.22, 7.22, 7.45, 7.61, 7.7, 8.03, 8.38, 8.59, 8.85, 8.82, 9.02, 8.86, 8.63, 8.75, 8.56, 8.29, 8.12, 8.12, 8.38, 8.63, 8.69, 8.62, 8.05, 7.64], "hourly_weekend": [8.74, 8.84, 8.94, 8.95, 8.77, 8.41, 8.49, 8.55, 8.48, 8.61, 8.58, 8.68, 8.82, 8.78, 8.38, 8.13, 7.79, 7.86, 8.25, 8.38, 8.24, 8.32, 8.0, 7.8]}, "ytd_2024": {"mean": 10.92, "median": 9.74, "days": 195, "coverage_pct": 81.2, "peak_mean": 11.23, "overnight_mean": 10.41, "smoke_days_excluded": 0, "hourly_weekday": [11.14, 11.04, 11.0, 10.82, 10.93, 11.61, 12.05, 12.09, 12.68, 12.66, 13.01, 13.04, 12.46, 12.06, 11.6, 11.15, 10.81, 10.72, 10.96, 10.72, 10.77, 10.79, 10.95, 11.11], "hourly_weekend": [9.89, 9.34, 9.17, 8.86, 8.8, 9.02, 9.03, 8.87, 8.84, 9.43, 9.9, 10.48, 9.31, 9.33, 8.95, 8.86, 8.43, 8.53, 9.06, 9.64, 10.26, 10.77, 10.46, 10.28]}, "ytd_2025": {"mean": 8.49, "median": 7.25, "days": 239, "coverage_pct": 100.0, "peak_mean": 8.77, "overnight_mean": 8.03, "smoke_days_excluded": 0, "hourly_weekday": [7.68, 7.66, 7.63, 7.64, 7.75, 8.17, 8.7, 9.13, 9.34, 9.29, 9.26, 9.44, 9.4, 9.12, 8.79, 8.43, 8.29, 8.1, 8.3, 8.35, 8.45, 8.76, 8.25, 8.04], "hourly_weekend": [8.67, 8.48, 8.15, 7.91, 7.89, 7.87, 7.98, 8.0, 8.06, 8.22, 8.48, 8.68, 8.74, 9.04, 8.88, 8.92, 8.71, 8.63, 8.83, 8.85, 8.92, 8.87, 8.45, 8.12]}}, "comparisons": {"post_2025_vs_pre_2024": {"months_used": ["01", "03", "04", "05", "06", "07", "09", "10", "11", "12"], "pre_mean": 9.2, "post_mean": 7.82, "delta_raw": -1.38, "pct_raw": -15.0, "delta_adj_control": -0.79, "control_site": "Van Wyck", "delta_adj_reference": -1.24, "reference_site": "Queens College", "ci_low": -2.08, "ci_high": -0.65, "coverage_ok": true, "classification": "improved", "delta_adj_control_months": ["03", "04", "05", "06", "09", "10", "12"], "control_pre_mean": 7.0, "control_post_mean": 6.13, "site_delta_on_control_months": -1.67, "delta_adj_reference_months": ["01", "03", "04", "09"], "raw_class": "improved", "adj_class": "improved", "relative_to_control": "beat control", "basis": "raw_and_control_adjusted", "significant": true}, "post_2026ytd_vs_ytd_2025": {"months_used": ["01", "02", "03", "04", "05", "06", "07", "08"], "pre_mean": 8.49, "post_mean": 8.31, "delta_raw": -0.18, "pct_raw": -2.1, "delta_adj_control": -0.19, "control_site": "Van Wyck", "delta_adj_reference": 0.34, "reference_site": "Queens College", "ci_low": -0.92, "ci_high": 0.58, "coverage_ok": true, "classification": "unchanged", "delta_adj_control_months": ["01", "02", "03", "04", "05", "06", "07", "08"], "control_pre_mean": 7.03, "control_post_mean": 7.04, "site_delta_on_control_months": -0.18, "delta_adj_reference_months": ["04", "05", "07", "08"], "raw_class": "unchanged", "adj_class": "unchanged", "relative_to_control": "tracked control", "basis": "raw_and_control_adjusted", "significant": false}, "post_2026ytd_vs_ytd_2024": {"months_used": ["01", "03", "04", "05", "06", "07"], "pre_mean": 10.92, "post_mean": 7.84, "delta_raw": -3.08, "pct_raw": -28.2, "delta_adj_control": -1.72, "control_site": "Van Wyck", "delta_adj_reference": null, "reference_site": "Queens College", "ci_low": -4.06, "ci_high": -2.08, "coverage_ok": true, "classification": "improved", "delta_adj_control_months": ["03", "04", "05", "06"], "control_pre_mean": 8.15, "control_post_mean": 6.27, "site_delta_on_control_months": -3.6, "raw_class": "improved", "adj_class": "improved", "relative_to_control": "beat control", "basis": "raw_and_control_adjusted", "significant": true}}, "classification": "improved", "classification_basis": "post_2025_vs_pre_2024", "dac_designated": true, "dac_combined_pct": 0.874, "dac_asthma_pct": 0.654, "uhf42_code": "308", "uhf42_name": "Greenwich Village - SoHo", "uhf42_asthma_ed_pm25_children": 14.0, "uhf42_asthma_ed_children": 47.9, "uhf42_poverty_pct": 8.9, "uhf42_pm25_2024": 8.93}}, {"type": "Feature", "geometry": {"type": "Point", "coordinates": [-73.986059, 40.718073]}, "properties": {"id": "aq_36061NY08552", "site_id": "36061NY08552", "name": "Williamsburg Bridge", "layer": "aq_monitor", "approx": false, "address": "Delancey St NS 1E of Suffolk St", "role": "site", "crz_status": "inside", "active_from": "2020-04-06", "active_to": "2026-09-21", "relocated": false, "periods": {"pre_2024": {"mean": 8.35, "median": 6.96, "days": 264, "coverage_pct": 72.9, "peak_mean": 8.68, "overnight_mean": 7.83, "smoke_days_excluded": 0, "hourly_weekday": [7.94, 7.69, 7.67, 7.69, 7.57, 7.98, 8.4, 8.86, 9.58, 10.08, 10.14, 10.0, 9.37, 9.1, 8.75, 8.68, 8.37, 8.12, 8.26, 8.42, 8.67, 8.43, 8.27, 7.94], "hourly_weekend": [7.88, 7.64, 7.38, 7.64, 7.29, 7.19, 7.23, 7.21, 7.8, 8.27, 8.61, 8.47, 8.44, 8.2, 7.54, 7.38, 6.89, 7.08, 7.34, 7.86, 8.47, 8.66, 8.3, 8.18]}, "post_2025": {"mean": 7.33, "median": 6.31, "days": 326, "coverage_pct": 90.3, "peak_mean": 7.53, "overnight_mean": 6.99, "smoke_days_excluded": 0, "hourly_weekday": [6.69, 6.56, 6.32, 6.37, 6.44, 6.72, 7.33, 8.17, 8.19, 8.32, 8.28, 8.15, 7.64, 7.51, 7.29, 7.13, 6.92, 6.82, 6.75, 6.85, 7.25, 7.16, 7.0, 6.8], "hourly_weekend": [7.93, 7.78, 7.37, 7.3, 7.32, 7.11, 7.24, 7.27, 7.45, 7.8, 7.93, 7.98, 7.62, 7.77, 7.78, 7.83, 7.62, 7.54, 7.54, 7.62, 8.12, 8.15, 7.94, 7.53]}, "post_2026_ytd": {"mean": 7.14, "median": 6.34, "days": 222, "coverage_pct": 91.4, "peak_mean": 7.24, "overnight_mean": 6.96, "smoke_days_excluded": 4, "hourly_weekday": [6.61, 6.27, 6.29, 6.42, 6.54, 6.73, 7.05, 7.29, 7.66, 8.02, 8.2, 8.1, 7.21, 7.2, 7.31, 7.18, 6.93, 6.81, 6.64, 6.76, 7.41, 7.18, 6.92, 6.7], "hourly_weekend": [8.1, 8.14, 7.99, 8.12, 7.89, 7.31, 7.3, 7.34, 7.46, 7.83, 7.66, 7.78, 7.26, 7.26, 7.13, 7.08, 6.52, 6.53, 6.53, 6.61, 6.96, 6.9, 6.78, 6.9]}, "ytd_2024": {"mean": 9.71, "median": 8.15, "days": 142, "coverage_pct": 59.2, "peak_mean": 10.08, "overnight_mean": 9.14, "smoke_days_excluded": 0, "hourly_weekday": [9.42, 9.15, 9.06, 9.14, 8.9, 9.34, 9.71, 10.15, 11.13, 11.76, 12.04, 11.97, 11.29, 10.86, 10.49, 10.44, 9.99, 9.47, 9.58, 9.71, 10.03, 9.78, 9.76, 9.3], "hourly_weekend": [9.32, 8.83, 8.53, 8.5, 8.58, 8.33, 8.41, 8.15, 8.38, 8.55, 8.89, 9.12, 9.1, 8.97, 8.56, 8.52, 7.92, 7.92, 8.24, 8.95, 9.53, 9.84, 9.6, 9.72]}, "ytd_2025": {"mean": 7.84, "median": 6.73, "days": 239, "coverage_pct": 100.0, "peak_mean": 8.06, "overnight_mean": 7.48, "smoke_days_excluded": 0, "hourly_weekday": [7.34, 7.25, 7.02, 7.04, 7.09, 7.43, 8.03, 8.99, 8.87, 8.95, 8.92, 8.83, 8.37, 8.22, 7.95, 7.78, 7.51, 7.35, 7.26, 7.32, 7.71, 7.73, 7.61, 7.49], "hourly_weekend": [8.4, 8.22, 7.71, 7.61, 7.55, 7.23, 7.33, 7.32, 7.57, 7.92, 8.11, 8.05, 7.76, 8.09, 8.06, 8.14, 7.94, 7.84, 7.74, 7.77, 8.21, 8.22, 8.17, 7.67]}}, "comparisons": {"post_2025_vs_pre_2024": {"months_used": ["03", "04", "05", "06", "09", "10", "11"], "pre_mean": 8.42, "post_mean": 6.81, "delta_raw": -1.6, "pct_raw": -19.1, "delta_adj_control": -0.78, "control_site": "Van Wyck", "delta_adj_reference": -1.53, "reference_site": "Queens College", "ci_low": -2.3, "ci_high": -0.9, "coverage_ok": true, "classification": "improved", "delta_adj_control_months": ["03", "04", "05", "06", "09", "10"], "control_pre_mean": 7.13, "control_post_mean": 6.11, "site_delta_on_control_months": -1.8, "delta_adj_reference_months": ["03", "04", "09"], "raw_class": "improved", "adj_class": "improved", "relative_to_control": "beat control", "basis": "raw_and_control_adjusted", "significant": true}, "post_2026ytd_vs_ytd_2025": {"months_used": ["01", "02", "03", "04", "06", "07", "08"], "pre_mean": 8.01, "post_mean": 7.2, "delta_raw": -0.81, "pct_raw": -10.2, "delta_adj_control": -0.79, "control_site": "Van Wyck", "delta_adj_reference": 0.04, "reference_site": "Queens College", "ci_low": -1.47, "ci_high": -0.15, "coverage_ok": true, "classification": "improved", "delta_adj_control_months": ["01", "02", "03", "04", "06", "07", "08"], "control_pre_mean": 7.22, "control_post_mean": 7.2, "site_delta_on_control_months": -0.81, "delta_adj_reference_months": ["04", "07", "08"], "raw_class": "improved", "adj_class": "improved", "relative_to_control": "beat control", "basis": "raw_and_control_adjusted", "significant": true}, "post_2026ytd_vs_ytd_2024": {"months_used": ["03", "04", "06"], "pre_mean": 9.25, "post_mean": 6.6, "delta_raw": -2.65, "pct_raw": -28.7, "delta_adj_control": -1.11, "control_site": "Van Wyck", "delta_adj_reference": null, "reference_site": "Queens College", "ci_low": -3.71, "ci_high": -1.62, "coverage_ok": true, "classification": "improved", "delta_adj_control_months": ["03", "04", "06"], "control_pre_mean": 7.88, "control_post_mean": 6.34, "site_delta_on_control_months": -2.65, "raw_class": "improved", "adj_class": "improved", "relative_to_control": "beat control", "basis": "raw_and_control_adjusted", "significant": true}}, "classification": "improved", "classification_basis": "post_2025_vs_pre_2024", "dac_designated": true, "dac_combined_pct": 0.928, "dac_asthma_pct": 0.925, "uhf42_code": "309", "uhf42_name": "Union Square - Lower East Side", "uhf42_asthma_ed_pm25_children": 90.0, "uhf42_asthma_ed_children": 159.7, "uhf42_poverty_pct": 20.1, "uhf42_pm25_2024": 8.45}}, {"type": "Feature", "geometry": {"type": "Point", "coordinates": [-73.974651, 40.722288]}, "properties": {"id": "aq_36061NY08653", "site_id": "36061NY08653", "name": "FDR", "layer": "aq_monitor", "approx": false, "address": "Southbound FDR access Road between E 10th St and E 6th St", "role": "site", "crz_status": "boundary", "active_from": "2023-12-01", "active_to": "2026-09-21", "relocated": false, "periods": {"pre_2024": {"mean": 7.85, "median": 6.39, "days": 308, "coverage_pct": 85.1, "peak_mean": 8.12, "overnight_mean": 7.41, "smoke_days_excluded": 0, "hourly_weekday": [7.48, 7.37, 7.23, 7.1, 7.2, 7.58, 8.47, 9.02, 9.18, 9.25, 9.2, 8.98, 8.55, 8.57, 8.42, 8.34, 7.57, 7.31, 7.53, 7.6, 7.62, 7.67, 7.61, 7.8], "hourly_weekend": [7.25, 7.08, 6.86, 6.98, 6.89, 7.02, 7.6, 7.56, 7.62, 7.65, 7.96, 7.94, 8.16, 7.83, 7.18, 6.91, 6.64, 6.68, 7.0, 7.54, 8.08, 8.2, 7.84, 7.72]}, "post_2025": {"mean": 6.67, "median": 5.79, "days": 323, "coverage_pct": 89.5, "peak_mean": 6.92, "overnight_mean": 6.24, "smoke_days_excluded": 0, "hourly_weekday": [6.06, 5.83, 5.73, 5.68, 6.18, 6.65, 8.18, 8.98, 8.34, 8.0, 7.95, 7.3, 7.01, 7.6, 7.1, 6.86, 5.87, 5.44, 5.43, 5.64, 6.05, 6.17, 6.15, 6.07], "hourly_weekend": [6.57, 6.65, 6.49, 6.29, 6.58, 6.62, 6.87, 6.87, 6.87, 6.74, 6.6, 6.49, 6.48, 6.35, 6.27, 6.99, 6.78, 6.43, 6.48, 6.54, 6.89, 6.91, 6.84, 6.52]}, "post_2026_ytd": {"mean": 7.93, "median": 7.04, "days": 233, "coverage_pct": 95.9, "peak_mean": 8.22, "overnight_mean": 7.46, "smoke_days_excluded": 0, "hourly_weekday": [6.98, 6.93, 6.78, 6.8, 7.48, 7.77, 8.81, 9.43, 9.21, 9.04, 9.1, 8.89, 8.26, 8.7, 8.62, 8.59, 7.83, 7.58, 7.4, 7.51, 7.88, 7.78, 7.64, 7.45], "hourly_weekend": [8.15, 7.95, 7.98, 8.19, 7.82, 7.64, 7.95, 8.2, 8.11, 7.95, 7.67, 7.62, 7.79, 7.72, 7.71, 7.94, 7.21, 7.28, 7.32, 7.48, 7.24, 7.56, 7.2, 7.3]}, "ytd_2024": {"mean": 9.24, "median": 8.26, "days": 186, "coverage_pct": 77.5, "peak_mean": 9.53, "overnight_mean": 8.75, "smoke_days_excluded": 0, "hourly_weekday": [8.98, 8.88, 8.64, 8.43, 8.46, 8.94, 9.97, 10.6, 10.62, 10.74, 10.76, 10.69, 10.38, 10.35, 10.29, 10.17, 9.06, 8.6, 8.88, 8.95, 8.94, 9.08, 9.04, 9.37], "hourly_weekend": [8.65, 8.38, 8.01, 8.02, 8.14, 8.27, 8.68, 8.54, 8.44, 8.2, 8.44, 8.59, 9.05, 8.82, 8.4, 8.14, 7.83, 7.74, 8.19, 8.81, 9.19, 9.5, 9.19, 9.16]}, "ytd_2025": {"mean": 6.8, "median": 5.96, "days": 201, "coverage_pct": 84.1, "peak_mean": 7.02, "overnight_mean": 6.44, "smoke_days_excluded": 0, "hourly_weekday": [6.46, 6.14, 6.14, 6.09, 6.56, 6.99, 8.39, 9.18, 8.63, 7.94, 7.94, 7.4, 7.13, 7.45, 7.23, 7.04, 6.22, 5.79, 5.81, 6.04, 6.53, 6.68, 6.74, 6.67], "hourly_weekend": [6.6, 6.61, 6.32, 6.09, 6.4, 6.33, 6.55, 6.56, 6.42, 6.38, 6.35, 6.21, 6.3, 6.29, 6.27, 6.51, 6.34, 6.25, 6.21, 6.28, 6.66, 6.66, 6.65, 6.24]}}, "comparisons": {"post_2025_vs_pre_2024": {"months_used": ["03", "04", "05", "06", "08", "09", "10", "11", "12"], "pre_mean": 7.48, "post_mean": 6.7, "delta_raw": -0.78, "pct_raw": -10.5, "delta_adj_control": -0.04, "control_site": "Van Wyck", "delta_adj_reference": -0.85, "reference_site": "Queens College", "ci_low": -1.46, "ci_high": -0.22, "coverage_ok": true, "classification": "unchanged", "delta_adj_control_months": ["03", "04", "05", "06", "08", "09", "10", "12"], "control_pre_mean": 7.25, "control_post_mean": 6.34, "site_delta_on_control_months": -0.95, "delta_adj_reference_months": ["03", "04", "08", "09"], "raw_class": "improved", "adj_class": "unchanged", "relative_to_control": "tracked control", "basis": "raw_and_control_adjusted", "significant": true}, "post_2026ytd_vs_ytd_2025": {"months_used": ["01", "02", "03", "04", "05", "06", "08"], "pre_mean": 6.83, "post_mean": 7.87, "delta_raw": 1.04, "pct_raw": 15.2, "delta_adj_control": 0.87, "control_site": "Van Wyck", "delta_adj_reference": 1.44, "reference_site": "Queens College", "ci_low": 0.35, "ci_high": 1.73, "coverage_ok": true, "classification": "worsened", "delta_adj_control_months": ["01", "02", "03", "04", "05", "06", "08"], "control_pre_mean": 6.71, "control_post_mean": 6.88, "site_delta_on_control_months": 1.04, "delta_adj_reference_months": ["04", "05", "08"], "raw_class": "worsened", "adj_class": "worsened", "relative_to_control": "lagged control", "basis": "raw_and_control_adjusted", "significant": true}, "post_2026ytd_vs_ytd_2024": {"months_used": ["03", "04", "05", "06", "07", "08"], "pre_mean": 9.3, "post_mean": 7.41, "delta_raw": -1.88, "pct_raw": -20.2, "delta_adj_control": -0.08, "control_site": "Van Wyck", "delta_adj_reference": null, "reference_site": "Queens College", "ci_low": -2.67, "ci_high": -1.1, "coverage_ok": true, "classification": "unchanged", "delta_adj_control_months": ["03", "04", "05", "06", "08"], "control_pre_mean": 8.3, "control_post_mean": 6.64, "site_delta_on_control_months": -1.73, "raw_class": "improved", "adj_class": "unchanged", "relative_to_control": "tracked control", "basis": "raw_and_control_adjusted", "significant": true}}, "classification": "unchanged", "classification_basis": "post_2025_vs_pre_2024", "dac_designated": true, "dac_combined_pct": 0.998, "dac_asthma_pct": 0.925, "uhf42_code": "309", "uhf42_name": "Union Square - Lower East Side", "uhf42_asthma_ed_pm25_children": 90.0, "uhf42_asthma_ed_children": 159.7, "uhf42_poverty_pct": 20.1, "uhf42_pm25_2024": 8.45}}, {"type": "Feature", "geometry": {"type": "Point", "coordinates": [-73.98783, 40.75069]}, "properties": {"id": "aq_36061NY09734", "site_id": "36061NY09734", "name": "Broadway/35th St", "layer": "aq_monitor", "approx": false, "address": "Broadway ES1N of 35th St", "role": "site", "crz_status": "inside", "active_from": "2019-06-07", "active_to": "2026-09-21", "relocated": false, "periods": {"pre_2024": {"mean": 8.91, "median": 7.49, "days": 359, "coverage_pct": 99.2, "peak_mean": 9.49, "overnight_mean": 7.97, "smoke_days_excluded": 0, "hourly_weekday": [7.89, 7.68, 7.56, 7.69, 7.4, 7.64, 8.13, 8.54, 9.38, 9.78, 10.12, 10.21, 10.34, 10.39, 9.89, 9.61, 9.51, 9.77, 9.99, 10.23, 10.04, 9.54, 8.79, 8.28], "hourly_weekend": [7.75, 7.39, 7.23, 7.22, 7.08, 7.18, 7.28, 7.39, 7.66, 8.12, 8.89, 9.06, 9.07, 9.27, 8.85, 8.64, 8.62, 8.96, 9.59, 10.24, 10.3, 10.04, 8.67, 8.08]}, "post_2025": {"mean": 8.01, "median": 6.89, "days": 359, "coverage_pct": 99.4, "peak_mean": 8.47, "overnight_mean": 7.27, "smoke_days_excluded": 0, "hourly_weekday": [6.72, 6.53, 6.37, 6.3, 6.26, 6.61, 6.96, 7.67, 8.32, 8.3, 8.33, 8.55, 8.8, 8.87, 8.55, 8.31, 8.14, 8.55, 8.84, 8.85, 9.0, 8.34, 7.72, 7.22], "hourly_weekend": [7.94, 7.64, 7.42, 7.18, 7.2, 7.48, 7.61, 7.61, 7.76, 7.92, 8.35, 8.72, 8.76, 9.05, 9.22, 9.1, 9.21, 9.43, 9.67, 9.76, 9.81, 9.39, 8.6, 7.95]}, "post_2026_ytd": {"mean": 8.5, "median": 7.72, "days": 239, "coverage_pct": 98.4, "peak_mean": 8.86, "overnight_mean": 7.93, "smoke_days_excluded": 4, "hourly_weekday": [7.57, 7.19, 6.93, 6.91, 7.27, 7.46, 7.86, 8.16, 8.68, 8.89, 9.14, 9.27, 9.01, 9.84, 9.61, 9.57, 8.63, 8.75, 9.01, 9.11, 9.73, 9.4, 8.52, 7.84], "hourly_weekend": [8.59, 8.68, 8.64, 8.51, 8.4, 8.12, 8.09, 8.03, 8.01, 8.2, 8.39, 8.77, 8.61, 9.25, 9.33, 9.03, 8.22, 8.12, 8.57, 8.37, 8.91, 8.58, 8.19, 7.76]}, "ytd_2024": {"mean": 9.88, "median": 8.76, "days": 237, "coverage_pct": 98.8, "peak_mean": 10.39, "overnight_mean": 9.04, "smoke_days_excluded": 0, "hourly_weekday": [9.1, 8.95, 8.71, 8.87, 8.38, 8.64, 9.2, 9.6, 10.52, 10.96, 11.29, 11.42, 11.59, 11.5, 11.11, 10.58, 10.47, 10.6, 11.0, 11.25, 11.05, 10.56, 10.07, 9.57], "hourly_weekend": [8.99, 8.55, 8.29, 8.04, 7.9, 8.0, 8.09, 8.16, 8.19, 8.5, 8.97, 9.35, 9.41, 9.52, 9.36, 9.14, 8.96, 9.42, 9.95, 10.56, 10.63, 10.35, 9.88, 9.3]}, "ytd_2025": {"mean": 8.17, "median": 7.13, "days": 237, "coverage_pct": 99.2, "peak_mean": 8.6, "overnight_mean": 7.5, "smoke_days_excluded": 0, "hourly_weekday": [7.15, 7.0, 6.87, 6.83, 6.78, 7.06, 7.41, 8.17, 8.79, 8.73, 8.7, 8.86, 9.08, 9.06, 8.69, 8.52, 8.37, 8.72, 8.85, 8.92, 9.1, 8.65, 8.14, 7.71], "hourly_weekend": [8.03, 7.72, 7.39, 7.13, 7.14, 7.42, 7.45, 7.43, 7.52, 7.76, 8.13, 8.28, 8.48, 8.83, 9.0, 8.84, 8.8, 8.9, 9.08, 9.11, 9.2, 8.88, 8.24, 7.79]}}, "comparisons": {"post_2025_vs_pre_2024": {"months_used": ["01", "02", "03", "04", "05", "06", "07", "08", "09", "10", "11", "12"], "pre_mean": 8.91, "post_mean": 8.01, "delta_raw": -0.91, "pct_raw": -10.2, "delta_adj_control": -0.1, "control_site": "Van Wyck", "delta_adj_reference": -0.95, "reference_site": "Queens College", "ci_low": -1.51, "ci_high": -0.31, "coverage_ok": true, "classification": "unchanged", "delta_adj_control_months": ["03", "04", "05", "06", "08", "09", "10", "12"], "control_pre_mean": 7.25, "control_post_mean": 6.34, "site_delta_on_control_months": -1.01, "delta_adj_reference_months": ["01", "02", "03", "04", "08", "09"], "raw_class": "improved", "adj_class": "unchanged", "relative_to_control": "tracked control", "basis": "raw_and_control_adjusted", "significant": true}, "post_2026ytd_vs_ytd_2025": {"months_used": ["01", "02", "03", "04", "05", "06", "07", "08"], "pre_mean": 8.17, "post_mean": 8.5, "delta_raw": 0.33, "pct_raw": 4.0, "delta_adj_control": 0.32, "control_site": "Van Wyck", "delta_adj_reference": 0.56, "reference_site": "Queens College", "ci_low": -0.41, "ci_high": 1.12, "coverage_ok": true, "classification": "unchanged", "delta_adj_control_months": ["01", "02", "03", "04", "05", "06", "07", "08"], "control_pre_mean": 7.03, "control_post_mean": 7.04, "site_delta_on_control_months": 0.33, "delta_adj_reference_months": ["04", "05", "07", "08"], "raw_class": "unchanged", "adj_class": "unchanged", "relative_to_control": "tracked control", "basis": "raw_and_control_adjusted", "significant": false}, "post_2026ytd_vs_ytd_2024": {"months_used": ["01", "02", "03", "04", "05", "06", "07", "08"], "pre_mean": 9.88, "post_mean": 8.5, "delta_raw": -1.38, "pct_raw": -14.0, "delta_adj_control": -0.19, "control_site": "Van Wyck", "delta_adj_reference": null, "reference_site": "Queens College", "ci_low": -2.08, "ci_high": -0.69, "coverage_ok": true, "classification": "unchanged", "delta_adj_control_months": ["03", "04", "05", "06", "08"], "control_pre_mean": 8.3, "control_post_mean": 6.64, "site_delta_on_control_months": -1.84, "raw_class": "improved", "adj_class": "unchanged", "relative_to_control": "tracked control", "basis": "raw_and_control_adjusted", "significant": true}}, "classification": "unchanged", "classification_basis": "post_2025_vs_pre_2024", "dac_designated": true, "dac_combined_pct": 0.0, "dac_asthma_pct": null, "uhf42_code": "306", "uhf42_name": "Chelsea - Clinton", "uhf42_asthma_ed_pm25_children": 50.0, "uhf42_asthma_ed_children": 129.9, "uhf42_poverty_pct": 11.9, "uhf42_pm25_2024": 9.51}}, {"type": "Feature", "geometry": {"type": "Point", "coordinates": [-73.990863, 40.755139]}, "properties": {"id": "aq_36061NY09929", "site_id": "36061NY09929", "name": "Midtown-DOT", "layer": "aq_monitor", "approx": false, "address": "S Side of W 39th between 8th and 7th Ave", "role": "site", "crz_status": "inside", "active_from": "2019-06-06", "active_to": "2026-09-21", "relocated": true, "periods": {"pre_2024": {"mean": 9.54, "median": 8.49, "days": 162, "coverage_pct": 44.8, "peak_mean": 10.36, "overnight_mean": 8.28, "smoke_days_excluded": 0, "hourly_weekday": [7.54, 6.78, 6.85, 6.74, 7.13, 7.25, 8.05, 8.81, 10.02, 10.57, 12.08, 10.94, 11.17, 11.99, 10.67, 10.37, 10.87, 10.34, 10.98, 11.03, 10.54, 9.94, 9.24, 8.91], "hourly_weekend": [8.92, 8.26, 8.27, 8.9, 9.43, 7.91, 8.6, 9.04, 9.31, 9.83, 11.96, 10.75, 10.66, 10.44, 9.74, 9.74, 9.45, 9.66, 11.17, 10.95, 10.43, 10.16, 9.35, 8.86]}, "post_2025": {"mean": 10.13, "median": 8.95, "days": 355, "coverage_pct": 98.3, "peak_mean": 10.78, "overnight_mean": 9.11, "smoke_days_excluded": 0, "hourly_weekday": [8.46, 7.98, 7.72, 7.49, 7.37, 7.72, 8.5, 9.34, 10.25, 10.95, 11.71, 11.05, 11.23, 11.98, 11.16, 10.69, 10.84, 11.68, 11.18, 11.62, 11.08, 10.79, 10.16, 10.26], "hourly_weekend": [10.3, 9.85, 9.15, 8.62, 8.4, 8.6, 8.94, 8.85, 9.25, 9.41, 10.35, 11.39, 10.68, 10.9, 10.78, 11.06, 11.23, 11.32, 11.68, 12.15, 12.3, 12.15, 11.37, 10.5]}, "post_2026_ytd": {"mean": 12.29, "median": 11.86, "days": 90, "coverage_pct": 37.0, "peak_mean": 12.92, "overnight_mean": 10.97, "smoke_days_excluded": 4, "hourly_weekday": [10.26, 9.69, 9.21, 9.23, 9.26, 9.79, 10.39, 11.2, 11.41, 12.18, 14.15, 14.33, 15.54, 16.26, 15.47, 14.3, 13.6, 12.68, 12.39, 12.82, 12.54, 12.42, 11.93, 11.32], "hourly_weekend": [21.69, 11.18, 10.58, 9.66, 9.24, 9.25, 9.82, 10.37, 10.37, 10.81, 11.33, 12.4, 14.09, 12.87, 11.75, 12.43, 12.6, 12.93, 12.41, 13.34, 12.84, 13.56, 13.9, 12.04]}, "ytd_2024": {"mean": 10.78, "median": 9.08, "days": 40, "coverage_pct": 16.7, "peak_mean": 11.53, "overnight_mean": 9.77, "smoke_days_excluded": 0, "hourly_weekday": [8.57, 8.02, 8.22, 8.03, 7.66, 8.08, 9.45, 10.24, 11.25, 11.49, 13.28, 11.99, 12.29, 13.17, 12.66, 12.17, 12.17, 11.58, 11.69, 12.2, 11.88, 11.59, 10.93, 10.26], "hourly_weekend": [10.93, 10.57, 10.13, 10.29, 10.49, 11.04, 11.58, 12.25, 11.34, 11.18, 13.6, 10.96, 11.36, 11.45, 11.39, 11.01, 10.88, 11.28, 12.02, 11.37, 10.22, 10.03, 9.83, 9.75]}, "ytd_2025": {"mean": 10.43, "median": 9.11, "days": 233, "coverage_pct": 97.5, "peak_mean": 11.15, "overnight_mean": 9.32, "smoke_days_excluded": 0, "hourly_weekday": [8.93, 8.49, 8.34, 8.1, 8.06, 8.39, 9.08, 9.97, 10.93, 11.52, 12.46, 11.7, 11.83, 12.86, 11.97, 11.5, 11.41, 11.2, 11.35, 11.46, 11.32, 10.97, 10.44, 9.9], "hourly_weekend": [10.46, 9.96, 9.18, 8.55, 8.31, 8.62, 8.86, 8.82, 9.28, 9.39, 10.58, 10.85, 10.58, 11.1, 11.02, 11.32, 11.36, 11.18, 11.38, 11.82, 11.96, 11.77, 10.94, 10.39]}}, "comparisons": {"post_2025_vs_pre_2024": {"months_used": ["09", "10", "11", "12"], "pre_mean": 9.13, "post_mean": 9.55, "delta_raw": 0.42, "pct_raw": 4.6, "delta_adj_control": 0.45, "control_site": "Van Wyck", "delta_adj_reference": null, "reference_site": "Queens College", "ci_low": -0.44, "ci_high": 1.34, "coverage_ok": true, "classification": "unchanged", "delta_adj_control_months": ["09", "10", "12"], "control_pre_mean": 5.45, "control_post_mean": 5.52, "site_delta_on_control_months": 0.51, "raw_class": "unchanged", "adj_class": "unchanged", "relative_to_control": "tracked control", "basis": "raw_and_control_adjusted", "significant": false}, "post_2026ytd_vs_ytd_2025": {"months_used": ["01", "07", "08"], "pre_mean": 11.74, "post_mean": 12.13, "delta_raw": 0.39, "pct_raw": 3.3, "delta_adj_control": 0.58, "control_site": "Van Wyck", "delta_adj_reference": null, "reference_site": "Queens College", "ci_low": -1.33, "ci_high": 1.96, "coverage_ok": true, "classification": "unchanged", "delta_adj_control_months": ["01", "07", "08"], "control_pre_mean": 8.01, "control_post_mean": 7.82, "site_delta_on_control_months": 0.39, "raw_class": "unchanged", "adj_class": "worsened", "relative_to_control": "lagged control", "basis": "raw_and_control_adjusted", "significant": false}, "post_2026ytd_vs_ytd_2024": {"months_used": [], "pre_mean": null, "post_mean": null, "delta_raw": null, "pct_raw": null, "delta_adj_control": null, "control_site": "Van Wyck", "delta_adj_reference": null, "reference_site": "Queens College", "ci_low": null, "ci_high": null, "coverage_ok": false, "classification": "insufficient"}}, "classification": "unchanged", "classification_basis": "post_2025_vs_pre_2024", "dac_designated": false, "dac_combined_pct": 0.0, "dac_asthma_pct": null, "uhf42_code": "306", "uhf42_name": "Chelsea - Clinton", "uhf42_asthma_ed_pm25_children": 50.0, "uhf42_asthma_ed_children": 129.9, "uhf42_poverty_pct": 11.9, "uhf42_pm25_2024": 9.51}}, {"type": "Feature", "geometry": {"type": "Point", "coordinates": [-73.963886, 40.761234]}, "properties": {"id": "aq_36061NY10130", "site_id": "36061NY10130", "name": "Queensboro Bridge", "layer": "aq_monitor", "approx": false, "address": "60 St NS1E of 2nd Ave", "role": "site", "crz_status": "boundary", "active_from": "2020-03-02", "active_to": "2026-09-21", "relocated": false, "periods": {"pre_2024": {"mean": 7.52, "median": 6.13, "days": 291, "coverage_pct": 80.4, "peak_mean": 7.81, "overnight_mean": 7.05, "smoke_days_excluded": 0, "hourly_weekday": [7.16, 6.98, 6.94, 6.96, 7.11, 7.28, 7.48, 7.92, 8.3, 8.56, 9.15, 9.07, 8.37, 8.3, 7.99, 7.51, 7.42, 7.3, 7.42, 7.59, 7.69, 7.48, 7.31, 7.36], "hourly_weekend": [6.84, 6.65, 6.58, 6.48, 6.58, 6.78, 6.98, 7.06, 7.3, 7.31, 7.94, 7.91, 7.71, 7.8, 7.29, 7.07, 6.65, 6.55, 6.89, 7.3, 7.55, 7.44, 7.0, 6.77]}, "post_2025": {"mean": 6.9, "median": 5.92, "days": 358, "coverage_pct": 99.2, "peak_mean": 7.14, "overnight_mean": 6.53, "smoke_days_excluded": 0, "hourly_weekday": [6.29, 6.08, 6.04, 5.99, 6.09, 6.24, 6.56, 7.0, 7.53, 7.44, 7.59, 7.76, 7.34, 7.35, 7.24, 7.0, 6.56, 6.53, 6.68, 6.81, 7.06, 6.99, 6.62, 6.46], "hourly_weekend": [6.95, 6.84, 6.76, 6.56, 6.67, 6.71, 6.79, 6.84, 6.87, 7.38, 7.41, 7.73, 7.49, 7.56, 7.61, 7.43, 7.34, 7.31, 7.33, 7.27, 7.59, 7.51, 7.12, 6.86]}, "post_2026_ytd": {"mean": 7.02, "median": 6.32, "days": 239, "coverage_pct": 98.4, "peak_mean": 7.21, "overnight_mean": 6.7, "smoke_days_excluded": 4, "hourly_weekday": [6.34, 6.17, 6.03, 6.05, 6.3, 6.42, 6.76, 7.09, 7.38, 7.59, 8.03, 8.41, 7.43, 7.43, 7.21, 7.12, 7.06, 7.11, 6.93, 6.87, 7.62, 7.43, 7.06, 6.69], "hourly_weekend": [7.28, 7.26, 7.26, 7.13, 7.09, 7.07, 7.07, 7.15, 6.97, 7.01, 7.26, 7.76, 7.23, 7.22, 7.08, 6.8, 6.62, 6.6, 6.64, 6.68, 6.86, 6.75, 6.69, 6.49]}, "ytd_2024": {"mean": 8.59, "median": 7.38, "days": 169, "coverage_pct": 70.4, "peak_mean": 8.81, "overnight_mean": 8.22, "smoke_days_excluded": 0, "hourly_weekday": [8.6, 8.4, 8.39, 8.27, 8.11, 8.3, 8.61, 9.01, 9.26, 9.5, 10.2, 10.08, 9.59, 9.61, 9.31, 8.83, 8.56, 8.42, 8.38, 8.54, 8.63, 8.43, 8.47, 8.85], "hourly_weekend": [8.19, 7.75, 7.6, 7.52, 7.75, 8.01, 8.07, 7.88, 7.97, 8.13, 8.38, 8.5, 8.34, 8.24, 8.05, 7.74, 7.51, 7.4, 7.75, 8.36, 8.28, 8.06, 7.83, 7.87]}, "ytd_2025": {"mean": 7.39, "median": 6.3, "days": 237, "coverage_pct": 99.2, "peak_mean": 7.66, "overnight_mean": 6.97, "smoke_days_excluded": 0, "hourly_weekday": [6.8, 6.72, 6.62, 6.62, 6.71, 6.93, 7.27, 7.73, 8.29, 8.11, 8.18, 8.43, 8.04, 8.01, 7.97, 7.69, 7.24, 7.14, 7.19, 7.17, 7.54, 7.44, 7.22, 7.13], "hourly_weekend": [7.32, 7.15, 6.99, 6.71, 6.91, 6.98, 6.99, 7.1, 7.05, 7.26, 7.52, 7.95, 7.58, 7.81, 7.83, 7.85, 7.66, 7.58, 7.42, 7.23, 7.57, 7.5, 7.14, 6.9]}}, "comparisons": {"post_2025_vs_pre_2024": {"months_used": ["01", "02", "03", "04", "07", "08", "09", "10", "11", "12"], "pre_mean": 7.52, "post_mean": 6.57, "delta_raw": -0.95, "pct_raw": -12.6, "delta_adj_control": -0.16, "control_site": "Van Wyck", "delta_adj_reference": -0.81, "reference_site": "Queens College", "ci_low": -1.58, "ci_high": -0.37, "coverage_ok": true, "classification": "unchanged", "delta_adj_control_months": ["03", "04", "08", "09", "10", "12"], "control_pre_mean": 6.76, "control_post_mean": 5.86, "site_delta_on_control_months": -1.07, "delta_adj_reference_months": ["01", "02", "03", "04", "08", "09"], "raw_class": "improved", "adj_class": "unchanged", "relative_to_control": "tracked control", "basis": "raw_and_control_adjusted", "significant": true}, "post_2026ytd_vs_ytd_2025": {"months_used": ["01", "02", "03", "04", "05", "06", "07", "08"], "pre_mean": 7.39, "post_mean": 7.02, "delta_raw": -0.37, "pct_raw": -5.1, "delta_adj_control": -0.38, "control_site": "Van Wyck", "delta_adj_reference": 0.35, "reference_site": "Queens College", "ci_low": -1.04, "ci_high": 0.26, "coverage_ok": true, "classification": "unchanged", "delta_adj_control_months": ["01", "02", "03", "04", "05", "06", "07", "08"], "control_pre_mean": 7.03, "control_post_mean": 7.04, "site_delta_on_control_months": -0.37, "delta_adj_reference_months": ["04", "05", "07", "08"], "raw_class": "unchanged", "adj_class": "unchanged", "relative_to_control": "tracked control", "basis": "raw_and_control_adjusted", "significant": false}, "post_2026ytd_vs_ytd_2024": {"months_used": ["01", "02", "03", "04", "07", "08"], "pre_mean": 8.59, "post_mean": 7.21, "delta_raw": -1.38, "pct_raw": -16.1, "delta_adj_control": -0.53, "control_site": "Van Wyck", "delta_adj_reference": null, "reference_site": "Queens College", "ci_low": -2.14, "ci_high": -0.59, "coverage_ok": true, "classification": "improved", "delta_adj_control_months": ["03", "04", "08"], "control_pre_mean": 8.09, "control_post_mean": 6.8, "site_delta_on_control_months": -1.82, "raw_class": "improved", "adj_class": "improved", "relative_to_control": "beat control", "basis": "raw_and_control_adjusted", "significant": true}}, "classification": "unchanged", "classification_basis": "post_2025_vs_pre_2024", "dac_designated": false, "dac_combined_pct": 0.358, "dac_asthma_pct": 0.188, "uhf42_code": "305", "uhf42_name": "Upper East Side", "uhf42_asthma_ed_pm25_children": 16.0, "uhf42_asthma_ed_children": 23.9, "uhf42_poverty_pct": 7.3, "uhf42_pm25_2024": 7.04}}, {"type": "Feature", "geometry": {"type": "Point", "coordinates": [-73.933023, 40.846544]}, "properties": {"id": "aq_36061NY12380", "site_id": "36061NY12380", "name": "Hamilton Bridge", "layer": "aq_monitor", "approx": false, "address": "North side of W 178th St between Audubon Ave and Amsterdam Ave", "role": "site", "crz_status": "outside", "active_from": "2024-05-20", "active_to": "2026-09-21", "relocated": false, "periods": {"pre_2024": {"mean": 7.29, "median": 5.54, "days": 170, "coverage_pct": 47.0, "peak_mean": 7.44, "overnight_mean": 7.07, "smoke_days_excluded": 0, "hourly_weekday": [7.14, 6.94, 6.63, 6.7, 6.98, 7.59, 7.33, 7.21, 7.42, 7.67, 7.77, 7.82, 7.75, 7.77, 7.51, 7.13, 7.01, 6.51, 6.52, 6.62, 6.76, 7.09, 7.06, 7.1], "hourly_weekend": [8.29, 7.64, 6.74, 6.75, 6.74, 6.96, 6.94, 6.81, 7.05, 6.92, 6.99, 6.84, 7.04, 7.58, 7.55, 8.01, 8.04, 8.55, 12.19, 8.9, 7.74, 7.64, 7.91, 7.56]}, "post_2025": {"mean": 8.99, "median": 7.99, "days": 351, "coverage_pct": 97.2, "peak_mean": 9.05, "overnight_mean": 8.9, "smoke_days_excluded": 0, "hourly_weekday": [8.7, 8.46, 8.25, 8.34, 8.7, 9.27, 9.29, 8.94, 9.09, 9.36, 9.29, 9.21, 9.41, 9.38, 8.92, 8.67, 8.57, 8.66, 8.83, 8.99, 8.8, 9.04, 9.16, 8.97], "hourly_weekend": [9.76, 9.51, 8.95, 8.77, 8.7, 9.19, 9.37, 8.98, 9.02, 8.93, 8.69, 8.62, 9.08, 8.94, 8.73, 8.92, 9.26, 9.25, 9.18, 9.49, 9.58, 9.56, 9.56, 9.36]}, "post_2026_ytd": {"mean": 8.76, "median": 7.74, "days": 216, "coverage_pct": 88.9, "peak_mean": 8.7, "overnight_mean": 8.82, "smoke_days_excluded": 4, "hourly_weekday": [8.53, 8.22, 8.18, 8.14, 8.53, 9.07, 9.05, 8.81, 8.92, 8.99, 9.14, 9.07, 9.27, 8.85, 8.56, 8.5, 8.69, 8.72, 8.77, 9.2, 9.1, 9.33, 9.29, 9.28], "hourly_weekend": [9.71, 10.78, 10.18, 9.36, 9.01, 8.84, 8.65, 8.35, 8.31, 8.29, 8.47, 8.17, 8.25, 7.87, 7.53, 7.63, 7.65, 7.66, 8.2, 8.32, 7.96, 8.05, 8.49, 8.74]}, "ytd_2024": {"mean": 10.13, "median": 9.66, "days": 76, "coverage_pct": 31.7, "peak_mean": 10.26, "overnight_mean": 9.86, "smoke_days_excluded": 0, "hourly_weekday": [9.71, 9.38, 9.17, 9.38, 9.73, 10.69, 9.91, 9.76, 10.0, 10.39, 10.55, 10.84, 11.0, 10.93, 10.45, 9.58, 9.24, 8.89, 8.82, 8.75, 8.79, 9.26, 9.52, 9.65], "hourly_weekend": [12.72, 10.43, 9.49, 9.95, 9.97, 10.15, 9.85, 9.82, 10.16, 9.96, 10.22, 9.98, 10.23, 10.18, 9.92, 10.1, 9.5, 11.81, 21.45, 13.89, 11.0, 10.83, 11.97, 11.21]}, "ytd_2025": {"mean": 9.83, "median": 8.72, "days": 229, "coverage_pct": 95.8, "peak_mean": 9.96, "overnight_mean": 9.6, "smoke_days_excluded": 0, "hourly_weekday": [9.45, 9.34, 9.1, 9.2, 9.68, 10.21, 10.24, 9.86, 10.07, 10.42, 10.41, 10.29, 10.58, 10.71, 10.16, 9.88, 9.63, 9.72, 9.78, 9.89, 9.67, 10.07, 10.29, 10.06], "hourly_weekend": [10.39, 10.01, 9.25, 9.04, 8.87, 9.43, 9.6, 9.2, 9.21, 9.14, 9.06, 9.12, 9.8, 9.67, 9.35, 9.52, 9.83, 9.65, 9.46, 9.73, 9.83, 9.79, 9.78, 9.6]}}, "comparisons": {"post_2025_vs_pre_2024": {"months_used": ["06", "08", "09", "10", "11"], "pre_mean": 6.9, "post_mean": 9.15, "delta_raw": 2.25, "pct_raw": 32.6, "delta_adj_control": 2.1, "control_site": "Van Wyck", "delta_adj_reference": null, "reference_site": "Queens College", "ci_low": 1.15, "ci_high": 3.41, "coverage_ok": true, "classification": "worsened", "delta_adj_control_months": ["06", "08", "09", "10"], "control_pre_mean": 6.87, "control_post_mean": 6.99, "site_delta_on_control_months": 2.22, "raw_class": "worsened", "adj_class": "worsened", "relative_to_control": "lagged control", "basis": "raw_and_control_adjusted", "significant": true}, "post_2026ytd_vs_ytd_2025": {"months_used": ["02", "03", "04", "05", "06", "07", "08"], "pre_mean": 9.82, "post_mean": 8.84, "delta_raw": -0.98, "pct_raw": -10.0, "delta_adj_control": -1.04, "control_site": "Van Wyck", "delta_adj_reference": -0.54, "reference_site": "Queens College", "ci_low": -1.91, "ci_high": -0.04, "coverage_ok": true, "classification": "improved", "delta_adj_control_months": ["02", "03", "04", "05", "06", "07", "08"], "control_pre_mean": 7.05, "control_post_mean": 7.11, "site_delta_on_control_months": -0.98, "delta_adj_reference_months": ["04", "05", "07", "08"], "raw_class": "improved", "adj_class": "improved", "relative_to_control": "beat control", "basis": "raw_and_control_adjusted", "significant": true}, "post_2026ytd_vs_ytd_2024": {"months_used": ["06", "08"], "pre_mean": null, "post_mean": null, "delta_raw": null, "pct_raw": null, "delta_adj_control": null, "control_site": "Van Wyck", "delta_adj_reference": null, "reference_site": "Queens College", "ci_low": null, "ci_high": null, "coverage_ok": false, "classification": "insufficient"}}, "classification": "worsened", "classification_basis": "post_2025_vs_pre_2024", "dac_designated": true, "dac_combined_pct": 0.933, "dac_asthma_pct": 0.821, "uhf42_code": "301", "uhf42_name": "Washington Heights", "uhf42_asthma_ed_pm25_children": 62.0, "uhf42_asthma_ed_children": 153.7, "uhf42_poverty_pct": 18.7, "uhf42_pm25_2024": 6.67}}, {"type": "Feature", "geometry": {"type": "Point", "coordinates": [-73.80908, 40.690155]}, "properties": {"id": "aq_36081NY07615", "site_id": "36081NY07615", "name": "Van Wyck", "layer": "aq_monitor", "approx": false, "address": "Northbound Van Wyck Expy access road between 106th Ave and 142nd St", "role": "control", "crz_status": "outside", "active_from": "2024-02-22", "active_to": "2026-09-21", "relocated": false, "periods": {"pre_2024": {"mean": 7.27, "median": 6.0, "days": 256, "coverage_pct": 70.7, "peak_mean": 7.36, "overnight_mean": 7.06, "smoke_days_excluded": 0, "hourly_weekday": [7.17, 7.18, 7.28, 7.48, 7.52, 7.75, 7.96, 8.13, 8.08, 7.96, 8.08, 8.14, 7.99, 7.78, 7.47, 7.1, 7.03, 6.92, 6.99, 7.07, 7.0, 7.05, 7.0, 6.98], "hourly_weekend": [6.89, 6.75, 6.45, 6.51, 6.47, 6.55, 6.63, 6.84, 6.71, 6.73, 6.41, 6.56, 6.6, 6.67, 6.4, 6.45, 6.25, 6.33, 6.57, 7.09, 7.01, 7.24, 7.3, 7.41]}, "post_2025": {"mean": 6.54, "median": 5.5, "days": 357, "coverage_pct": 98.9, "peak_mean": 6.56, "overnight_mean": 6.51, "smoke_days_excluded": 0, "hourly_weekday": [6.32, 6.21, 6.23, 6.24, 6.3, 6.48, 6.82, 7.08, 7.14, 7.05, 7.15, 7.23, 6.66, 6.57, 6.35, 6.13, 5.96, 5.81, 5.72, 5.75, 6.14, 6.28, 6.4, 6.4], "hourly_weekend": [6.97, 6.98, 6.93, 6.86, 6.83, 6.78, 6.78, 6.86, 6.96, 7.0, 7.22, 7.2, 6.83, 6.95, 6.87, 6.72, 6.68, 6.42, 6.28, 6.37, 6.63, 6.76, 6.8, 6.76]}, "post_2026_ytd": {"mean": 7.04, "median": 6.56, "days": 219, "coverage_pct": 90.1, "peak_mean": 7.05, "overnight_mean": 7.01, "smoke_days_excluded": 4, "hourly_weekday": [6.58, 6.63, 6.64, 6.73, 6.8, 7.17, 7.41, 7.67, 7.46, 7.37, 7.51, 7.41, 7.08, 7.2, 7.16, 7.04, 6.98, 6.99, 6.95, 6.88, 6.94, 7.03, 7.17, 6.97], "hourly_weekend": [7.97, 7.85, 7.65, 7.71, 7.41, 7.03, 6.96, 7.23, 7.15, 7.22, 6.99, 6.89, 6.67, 6.73, 6.71, 6.56, 6.16, 6.07, 6.06, 6.1, 6.52, 7.21, 7.01, 6.65]}, "ytd_2024": {"mean": 8.34, "median": 7.36, "days": 163, "coverage_pct": 67.9, "peak_mean": 8.48, "overnight_mean": 8.01, "smoke_days_excluded": 0, "hourly_weekday": [8.13, 8.17, 8.31, 8.56, 8.7, 8.96, 9.19, 9.31, 9.35, 9.36, 9.78, 9.97, 9.45, 9.13, 8.68, 8.17, 8.12, 7.87, 7.8, 7.73, 7.9, 7.9, 7.96, 7.9], "hourly_weekend": [7.98, 7.72, 7.27, 7.46, 7.45, 7.46, 7.55, 7.62, 7.31, 7.51, 7.29, 7.63, 7.38, 7.54, 7.2, 7.19, 7.06, 7.02, 7.21, 7.77, 7.73, 8.01, 8.13, 8.2]}, "ytd_2025": {"mean": 7.03, "median": 6.04, "days": 239, "coverage_pct": 100.0, "peak_mean": 7.12, "overnight_mean": 6.9, "smoke_days_excluded": 0, "hourly_weekday": [6.84, 6.69, 6.76, 6.82, 6.91, 7.13, 7.55, 7.8, 7.83, 7.78, 7.93, 8.01, 7.42, 7.3, 6.98, 6.74, 6.51, 6.24, 6.09, 6.07, 6.49, 6.7, 6.94, 6.94], "hourly_weekend": [7.28, 7.23, 7.12, 6.92, 6.93, 6.97, 6.95, 7.07, 7.05, 7.23, 7.6, 7.56, 7.27, 7.47, 7.3, 7.12, 7.17, 6.83, 6.56, 6.61, 6.7, 6.86, 6.9, 6.95]}}, "comparisons": {"post_2025_vs_pre_2024": {"months_used": ["03", "04", "05", "06", "08", "09", "10", "12"], "pre_mean": 7.25, "post_mean": 6.34, "delta_raw": -0.91, "pct_raw": -12.6, "delta_adj_control": null, "control_site": "Van Wyck", "delta_adj_reference": -0.8, "reference_site": "Queens College", "ci_low": -1.49, "ci_high": -0.3, "coverage_ok": true, "classification": "improved", "delta_adj_reference_months": ["03", "04", "08", "09"], "raw_class": "improved", "adj_class": "insufficient", "relative_to_control": null, "basis": "raw_only", "significant": true}, "post_2026ytd_vs_ytd_2025": {"months_used": ["01", "02", "03", "04", "05", "06", "07", "08"], "pre_mean": 7.03, "post_mean": 7.04, "delta_raw": 0.01, "pct_raw": 0.1, "delta_adj_control": null, "control_site": "Van Wyck", "delta_adj_reference": 0.94, "reference_site": "Queens College", "ci_low": -0.63, "ci_high": 0.61, "coverage_ok": true, "classification": "unchanged", "delta_adj_reference_months": ["04", "05", "07", "08"], "raw_class": "unchanged", "adj_class": "insufficient", "relative_to_control": null, "basis": "raw_only", "significant": false}, "post_2026ytd_vs_ytd_2024": {"months_used": ["03", "04", "05", "06", "08"], "pre_mean": 8.3, "post_mean": 6.64, "delta_raw": -1.65, "pct_raw": -19.9, "delta_adj_control": null, "control_site": "Van Wyck", "delta_adj_reference": null, "reference_site": "Queens College", "ci_low": -2.47, "ci_high": -0.88, "coverage_ok": true, "classification": "improved", "raw_class": "improved", "adj_class": "insufficient", "relative_to_control": null, "basis": "raw_only", "significant": true}}, "classification": "improved", "classification_basis": "post_2025_vs_pre_2024", "dac_designated": true, "dac_combined_pct": 0.747, "dac_asthma_pct": 0.893, "uhf42_code": "408", "uhf42_name": "Jamaica", "uhf42_asthma_ed_pm25_children": 59.0, "uhf42_asthma_ed_children": 139.3, "uhf42_poverty_pct": 12.7, "uhf42_pm25_2024": 5.78}}, {"type": "Feature", "geometry": {"type": "Point", "coordinates": [-73.88626892, 40.70574257]}, "properties": {"id": "aq_36081NY08198", "site_id": "36081NY08198", "name": "Glendale", "layer": "aq_monitor", "approx": false, "address": "Otto Road and 68th Street - CURES", "role": "site", "crz_status": "outside", "active_from": "2023-10-26", "active_to": "2025-10-13", "relocated": true, "periods": {"pre_2024": {"mean": 7.44, "median": 6.32, "days": 107, "coverage_pct": 29.6, "peak_mean": 7.62, "overnight_mean": 7.08, "smoke_days_excluded": 0, "hourly_weekday": [7.9, 7.61, 7.5, 7.51, 7.63, 7.6, 7.83, 8.18, 8.65, 9.39, 9.6, 10.41, 8.92, 7.85, 7.68, 7.13, 7.61, 7.33, 6.92, 6.81, 7.43, 7.4, 7.38, 7.4], "hourly_weekend": [6.69, 6.25, 5.76, 5.95, 6.09, 6.16, 6.09, 6.11, 5.77, 6.23, 7.24, 7.87, 6.11, 5.72, 5.71, 5.19, 5.63, 5.65, 5.72, 5.85, 6.45, 7.29, 6.81, 7.04]}, "post_2025": {"mean": 6.81, "median": 4.9, "days": 81, "coverage_pct": 22.4, "peak_mean": 7.14, "overnight_mean": 6.44, "smoke_days_excluded": 0, "hourly_weekday": [5.92, 6.01, 5.88, 5.75, 5.98, 6.13, 6.44, 7.0, 7.0, 7.08, 7.54, 8.02, 7.06, 7.28, 7.2, 7.07, 6.34, 6.1, 5.82, 5.5, 6.4, 6.18, 5.99, 5.85], "hourly_weekend": [7.1, 7.16, 7.06, 7.01, 7.31, 7.45, 7.3, 7.42, 7.99, 8.66, 9.38, 9.79, 8.81, 9.45, 9.57, 9.14, 8.32, 7.55, 6.86, 6.31, 7.08, 7.12, 7.13, 6.89]}, "post_2026_ytd": null, "ytd_2024": {"mean": 7.44, "median": 6.32, "days": 107, "coverage_pct": 44.6, "peak_mean": 7.62, "overnight_mean": 7.08, "smoke_days_excluded": 0, "hourly_weekday": [7.9, 7.61, 7.5, 7.51, 7.63, 7.6, 7.83, 8.18, 8.65, 9.39, 9.6, 10.41, 8.92, 7.85, 7.68, 7.13, 7.61, 7.33, 6.92, 6.81, 7.43, 7.4, 7.38, 7.4], "hourly_weekend": [6.69, 6.25, 5.76, 5.95, 6.09, 6.16, 6.09, 6.11, 5.77, 6.23, 7.24, 7.87, 6.11, 5.72, 5.71, 5.19, 5.63, 5.65, 5.72, 5.85, 6.45, 7.29, 6.81, 7.04]}, "ytd_2025": {"mean": 8.25, "median": 4.93, "days": 39, "coverage_pct": 16.3, "peak_mean": 8.78, "overnight_mean": 7.63, "smoke_days_excluded": 0, "hourly_weekday": [7.09, 7.08, 6.96, 6.83, 7.07, 7.36, 7.61, 8.11, 8.31, 8.44, 8.9, 9.71, 8.89, 9.12, 9.04, 8.85, 8.05, 7.82, 7.56, 6.87, 7.79, 7.51, 7.21, 7.01], "hourly_weekend": [8.55, 8.44, 8.29, 8.22, 8.54, 8.62, 8.42, 8.68, 9.16, 10.01, 11.37, 11.86, 10.9, 11.9, 12.22, 11.31, 10.54, 9.73, 8.71, 7.59, 8.31, 8.35, 8.26, 8.06]}}, "comparisons": {"post_2025_vs_pre_2024": {"months_used": [], "pre_mean": null, "post_mean": null, "delta_raw": null, "pct_raw": null, "delta_adj_control": null, "control_site": "Van Wyck", "delta_adj_reference": null, "reference_site": "Queens College", "ci_low": null, "ci_high": null, "coverage_ok": false, "classification": "insufficient"}, "post_2026ytd_vs_ytd_2025": {"months_used": [], "pre_mean": null, "post_mean": null, "delta_raw": null, "pct_raw": null, "delta_adj_control": null, "control_site": "Van Wyck", "delta_adj_reference": null, "reference_site": "Queens College", "ci_low": null, "ci_high": null, "coverage_ok": false, "classification": "insufficient"}, "post_2026ytd_vs_ytd_2024": {"months_used": [], "pre_mean": null, "post_mean": null, "delta_raw": null, "pct_raw": null, "delta_adj_control": null, "control_site": "Van Wyck", "delta_adj_reference": null, "reference_site": "Queens College", "ci_low": null, "ci_high": null, "coverage_ok": false, "classification": "insufficient"}}, "classification": "insufficient", "classification_basis": "post_2026ytd_vs_ytd_2024", "dac_designated": false, "dac_combined_pct": 0.612, "dac_asthma_pct": 0.556, "uhf42_code": "405", "uhf42_name": "Ridgewood - Forest Hills", "uhf42_asthma_ed_pm25_children": 24.0, "uhf42_asthma_ed_children": 51.2, "uhf42_poverty_pct": 10.3, "uhf42_pm25_2024": 6.23}}, {"type": "Feature", "geometry": {"type": "Point", "coordinates": [-73.821556, 40.737107]}, "properties": {"id": "aq_36081NY09285", "site_id": "36081NY09285", "name": "Queens College", "layer": "aq_monitor", "approx": false, "address": "Queens College Reference Site", "role": "reference", "crz_status": "outside", "active_from": "2019-05-07", "active_to": "2026-09-21", "relocated": false, "periods": {"pre_2024": {"mean": 6.43, "median": 5.4, "days": 262, "coverage_pct": 72.4, "peak_mean": 6.55, "overnight_mean": 6.23, "smoke_days_excluded": 0, "hourly_weekday": [6.25, 6.2, 6.3, 6.17, 6.23, 6.4, 6.46, 6.8, 7.18, 7.35, 7.33, 7.32, 6.95, 6.75, 6.66, 6.46, 6.1, 5.99, 5.98, 6.11, 6.54, 6.61, 6.61, 6.52], "hourly_weekend": [6.17, 6.26, 6.66, 5.65, 5.62, 5.82, 5.96, 6.01, 6.28, 6.42, 6.48, 6.33, 5.97, 6.13, 6.44, 6.52, 6.61, 6.38, 5.83, 5.65, 5.87, 5.94, 5.84, 5.91]}, "post_2025": {"mean": 6.71, "median": 5.5, "days": 308, "coverage_pct": 85.3, "peak_mean": 6.76, "overnight_mean": 6.74, "smoke_days_excluded": 0, "hourly_weekday": [6.53, 6.5, 6.49, 6.36, 6.47, 6.7, 6.92, 7.82, 7.1, 6.89, 6.85, 6.79, 6.81, 6.69, 6.5, 6.31, 6.19, 6.13, 6.19, 6.25, 6.38, 6.5, 6.59, 6.65], "hourly_weekend": [7.37, 7.39, 7.22, 7.04, 7.0, 6.91, 6.89, 6.94, 7.08, 7.0, 7.06, 7.1, 7.16, 7.24, 7.34, 7.21, 7.08, 7.05, 6.98, 6.94, 7.01, 7.12, 7.21, 7.06]}, "post_2026_ytd": {"mean": 6.05, "median": 5.51, "days": 130, "coverage_pct": 53.5, "peak_mean": 6.06, "overnight_mean": 5.96, "smoke_days_excluded": 4, "hourly_weekday": [5.98, 5.9, 5.85, 5.78, 5.72, 5.9, 6.19, 6.42, 6.48, 6.62, 6.8, 7.02, 6.14, 6.2, 6.16, 6.04, 5.82, 5.58, 5.3, 5.16, 5.83, 5.84, 5.82, 6.02], "hourly_weekend": [6.07, 6.08, 6.1, 6.05, 5.95, 5.99, 6.28, 6.42, 6.25, 6.31, 6.42, 6.44, 6.04, 6.07, 6.05, 6.16, 5.69, 5.36, 5.24, 5.19, 5.87, 6.08, 6.24, 6.09]}, "ytd_2024": {"mean": 6.97, "median": 5.71, "days": 156, "coverage_pct": 65.0, "peak_mean": 7.13, "overnight_mean": 6.76, "smoke_days_excluded": 0, "hourly_weekday": [6.84, 6.79, 6.75, 6.76, 6.82, 6.93, 6.94, 7.37, 7.81, 8.3, 8.55, 8.48, 7.87, 7.62, 7.55, 7.29, 6.83, 6.6, 6.4, 6.52, 7.04, 7.17, 7.28, 7.21], "hourly_weekend": [6.85, 6.64, 6.62, 6.16, 6.23, 6.29, 6.39, 6.56, 6.78, 7.04, 7.35, 7.2, 6.62, 6.47, 6.43, 6.21, 5.93, 5.58, 5.38, 5.5, 5.89, 6.1, 6.23, 6.38]}, "ytd_2025": {"mean": 6.92, "median": 5.64, "days": 239, "coverage_pct": 100.0, "peak_mean": 6.95, "overnight_mean": 6.86, "smoke_days_excluded": 0, "hourly_weekday": [6.77, 6.74, 6.74, 6.61, 6.76, 7.03, 7.22, 7.43, 7.46, 7.23, 7.2, 7.12, 7.2, 7.06, 6.8, 6.55, 6.44, 6.32, 6.33, 6.35, 6.5, 6.65, 6.77, 6.89], "hourly_weekend": [7.35, 7.34, 7.09, 6.86, 6.82, 6.92, 6.89, 6.95, 6.93, 6.97, 7.13, 7.2, 7.25, 7.36, 7.39, 7.29, 7.19, 7.19, 7.0, 7.0, 7.0, 7.1, 7.21, 7.18]}}, "comparisons": {"post_2025_vs_pre_2024": {"months_used": ["01", "02", "03", "04", "08", "09"], "pre_mean": 6.44, "post_mean": 6.0, "delta_raw": -0.44, "pct_raw": -6.8, "delta_adj_control": 0.8, "control_site": "Van Wyck", "delta_adj_reference": null, "reference_site": "Queens College", "ci_low": -1.06, "ci_high": 0.14, "coverage_ok": true, "classification": "unchanged", "delta_adj_control_months": ["03", "04", "08", "09"], "control_pre_mean": 7.23, "control_post_mean": 6.15, "site_delta_on_control_months": -0.28, "raw_class": "unchanged", "adj_class": "worsened", "relative_to_control": "lagged control", "basis": "raw_and_control_adjusted", "significant": false}, "post_2026ytd_vs_ytd_2025": {"months_used": ["04", "05", "07", "08"], "pre_mean": 7.06, "post_mean": 6.02, "delta_raw": -1.04, "pct_raw": -14.7, "delta_adj_control": -0.94, "control_site": "Van Wyck", "delta_adj_reference": null, "reference_site": "Queens College", "ci_low": -1.9, "ci_high": -0.12, "coverage_ok": true, "classification": "improved", "delta_adj_control_months": ["04", "05", "07", "08"], "control_pre_mean": 7.07, "control_post_mean": 6.97, "site_delta_on_control_months": -1.04, "raw_class": "improved", "adj_class": "improved", "relative_to_control": "beat control", "basis": "raw_and_control_adjusted", "significant": true}, "post_2026ytd_vs_ytd_2024": {"months_used": ["04", "08"], "pre_mean": null, "post_mean": null, "delta_raw": null, "pct_raw": null, "delta_adj_control": null, "control_site": "Van Wyck", "delta_adj_reference": null, "reference_site": "Queens College", "ci_low": null, "ci_high": null, "coverage_ok": false, "classification": "insufficient"}}, "classification": "unchanged", "classification_basis": "post_2025_vs_pre_2024", "dac_designated": false, "dac_combined_pct": 0.59, "dac_asthma_pct": 0.462, "uhf42_code": "406", "uhf42_name": "Fresh Meadows", "uhf42_asthma_ed_pm25_children": 34.0, "uhf42_asthma_ed_children": 76.3, "uhf42_poverty_pct": 11.5, "uhf42_pm25_2024": 5.57}}, {"type": "Feature", "geometry": {"type": "Point", "coordinates": [-74.151182, 40.609209]}, "properties": {"id": "aq_36085NY03820", "site_id": "36085NY03820", "name": "SI Expwy", "layer": "aq_monitor", "approx": false, "address": "South side of Victory Blvd between Gannon Ave S and I-278 (in front of staging area)", "role": "site", "crz_status": "outside", "active_from": "2024-08-13", "active_to": "2026-09-21", "relocated": false, "periods": {"pre_2024": {"mean": 6.97, "median": 5.7, "days": 121, "coverage_pct": 33.4, "peak_mean": 6.82, "overnight_mean": 7.18, "smoke_days_excluded": 0, "hourly_weekday": [7.09, 6.98, 7.04, 7.26, 7.41, 7.96, 8.56, 9.15, 9.25, 8.21, 7.08, 6.29, 6.28, 5.92, 5.71, 5.75, 5.87, 6.08, 6.39, 6.52, 6.43, 6.66, 6.67, 6.82], "hourly_weekend": [7.17, 7.1, 7.19, 7.21, 7.34, 7.56, 7.81, 8.25, 8.87, 8.16, 7.13, 6.3, 5.99, 5.7, 5.59, 5.62, 5.71, 5.94, 6.5, 6.56, 6.56, 7.01, 7.1, 7.62]}, "post_2025": {"mean": 8.21, "median": 6.66, "days": 342, "coverage_pct": 94.7, "peak_mean": 8.03, "overnight_mean": 8.52, "smoke_days_excluded": 0, "hourly_weekday": [8.17, 8.02, 8.26, 8.03, 8.29, 8.9, 9.28, 9.55, 9.65, 9.11, 8.21, 7.75, 7.72, 7.47, 7.17, 7.05, 7.16, 7.15, 7.29, 7.41, 7.53, 7.83, 8.01, 8.21], "hourly_weekend": [9.51, 9.41, 9.36, 9.17, 9.05, 9.19, 9.53, 9.44, 9.16, 8.79, 8.45, 7.88, 7.99, 8.04, 8.03, 8.09, 7.95, 7.9, 7.59, 7.94, 8.23, 8.53, 8.92, 9.27]}, "post_2026_ytd": {"mean": 8.0, "median": 7.25, "days": 219, "coverage_pct": 90.1, "peak_mean": 7.92, "overnight_mean": 8.02, "smoke_days_excluded": 4, "hourly_weekday": [7.35, 7.28, 7.34, 7.35, 7.54, 7.97, 8.37, 8.8, 8.85, 8.54, 8.12, 7.7, 7.44, 7.34, 7.43, 7.45, 7.62, 7.6, 7.74, 7.83, 7.75, 7.84, 7.79, 7.6], "hourly_weekend": [8.87, 8.9, 8.72, 9.05, 9.23, 9.2, 9.1, 9.56, 9.57, 9.44, 8.97, 8.51, 8.46, 8.22, 7.69, 7.32, 7.15, 7.2, 7.28, 7.56, 7.48, 8.03, 8.3, 7.95]}, "ytd_2024": {"mean": 9.77, "median": 8.78, "days": 19, "coverage_pct": 7.9, "peak_mean": 9.35, "overnight_mean": 10.22, "smoke_days_excluded": 0, "hourly_weekday": [7.85, 8.31, 8.55, 8.96, 9.04, 9.83, 10.46, 11.45, 11.13, 9.99, 9.31, 8.82, 8.9, 8.61, 8.39, 7.95, 7.53, 7.22, 7.16, 7.51, 7.68, 7.68, 7.79, 7.96], "hourly_weekend": [12.63, 13.19, 14.3, 14.54, 15.44, 16.23, 16.43, 15.96, 15.59, 13.26, 12.19, 11.18, 10.49, 10.65, 11.33, 11.55, 11.53, 11.45, 12.22, 10.62, 9.29, 12.15, 10.55, 10.81]}, "ytd_2025": {"mean": 8.62, "median": 7.48, "days": 230, "coverage_pct": 96.2, "peak_mean": 8.49, "overnight_mean": 8.87, "smoke_days_excluded": 0, "hourly_weekday": [8.7, 8.58, 8.77, 8.62, 8.94, 9.68, 10.01, 10.13, 10.31, 9.71, 8.89, 8.42, 8.32, 7.98, 7.66, 7.58, 7.78, 7.65, 7.76, 7.92, 7.96, 8.36, 8.67, 8.96], "hourly_weekend": [9.82, 9.62, 9.5, 9.22, 8.98, 9.16, 9.55, 9.28, 8.78, 8.48, 8.31, 7.79, 8.17, 8.17, 8.18, 8.36, 8.18, 8.01, 7.46, 7.89, 8.09, 8.35, 8.7, 8.8]}}, "comparisons": {"post_2025_vs_pre_2024": {"months_used": ["08", "10", "11", "12"], "pre_mean": 7.11, "post_mean": 8.0, "delta_raw": 0.89, "pct_raw": 12.4, "delta_adj_control": 1.12, "control_site": "Van Wyck", "delta_adj_reference": null, "reference_site": "Queens College", "ci_low": -0.27, "ci_high": 2.04, "coverage_ok": true, "classification": "worsened", "delta_adj_control_months": ["08", "10", "12"], "control_pre_mean": 6.9, "control_post_mean": 6.13, "site_delta_on_control_months": 0.35, "raw_class": "worsened", "adj_class": "worsened", "relative_to_control": "lagged control", "basis": "raw_and_control_adjusted", "significant": false}, "post_2026ytd_vs_ytd_2025": {"months_used": ["02", "03", "04", "05", "06", "07", "08"], "pre_mean": 8.74, "post_mean": 7.93, "delta_raw": -0.81, "pct_raw": -9.3, "delta_adj_control": -0.88, "control_site": "Van Wyck", "delta_adj_reference": -0.53, "reference_site": "Queens College", "ci_low": -1.73, "ci_high": 0.12, "coverage_ok": true, "classification": "improved", "delta_adj_control_months": ["02", "03", "04", "05", "06", "07", "08"], "control_pre_mean": 7.05, "control_post_mean": 7.11, "site_delta_on_control_months": -0.81, "delta_adj_reference_months": ["04", "05", "07", "08"], "raw_class": "improved", "adj_class": "improved", "relative_to_control": "beat control", "basis": "raw_and_control_adjusted", "significant": false}, "post_2026ytd_vs_ytd_2024": {"months_used": ["08"], "pre_mean": null, "post_mean": null, "delta_raw": null, "pct_raw": null, "delta_adj_control": null, "control_site": "Van Wyck", "delta_adj_reference": null, "reference_site": "Queens College", "ci_low": null, "ci_high": null, "coverage_ok": false, "classification": "insufficient"}}, "classification": "worsened", "classification_basis": "post_2025_vs_pre_2024", "dac_designated": false, "dac_combined_pct": 0.547, "dac_asthma_pct": 0.505, "uhf42_code": "503", "uhf42_name": "Willowbrook", "uhf42_asthma_ed_pm25_children": 15.0, "uhf42_asthma_ed_children": 29.2, "uhf42_poverty_pct": 10.1, "uhf42_pm25_2024": 6.02}}, {"type": "Feature", "geometry": {"type": "Point", "coordinates": [-74.145883, 40.627925]}, "properties": {"id": "aq_36085NY04805", "site_id": "36085NY04805", "name": "Port Richmond", "layer": "aq_monitor", "approx": false, "address": "East side of Willow Rd W between St. Adalbert Pl S and Dixon Ave", "role": "site", "crz_status": "outside", "active_from": "2024-05-21", "active_to": "2024-08-03", "relocated": false, "periods": {"pre_2024": {"mean": 11.68, "median": 10.09, "days": 74, "coverage_pct": 20.4, "peak_mean": 10.93, "overnight_mean": 12.8, "smoke_days_excluded": 0, "hourly_weekday": [12.34, 12.46, 12.54, 11.73, 12.39, 12.68, 13.07, 12.88, 12.72, 11.9, 11.25, 10.95, 10.82, 10.23, 9.95, 9.81, 9.96, 10.21, 10.31, 10.41, 10.86, 14.08, 14.66, 13.35], "hourly_weekend": [13.41, 12.71, 12.16, 12.19, 11.75, 12.05, 11.85, 11.22, 10.56, 9.79, 10.18, 10.35, 10.6, 10.06, 9.32, 9.42, 9.22, 9.65, 10.52, 11.83, 11.91, 13.56, 14.32, 14.83]}, "post_2025": null, "post_2026_ytd": null, "ytd_2024": {"mean": 11.68, "median": 10.09, "days": 74, "coverage_pct": 30.8, "peak_mean": 10.93, "overnight_mean": 12.8, "smoke_days_excluded": 0, "hourly_weekday": [12.34, 12.46, 12.54, 11.73, 12.39, 12.68, 13.07, 12.88, 12.72, 11.9, 11.25, 10.95, 10.82, 10.23, 9.95, 9.81, 9.96, 10.21, 10.31, 10.41, 10.86, 14.08, 14.66, 13.35], "hourly_weekend": [13.41, 12.71, 12.16, 12.19, 11.75, 12.05, 11.85, 11.22, 10.56, 9.79, 10.18, 10.35, 10.6, 10.06, 9.32, 9.42, 9.22, 9.65, 10.52, 11.83, 11.91, 13.56, 14.32, 14.83]}, "ytd_2025": null}, "comparisons": {"post_2025_vs_pre_2024": {"months_used": [], "pre_mean": null, "post_mean": null, "delta_raw": null, "pct_raw": null, "delta_adj_control": null, "control_site": "Van Wyck", "delta_adj_reference": null, "reference_site": "Queens College", "ci_low": null, "ci_high": null, "coverage_ok": false, "classification": "insufficient"}, "post_2026ytd_vs_ytd_2025": {"months_used": [], "pre_mean": null, "post_mean": null, "delta_raw": null, "pct_raw": null, "delta_adj_control": null, "control_site": "Van Wyck", "delta_adj_reference": null, "reference_site": "Queens College", "ci_low": null, "ci_high": null, "coverage_ok": false, "classification": "insufficient"}, "post_2026ytd_vs_ytd_2024": {"months_used": [], "pre_mean": null, "post_mean": null, "delta_raw": null, "pct_raw": null, "delta_adj_control": null, "control_site": "Van Wyck", "delta_adj_reference": null, "reference_site": "Queens College", "ci_low": null, "ci_high": null, "coverage_ok": false, "classification": "insufficient"}}, "classification": "insufficient", "classification_basis": "post_2026ytd_vs_ytd_2024", "dac_designated": true, "dac_combined_pct": 0.847, "dac_asthma_pct": 0.797, "uhf42_code": "501", "uhf42_name": "Port Richmond", "uhf42_asthma_ed_pm25_children": 58.0, "uhf42_asthma_ed_children": 101.8, "uhf42_poverty_pct": 17.1, "uhf42_pm25_2024": 6.4}}]}