{"type": "FeatureCollection", "features": [{"type": "Feature", "geometry": {"type": "Point", "coordinates": [-73.8292, 40.8012]}, "properties": {"id": "whitestone", "name": "Bronx - Whitestone Bridge", "layer": "bt_facility", "approx": true, "role": "Bronx-Queens bypass (Hutchinson River Pkwy / Cross Bronx corridor)", "directions": ["Northbound to Bronx", "Southbound to Queens"], "periods": {"pre_2023": {"total": 50354696, "days": 365, "avg_daily": 137958, "avg_weekday": 138036, "avg_weekend": 137764, "trucks_total": 2345894, "trucks_avg_daily": 6427, "truck_share": 0.0466, "peak_share": 0.7951, "hourly_weekday": [2326, 1489, 1176, 1306, 2344, 5175, 7382, 7775, 7950, 6972, 6606, 6487, 6623, 7352, 8132, 8543, 8561, 8246, 7791, 7012, 5858, 5192, 4317, 3423], "hourly_weekend": [3539, 2438, 1839, 1714, 2118, 2771, 3546, 4578, 5623, 6659, 7273, 7771, 7883, 8049, 8159, 8264, 8294, 8179, 7930, 7544, 6902, 6346, 5669, 4678]}, "pre_2024": {"total": 49406200, "days": 362, "avg_daily": 136481, "avg_weekday": 135814, "avg_weekend": 138137, "trucks_total": 2469245, "trucks_avg_daily": 6821, "truck_share": 0.05, "peak_share": 0.7888, "hourly_weekday": [2386, 1511, 1173, 1332, 2467, 5333, 7293, 7408, 7462, 6856, 6487, 6412, 6562, 7074, 7837, 8345, 8368, 8024, 7559, 6879, 5826, 5227, 4524, 3470], "hourly_weekend": [3508, 2387, 1753, 1687, 2153, 2895, 3782, 4819, 5814, 6761, 7270, 7694, 7847, 7982, 8059, 8131, 8118, 8010, 7893, 7588, 7000, 6505, 5770, 4711]}, "post_2025": {"total": 50223350, "days": 361, "avg_daily": 139123, "avg_weekday": 139787, "avg_weekend": 137460, "trucks_total": 2539023, "trucks_avg_daily": 7033, "truck_share": 0.0506, "peak_share": 0.7836, "hourly_weekday": [2605, 1631, 1303, 1452, 2689, 5518, 7472, 7736, 7830, 7181, 6806, 6622, 6757, 7286, 7934, 8354, 8377, 7985, 7601, 6828, 5808, 5372, 4841, 3799], "hourly_weekend": [3697, 2529, 1883, 1784, 2270, 3021, 3891, 4822, 5742, 6591, 7118, 7568, 7725, 7942, 8027, 8147, 8170, 7964, 7758, 7395, 6858, 6292, 5661, 4606]}, "post_2026_ytd": {"total": 33203015, "days": 243, "avg_daily": 136638, "avg_weekday": 138135, "avg_weekend": 132938, "trucks_total": 1662072, "trucks_avg_daily": 6840, "truck_share": 0.0501, "peak_share": 0.7866, "hourly_weekday": [2502, 1617, 1315, 1459, 2613, 5345, 7431, 7661, 7743, 7262, 6997, 6906, 7059, 7403, 7791, 8182, 8142, 7840, 7417, 6646, 5596, 5146, 4545, 3519], "hourly_weekend": [3750, 2578, 1919, 1825, 2291, 3026, 3822, 4572, 5441, 6261, 6848, 7307, 7463, 7615, 7709, 7826, 7791, 7730, 7520, 7215, 6572, 5954, 5366, 4536]}, "ytd_2024": {"total": 32720598, "days": 240, "avg_daily": 136336, "avg_weekday": 135823, "avg_weekend": 137607, "trucks_total": 1626253, "trucks_avg_daily": 6776, "truck_share": 0.0497, "peak_share": 0.7889, "hourly_weekday": [2367, 1517, 1190, 1339, 2442, 5348, 7333, 7524, 7534, 6846, 6459, 6411, 6563, 7094, 7798, 8319, 8396, 8049, 7554, 6818, 5759, 5222, 4486, 3455], "hourly_weekend": [3538, 2388, 1764, 1696, 2142, 2909, 3825, 4804, 5790, 6698, 7202, 7644, 7804, 7955, 8021, 8054, 8073, 7976, 7849, 7526, 6909, 6480, 5804, 4757]}, "ytd_2025": {"total": 33344160, "days": 239, "avg_daily": 139515, "avg_weekday": 140000, "avg_weekend": 138321, "trucks_total": 1685492, "trucks_avg_daily": 7052, "truck_share": 0.0505, "peak_share": 0.7824, "hourly_weekday": [2641, 1656, 1315, 1471, 2708, 5575, 7552, 7832, 7895, 7232, 6728, 6556, 6689, 7221, 7918, 8373, 8412, 8042, 7641, 6835, 5778, 5312, 4784, 3835], "hourly_weekend": [3744, 2552, 1891, 1814, 2295, 3059, 3918, 4853, 5765, 6640, 7152, 7590, 7759, 7998, 8076, 8181, 8228, 7998, 7734, 7377, 6851, 6356, 5781, 4706]}}, "change": {"pct_2025_vs_2024": 1.9, "pct_2025_vs_2023": 0.8, "pct_2026ytd_vs_2025ytd": -2.1, "pct_2026ytd_vs_2024ytd": 0.2, "trucks_pct_2025_vs_2024": 3.1, "trucks_pct_2026ytd_vs_2024ytd": 0.9, "peak_share_delta_2025_vs_2024": -0.0052}, "by_direction": {"Northbound to Bronx": {"avg_daily_2024": 66048, "avg_daily_2025": 66313, "pct_2025_vs_2024": 0.4, "trucks_pct_2025_vs_2024": 2.3}, "Southbound to Queens": {"avg_daily_2024": 70433, "avg_daily_2025": 72810, "pct_2025_vs_2024": 3.4, "trucks_pct_2025_vs_2024": 3.8}}, "dac_designated": false, "dac_combined_pct": 0.597, "dac_asthma_pct": 0.209, "uhf42_code": null, "uhf42_name": null, "uhf42_asthma_ed_pm25_children": null, "uhf42_asthma_ed_children": null, "uhf42_poverty_pct": null, "uhf42_pm25_2024": null, "evidence": {"mta_facility_id": 23, "source": "second_pipeline/full_year_2024_2025_traffic.csv", "full_year": {"frame": "Jan 5–Dec 31, 2024 vs 2025", "pre_mean": 136254, "post_mean": 138846, "pct": 1.9, "ci_low": 1.2, "ci_high": 2.65, "status": "increase", "interval_method": "95% seven-day cluster exponential-weight bootstrap; 200 draws", "matched_days_2024": 359, "matched_days_2025": 359, "complete_days_2024": 359, "complete_days_2025": 359, "expected_days": 361, "matched_weekdays": ["Mon", "Tue", "Wed", "Thu", "Fri", "Sat", "Sun"], "coverage_status": "at least 75% of month-weekday strata", "peak": {"am": {"pct": 4.73, "ci_low": 3.11, "ci_high": 6.36, "status": "increase", "n_2024": 257, "n_2025": 258}, "pm": {"pct": 0.08, "ci_low": -0.69, "ci_high": 0.86, "status": "uncertain", "n_2024": 257, "n_2025": 258}, "other": {"pct": 1.78, "ci_low": 0.93, "ci_high": 2.52, "status": "increase", "n_2024": 359, "n_2025": 359}}, "peak_definition": "weekday AM 07:00–09:59 and PM 16:00–18:59 on complete days; other hours include weekends"}, "jan_aug": {"2025": {"pct": 2.3, "ci_low": 1.56, "ci_high": 3.17, "status": "increase", "months": ["01", "02", "03", "04", "05", "06", "07", "08"], "days_2024": 238, "days_2025": 238}, "2026": {"pct": 0.28, "ci_low": -1.29, "ci_high": 1.71, "status": "uncertain", "months": ["01", "02", "03", "04", "05", "06", "07", "08"], "days_2024": 238, "days_2026": 238}}, "persistence": "inconclusive", "full_vs_jan_aug": "weakened", "limitation": "crossing counts; no tracked rerouting; Named facility corridor; representative point on source road geometry, not toll-plaza/sensor coordinates. No allocation of facility totals to component road segments.", "geometry_note": "Named facility corridor; representative point on source road geometry, not toll-plaza/sensor coordinates. No allocation of facility totals to component road segments.", "unit": "standardized vehicles per complete supplied-direction day"}}}, {"type": "Feature", "geometry": {"type": "Point", "coordinates": [-73.8205, 40.5935]}, "properties": {"id": "cross_bay", "name": "Cross Bay Bridge", "layer": "bt_facility", "approx": true, "role": "Rockaways (far from the zone; quasi-control)", "directions": ["Northbound", "Southbound"], "periods": {"pre_2023": {"total": 7784093, "days": 365, "avg_daily": 21326, "avg_weekday": 22471, "avg_weekend": 18493, "trucks_total": 314127, "trucks_avg_daily": 861, "truck_share": 0.0404, "peak_share": 0.8485, "hourly_weekday": [265, 156, 116, 122, 259, 618, 1214, 1594, 1361, 1087, 1026, 1065, 1133, 1260, 1475, 1651, 1593, 1553, 1339, 1080, 851, 669, 545, 439], "hourly_weekend": [403, 272, 193, 158, 176, 252, 384, 539, 709, 889, 1026, 1138, 1234, 1280, 1299, 1303, 1270, 1228, 1130, 991, 838, 709, 596, 476]}, "pre_2024": {"total": 7698835, "days": 362, "avg_daily": 21268, "avg_weekday": 22313, "avg_weekend": 18675, "trucks_total": 302364, "trucks_avg_daily": 835, "truck_share": 0.0393, "peak_share": 0.847, "hourly_weekday": [266, 158, 120, 127, 265, 609, 1208, 1565, 1308, 1081, 1025, 1054, 1139, 1269, 1481, 1620, 1586, 1539, 1330, 1072, 839, 670, 547, 435], "hourly_weekend": [404, 264, 187, 160, 182, 258, 406, 556, 732, 900, 1015, 1146, 1244, 1292, 1302, 1320, 1305, 1248, 1140, 998, 838, 712, 589, 475]}, "post_2025": {"total": 7752576, "days": 361, "avg_daily": 21475, "avg_weekday": 22607, "avg_weekend": 18640, "trucks_total": 315494, "trucks_avg_daily": 874, "truck_share": 0.0407, "peak_share": 0.8479, "hourly_weekday": [261, 161, 126, 140, 254, 625, 1239, 1636, 1305, 1093, 1028, 1064, 1147, 1269, 1513, 1652, 1617, 1571, 1335, 1075, 841, 672, 548, 436], "hourly_weekend": [404, 272, 194, 166, 186, 264, 420, 541, 730, 896, 1014, 1139, 1234, 1276, 1300, 1304, 1288, 1249, 1141, 1002, 850, 711, 584, 477]}, "post_2026_ytd": {"total": 5067668, "days": 243, "avg_daily": 20855, "avg_weekday": 21780, "avg_weekend": 18568, "trucks_total": 156142, "trucks_avg_daily": 643, "truck_share": 0.0308, "peak_share": 0.8475, "hourly_weekday": [251, 155, 121, 137, 262, 573, 1132, 1505, 1249, 1070, 1011, 1044, 1119, 1238, 1461, 1592, 1564, 1522, 1296, 1054, 829, 657, 524, 414], "hourly_weekend": [391, 262, 187, 165, 184, 252, 384, 526, 709, 892, 1014, 1138, 1228, 1285, 1309, 1301, 1310, 1243, 1154, 1019, 866, 708, 578, 462]}, "ytd_2024": {"total": 5186198, "days": 240, "avg_daily": 21609, "avg_weekday": 22529, "avg_weekend": 19330, "trucks_total": 197999, "trucks_avg_daily": 825, "truck_share": 0.0382, "peak_share": 0.8467, "hourly_weekday": [269, 160, 122, 128, 267, 609, 1185, 1529, 1312, 1100, 1045, 1078, 1159, 1285, 1491, 1623, 1599, 1561, 1364, 1096, 858, 690, 557, 442], "hourly_weekend": [410, 262, 188, 163, 182, 262, 399, 558, 747, 920, 1046, 1183, 1277, 1347, 1351, 1363, 1364, 1311, 1205, 1048, 882, 751, 620, 491]}, "ytd_2025": {"total": 5307124, "days": 239, "avg_daily": 22206, "avg_weekday": 23274, "avg_weekend": 19573, "trucks_total": 222471, "trucks_avg_daily": 931, "truck_share": 0.0419, "peak_share": 0.8462, "hourly_weekday": [269, 170, 131, 143, 259, 647, 1258, 1641, 1325, 1122, 1061, 1103, 1187, 1309, 1541, 1679, 1663, 1631, 1392, 1123, 886, 710, 572, 452], "hourly_weekend": [420, 280, 201, 170, 193, 275, 435, 552, 754, 917, 1052, 1194, 1290, 1334, 1359, 1364, 1353, 1320, 1223, 1078, 918, 767, 619, 505]}}, "change": {"pct_2025_vs_2024": 1.0, "pct_2025_vs_2023": 0.7, "pct_2026ytd_vs_2025ytd": -6.1, "pct_2026ytd_vs_2024ytd": -3.5, "trucks_pct_2025_vs_2024": 4.7, "trucks_pct_2026ytd_vs_2024ytd": -22.1, "peak_share_delta_2025_vs_2024": 0.0009}, "by_direction": {"Northbound": {"avg_daily_2024": 11254, "avg_daily_2025": 11342, "pct_2025_vs_2024": 0.8, "trucks_pct_2025_vs_2024": 3.0}, "Southbound": {"avg_daily_2024": 10014, "avg_daily_2025": 10133, "pct_2025_vs_2024": 1.2, "trucks_pct_2025_vs_2024": 6.4}}, "dac_designated": false, "dac_combined_pct": 0.0, "dac_asthma_pct": null, "uhf42_code": null, "uhf42_name": null, "uhf42_asthma_ed_pm25_children": null, "uhf42_asthma_ed_children": null, "uhf42_poverty_pct": null, "uhf42_pm25_2024": null, "evidence": {"mta_facility_id": 26, "source": "second_pipeline/full_year_2024_2025_traffic.csv", "full_year": {"frame": "Jan 5–Dec 31, 2024 vs 2025", "pre_mean": 21249, "post_mean": 21433, "pct": 0.87, "ci_low": -0.58, "ci_high": 2.29, "status": "uncertain", "interval_method": "95% seven-day cluster exponential-weight bootstrap; 200 draws", "matched_days_2024": 359, "matched_days_2025": 359, "complete_days_2024": 359, "complete_days_2025": 359, "expected_days": 361, "matched_weekdays": ["Mon", "Tue", "Wed", "Thu", "Fri", "Sat", "Sun"], "coverage_status": "at least 75% of month-weekday strata", "peak": {"am": {"pct": 1.95, "ci_low": -0.49, "ci_high": 4.84, "status": "uncertain", "n_2024": 257, "n_2025": 258}, "pm": {"pct": 1.6, "ci_low": -0.46, "ci_high": 3.51, "status": "uncertain", "n_2024": 257, "n_2025": 258}, "other": {"pct": 0.52, "ci_low": -0.97, "ci_high": 2.12, "status": "uncertain", "n_2024": 359, "n_2025": 359}}, "peak_definition": "weekday AM 07:00–09:59 and PM 16:00–18:59 on complete days; other hours include weekends"}, "jan_aug": {"2025": {"pct": 2.72, "ci_low": 0.97, "ci_high": 4.49, "status": "increase", "months": ["01", "02", "03", "04", "05", "06", "07", "08"], "days_2024": 238, "days_2025": 238}, "2026": {"pct": -3.29, "ci_low": -5.08, "ci_high": -1.24, "status": "decrease", "months": ["01", "02", "03", "04", "05", "06", "07", "08"], "days_2024": 238, "days_2026": 238}}, "persistence": "reversed", "full_vs_jan_aug": "inconclusive", "limitation": "crossing counts; no tracked rerouting; Named facility corridor; representative point on source road geometry, not toll-plaza/sensor coordinates. No allocation of facility totals to component road segments.", "geometry_note": "Named facility corridor; representative point on source road geometry, not toll-plaza/sensor coordinates. No allocation of facility totals to component road segments.", "unit": "standardized vehicles per complete supplied-direction day"}}}, {"type": "Feature", "geometry": {"type": "Point", "coordinates": [-73.9221, 40.8774]}, "properties": {"id": "henry_hudson", "name": "Henry Hudson Bridge", "layer": "bt_facility", "approx": true, "role": "Bronx-Manhattan north (Henry Hudson Pkwy)", "directions": ["Northbound to Bronx", "Southbound to Manhattan"], "periods": {"pre_2023": {"total": 25282089, "days": 365, "avg_daily": 69266, "avg_weekday": 71551, "avg_weekend": 63608, "trucks_total": 127665, "trucks_avg_daily": 350, "truck_share": 0.005, "peak_share": 0.8848, "hourly_weekday": [569, 249, 140, 121, 242, 924, 3193, 4430, 4602, 3729, 3501, 3596, 3783, 4089, 4775, 5566, 5819, 5737, 5130, 3753, 2542, 1988, 1792, 1280], "hourly_weekend": [1055, 558, 323, 222, 233, 323, 710, 1077, 1661, 2530, 3489, 4260, 4723, 4867, 5043, 5212, 5242, 4981, 4483, 3789, 3059, 2403, 1933, 1430]}, "pre_2024": {"total": 25022998, "days": 362, "avg_daily": 69124, "avg_weekday": 71291, "avg_weekend": 63749, "trucks_total": 136361, "trucks_avg_daily": 377, "truck_share": 0.0054, "peak_share": 0.8865, "hourly_weekday": [519, 225, 127, 113, 240, 952, 3218, 4451, 4620, 3724, 3422, 3560, 3763, 4132, 4808, 5542, 5814, 5725, 5104, 3743, 2541, 1976, 1757, 1214], "hourly_weekend": [1017, 499, 287, 205, 222, 312, 704, 1112, 1738, 2564, 3480, 4268, 4645, 4808, 5035, 5160, 5181, 4991, 4546, 3850, 3178, 2514, 2031, 1403]}, "post_2025": {"total": 25109653, "days": 361, "avg_daily": 69556, "avg_weekday": 72167, "avg_weekend": 63015, "trucks_total": 142297, "trucks_avg_daily": 394, "truck_share": 0.0057, "peak_share": 0.8855, "hourly_weekday": [527, 227, 133, 118, 268, 863, 3053, 4585, 4856, 3859, 3614, 3690, 3871, 4187, 4826, 5562, 5802, 5753, 5049, 3725, 2585, 2025, 1784, 1204], "hourly_weekend": [998, 523, 301, 215, 240, 326, 744, 1187, 1821, 2625, 3472, 4139, 4578, 4773, 4975, 5087, 5140, 4889, 4426, 3678, 3063, 2439, 1993, 1383]}, "post_2026_ytd": {"total": 16422434, "days": 243, "avg_daily": 67582, "avg_weekday": 70618, "avg_weekend": 60078, "trucks_total": 95603, "trucks_avg_daily": 393, "truck_share": 0.0058, "peak_share": 0.8849, "hourly_weekday": [527, 232, 137, 123, 262, 850, 3081, 4540, 4696, 3841, 3638, 3678, 3841, 4141, 4700, 5344, 5631, 5609, 4933, 3576, 2468, 1919, 1668, 1182], "hourly_weekend": [1046, 542, 321, 234, 246, 333, 788, 1230, 1731, 2447, 3238, 3913, 4321, 4457, 4721, 4870, 4885, 4621, 4143, 3503, 2915, 2312, 1927, 1336]}, "ytd_2024": {"total": 16383852, "days": 240, "avg_daily": 68266, "avg_weekday": 70593, "avg_weekend": 62498, "trucks_total": 84462, "trucks_avg_daily": 352, "truck_share": 0.0052, "peak_share": 0.8877, "hourly_weekday": [500, 222, 126, 113, 235, 941, 3163, 4404, 4624, 3750, 3439, 3564, 3770, 4120, 4792, 5502, 5747, 5691, 5022, 3621, 2443, 1927, 1715, 1165], "hourly_weekend": [984, 479, 278, 200, 215, 310, 700, 1092, 1708, 2527, 3428, 4194, 4583, 4760, 4968, 5082, 5079, 4893, 4425, 3707, 2975, 2441, 2041, 1429]}, "ytd_2025": {"total": 16432982, "days": 239, "avg_daily": 68757, "avg_weekday": 71555, "avg_weekend": 61865, "trucks_total": 88448, "trucks_avg_daily": 370, "truck_share": 0.0054, "peak_share": 0.8867, "hourly_weekday": [519, 225, 129, 114, 263, 859, 3003, 4503, 4821, 3874, 3629, 3698, 3874, 4159, 4784, 5509, 5795, 5762, 5011, 3661, 2494, 1963, 1727, 1178], "hourly_weekend": [969, 495, 283, 206, 226, 319, 724, 1129, 1743, 2518, 3354, 4068, 4517, 4726, 4938, 5054, 5092, 4812, 4340, 3585, 2954, 2418, 2007, 1390]}}, "change": {"pct_2025_vs_2024": 0.6, "pct_2025_vs_2023": 0.4, "pct_2026ytd_vs_2025ytd": -1.7, "pct_2026ytd_vs_2024ytd": -1.0, "trucks_pct_2025_vs_2024": 4.5, "trucks_pct_2026ytd_vs_2024ytd": 11.6, "peak_share_delta_2025_vs_2024": -0.001}, "by_direction": {"Northbound to Bronx": {"avg_daily_2024": 30245, "avg_daily_2025": 29931, "pct_2025_vs_2024": -1.0, "trucks_pct_2025_vs_2024": 4.4}, "Southbound to Manhattan": {"avg_daily_2024": 38879, "avg_daily_2025": 39625, "pct_2025_vs_2024": 1.9, "trucks_pct_2025_vs_2024": 4.6}}, "dac_designated": false, "dac_combined_pct": 0.0, "dac_asthma_pct": null, "uhf42_code": null, "uhf42_name": null, "uhf42_asthma_ed_pm25_children": null, "uhf42_asthma_ed_children": null, "uhf42_poverty_pct": null, "uhf42_pm25_2024": null, "evidence": {"mta_facility_id": 24, "source": "second_pipeline/full_year_2024_2025_traffic.csv", "full_year": {"frame": "Jan 5–Dec 31, 2024 vs 2025", "pre_mean": 69047, "post_mean": 69379, "pct": 0.48, "ci_low": -1.21, "ci_high": 1.8, "status": "uncertain", "interval_method": "95% seven-day cluster exponential-weight bootstrap; 200 draws", "matched_days_2024": 358, "matched_days_2025": 358, "complete_days_2024": 358, "complete_days_2025": 358, "expected_days": 361, "matched_weekdays": ["Mon", "Tue", "Wed", "Thu", "Fri", "Sat", "Sun"], "coverage_status": "at least 75% of month-weekday strata", "peak": {"am": {"pct": 4.02, "ci_low": 0.41, "ci_high": 7.33, "status": "increase", "n_2024": 257, "n_2025": 258}, "pm": {"pct": -0.19, "ci_low": -2.04, "ci_high": 1.41, "status": "uncertain", "n_2024": 257, "n_2025": 258}, "other": {"pct": -0.03, "ci_low": -1.55, "ci_high": 1.24, "status": "uncertain", "n_2024": 358, "n_2025": 358}}, "peak_definition": "weekday AM 07:00–09:59 and PM 16:00–18:59 on complete days; other hours include weekends"}, "jan_aug": {"2025": {"pct": 0.71, "ci_low": -0.99, "ci_high": 2.14, "status": "uncertain", "months": ["01", "02", "03", "04", "05", "06", "07", "08"], "days_2024": 238, "days_2025": 238}, "2026": {"pct": -0.7, "ci_low": -2.75, "ci_high": 1.83, "status": "uncertain", "months": ["01", "02", "03", "04", "05", "06", "07", "08"], "days_2024": 238, "days_2026": 238}}, "persistence": "inconclusive", "full_vs_jan_aug": "inconclusive", "limitation": "crossing counts; no tracked rerouting; Named facility corridor; representative point on source road geometry, not toll-plaza/sensor coordinates. No allocation of facility totals to component road segments.", "geometry_note": "Named facility corridor; representative point on source road geometry, not toll-plaza/sensor coordinates. No allocation of facility totals to component road segments.", "unit": "standardized vehicles per complete supplied-direction day"}}}, {"type": "Feature", "geometry": {"type": "Point", "coordinates": [-74.015, 40.698]}, "properties": {"id": "hlc", "name": "Hugh L. Carey Tunnel", "layer": "bt_facility", "approx": true, "role": "Into the zone from Brooklyn (crossing credit applies)", "directions": ["Northbound to Manhattan", "Southbound to Brooklyn"], "periods": {"pre_2023": {"total": 22773336, "days": 365, "avg_daily": 62393, "avg_weekday": 65004, "avg_weekend": 55927, "trucks_total": 438910, "trucks_avg_daily": 1202, "truck_share": 0.0193, "peak_share": 0.8461, "hourly_weekday": [820, 334, 170, 124, 250, 1161, 3335, 3978, 4014, 3856, 3392, 3234, 3520, 3753, 4103, 4553, 4170, 4049, 3877, 3637, 2791, 2325, 2025, 1535], "hourly_weekend": [1597, 826, 459, 301, 262, 344, 779, 1107, 1547, 2077, 2689, 3082, 3374, 3581, 3767, 3970, 4064, 4049, 3944, 3555, 3181, 2821, 2524, 2027]}, "pre_2024": {"total": 22406209, "days": 362, "avg_daily": 61896, "avg_weekday": 64143, "avg_weekend": 56320, "trucks_total": 429764, "trucks_avg_daily": 1187, "truck_share": 0.0192, "peak_share": 0.8449, "hourly_weekday": [811, 335, 169, 141, 276, 1220, 3378, 4009, 3998, 3846, 3272, 3131, 3428, 3706, 4054, 4545, 4101, 3958, 3751, 3518, 2731, 2252, 1980, 1533], "hourly_weekend": [1605, 825, 431, 282, 251, 363, 805, 1156, 1629, 2199, 2736, 3105, 3321, 3509, 3701, 3920, 4061, 4043, 3933, 3578, 3304, 2898, 2590, 2073]}, "post_2025": {"total": 21782108, "days": 361, "avg_daily": 60338, "avg_weekday": 62921, "avg_weekend": 53868, "trucks_total": 413056, "trucks_avg_daily": 1144, "truck_share": 0.019, "peak_share": 0.8456, "hourly_weekday": [771, 349, 185, 141, 271, 1058, 3192, 3924, 4016, 3879, 3257, 3103, 3388, 3639, 3922, 4424, 4069, 3943, 3705, 3427, 2661, 2207, 1934, 1454], "hourly_weekend": [1538, 821, 465, 308, 281, 353, 776, 1145, 1616, 2084, 2551, 2927, 3188, 3383, 3572, 3773, 3923, 3894, 3750, 3409, 3068, 2725, 2433, 1886]}, "post_2026_ytd": {"total": 13997099, "days": 243, "avg_daily": 57601, "avg_weekday": 60743, "avg_weekend": 49837, "trucks_total": 285616, "trucks_avg_daily": 1175, "truck_share": 0.0204, "peak_share": 0.8472, "hourly_weekday": [736, 337, 170, 131, 266, 1122, 3193, 3777, 3784, 3652, 3180, 2986, 3302, 3549, 3782, 4176, 4008, 3860, 3693, 3336, 2538, 2040, 1781, 1346], "hourly_weekend": [1471, 813, 470, 314, 274, 344, 757, 1098, 1523, 1906, 2342, 2689, 2916, 3109, 3249, 3442, 3548, 3523, 3396, 3145, 2840, 2547, 2294, 1826]}, "ytd_2024": {"total": 14725342, "days": 240, "avg_daily": 61356, "avg_weekday": 63897, "avg_weekend": 55056, "trucks_total": 287173, "trucks_avg_daily": 1197, "truck_share": 0.0195, "peak_share": 0.8467, "hourly_weekday": [793, 328, 169, 139, 276, 1223, 3389, 4031, 4039, 3864, 3299, 3140, 3443, 3699, 4048, 4532, 4096, 3948, 3717, 3418, 2641, 2221, 1962, 1483], "hourly_weekend": [1546, 790, 423, 280, 243, 360, 818, 1142, 1599, 2160, 2697, 3079, 3307, 3516, 3701, 3866, 3962, 3912, 3814, 3386, 3097, 2774, 2531, 2054]}, "ytd_2025": {"total": 14210136, "days": 239, "avg_daily": 59457, "avg_weekday": 62388, "avg_weekend": 52234, "trucks_total": 275900, "trucks_avg_daily": 1154, "truck_share": 0.0194, "peak_share": 0.8473, "hourly_weekday": [779, 353, 187, 140, 271, 1049, 3193, 3942, 4067, 3898, 3219, 3072, 3346, 3600, 3899, 4416, 4039, 3939, 3672, 3323, 2543, 2127, 1880, 1434], "hourly_weekend": [1481, 770, 434, 288, 262, 334, 748, 1090, 1543, 1997, 2484, 2882, 3158, 3351, 3540, 3701, 3832, 3790, 3603, 3221, 2880, 2587, 2377, 1879]}}, "change": {"pct_2025_vs_2024": -2.5, "pct_2025_vs_2023": -3.3, "pct_2026ytd_vs_2025ytd": -3.1, "pct_2026ytd_vs_2024ytd": -6.1, "trucks_pct_2025_vs_2024": -3.6, "trucks_pct_2026ytd_vs_2024ytd": -1.8, "peak_share_delta_2025_vs_2024": 0.0007}, "by_direction": {"Northbound to Manhattan": {"avg_daily_2024": 31817, "avg_daily_2025": 30833, "pct_2025_vs_2024": -3.1, "trucks_pct_2025_vs_2024": 4.4}, "Southbound to Brooklyn": {"avg_daily_2024": 30078, "avg_daily_2025": 29506, "pct_2025_vs_2024": -1.9, "trucks_pct_2025_vs_2024": -10.3}}, "dac_designated": false, "dac_combined_pct": 0.0, "dac_asthma_pct": null, "uhf42_code": null, "uhf42_name": null, "uhf42_asthma_ed_pm25_children": null, "uhf42_asthma_ed_children": null, "uhf42_poverty_pct": null, "uhf42_pm25_2024": null, "evidence": {"mta_facility_id": 28, "source": "second_pipeline/full_year_2024_2025_traffic.csv", "full_year": {"frame": "Jan 5–Dec 31, 2024 vs 2025", "pre_mean": 55642, "post_mean": 52275, "pct": -6.05, "ci_low": -9.12, "ci_high": -3.36, "status": "limited", "interval_method": "95% seven-day cluster exponential-weight bootstrap; 200 draws", "matched_days_2024": 75, "matched_days_2025": 68, "complete_days_2024": 107, "complete_days_2025": 97, "expected_days": 361, "matched_weekdays": ["Sat", "Sun"], "coverage_status": "limited shared strata; selected-day comparison", "peak": {"am": {"pct": -0.27, "ci_low": -2.82, "ci_high": 2.7, "status": "uncertain", "n_2024": 257, "n_2025": 258}, "pm": {"pct": -0.74, "ci_low": -1.54, "ci_high": 0.45, "status": "uncertain", "n_2024": 257, "n_2025": 258}, "other": {"pct": -6.05, "ci_low": -8.23, "ci_high": -3.3, "status": "limited", "n_2024": 75, "n_2025": 68}}, "peak_definition": "weekday AM 07:00–09:59 and PM 16:00–18:59 on complete days; other hours include weekends"}, "jan_aug": {"2025": {"pct": -6.28, "ci_low": -9.0, "ci_high": -3.51, "status": "limited", "months": ["01", "02", "03", "04", "05", "06", "07", "08"], "days_2024": 58, "days_2025": 54}, "2026": {"pct": -7.75, "ci_low": -11.36, "ci_high": -4.39, "status": "limited", "months": ["01", "02", "03", "04", "05"], "days_2024": 37, "days_2026": 31}}, "persistence": "inconclusive", "full_vs_jan_aug": "inconclusive", "limitation": "insufficient weekday/full-period coverage; selected complete days only; Named facility corridor; representative point on source road geometry, not toll-plaza/sensor coordinates. No allocation of facility totals to component road segments.", "geometry_note": "Named facility corridor; representative point on source road geometry, not toll-plaza/sensor coordinates. No allocation of facility totals to component road segments.", "unit": "standardized vehicles per complete supplied-direction day"}}}, {"type": "Feature", "geometry": {"type": "Point", "coordinates": [-73.885, 40.5735]}, "properties": {"id": "marine_parkway", "name": "Marine Parkway Bridge", "layer": "bt_facility", "approx": true, "role": "Rockaways (far from the zone; quasi-control)", "directions": ["Northbound to Brooklyn", "Southbound to Queens"], "periods": {"pre_2023": {"total": 7948192, "days": 365, "avg_daily": 21776, "avg_weekday": 22853, "avg_weekend": 19109, "trucks_total": 197262, "trucks_avg_daily": 540, "truck_share": 0.0248, "peak_share": 0.8724, "hourly_weekday": [192, 108, 75, 77, 175, 535, 1222, 1691, 1350, 1182, 1095, 1106, 1156, 1234, 1485, 1805, 1760, 1740, 1477, 1097, 820, 622, 487, 362], "hourly_weekend": [336, 213, 139, 109, 121, 201, 372, 531, 723, 922, 1113, 1297, 1409, 1429, 1394, 1388, 1368, 1283, 1177, 1016, 854, 691, 582, 443]}, "pre_2024": {"total": 7920172, "days": 362, "avg_daily": 21879, "avg_weekday": 22868, "avg_weekend": 19425, "trucks_total": 185263, "trucks_avg_daily": 512, "truck_share": 0.0234, "peak_share": 0.87, "hourly_weekday": [199, 114, 82, 80, 192, 552, 1232, 1677, 1343, 1163, 1086, 1110, 1160, 1253, 1520, 1798, 1753, 1707, 1447, 1091, 817, 627, 501, 363], "hourly_weekend": [339, 211, 143, 111, 128, 209, 381, 555, 748, 944, 1134, 1305, 1410, 1434, 1415, 1409, 1380, 1307, 1195, 1039, 879, 706, 588, 453]}, "post_2025": {"total": 8044509, "days": 361, "avg_daily": 22284, "avg_weekday": 23302, "avg_weekend": 19733, "trucks_total": 178410, "trucks_avg_daily": 494, "truck_share": 0.0222, "peak_share": 0.8689, "hourly_weekday": [192, 112, 84, 82, 195, 567, 1263, 1715, 1385, 1172, 1101, 1127, 1189, 1279, 1575, 1823, 1774, 1726, 1456, 1104, 838, 650, 519, 374], "hourly_weekend": [339, 218, 151, 118, 139, 229, 396, 579, 769, 965, 1139, 1314, 1423, 1441, 1428, 1405, 1395, 1332, 1217, 1069, 903, 718, 593, 453]}, "post_2026_ytd": {"total": 5388772, "days": 243, "avg_daily": 22176, "avg_weekday": 23018, "avg_weekend": 20096, "trucks_total": 106839, "trucks_avg_daily": 440, "truck_share": 0.0198, "peak_share": 0.8673, "hourly_weekday": [200, 117, 82, 86, 200, 555, 1221, 1618, 1349, 1175, 1102, 1144, 1204, 1279, 1540, 1756, 1736, 1721, 1453, 1099, 845, 655, 516, 365], "hourly_weekend": [357, 221, 154, 121, 142, 233, 377, 562, 753, 976, 1169, 1381, 1469, 1457, 1435, 1433, 1440, 1356, 1253, 1085, 918, 734, 613, 458]}, "ytd_2024": {"total": 5334098, "days": 240, "avg_daily": 22225, "avg_weekday": 23090, "avg_weekend": 20082, "trucks_total": 122280, "trucks_avg_daily": 510, "truck_share": 0.0229, "peak_share": 0.8704, "hourly_weekday": [199, 113, 82, 80, 193, 550, 1199, 1640, 1342, 1179, 1115, 1144, 1196, 1281, 1531, 1792, 1778, 1742, 1473, 1102, 835, 645, 509, 367], "hourly_weekend": [338, 210, 141, 109, 129, 210, 374, 548, 747, 959, 1186, 1368, 1486, 1509, 1476, 1454, 1421, 1354, 1244, 1076, 918, 744, 611, 471]}, "ytd_2025": {"total": 5476483, "days": 239, "avg_daily": 22914, "avg_weekday": 23816, "avg_weekend": 20692, "trucks_total": 120664, "trucks_avg_daily": 505, "truck_share": 0.022, "peak_share": 0.869, "hourly_weekday": [194, 115, 85, 83, 197, 578, 1247, 1708, 1401, 1196, 1136, 1169, 1244, 1320, 1601, 1845, 1820, 1784, 1501, 1138, 870, 674, 528, 380], "hourly_weekend": [348, 222, 150, 119, 141, 229, 395, 585, 772, 973, 1193, 1401, 1515, 1532, 1496, 1463, 1466, 1407, 1292, 1138, 971, 775, 631, 480]}}, "change": {"pct_2025_vs_2024": 1.9, "pct_2025_vs_2023": 2.3, "pct_2026ytd_vs_2025ytd": -3.2, "pct_2026ytd_vs_2024ytd": -0.2, "trucks_pct_2025_vs_2024": -3.5, "trucks_pct_2026ytd_vs_2024ytd": -13.7, "peak_share_delta_2025_vs_2024": -0.0011}, "by_direction": {"Northbound to Brooklyn": {"avg_daily_2024": 10633, "avg_daily_2025": 10876, "pct_2025_vs_2024": 2.3, "trucks_pct_2025_vs_2024": -4.1}, "Southbound to Queens": {"avg_daily_2024": 11246, "avg_daily_2025": 11407, "pct_2025_vs_2024": 1.4, "trucks_pct_2025_vs_2024": -2.9}}, "dac_designated": false, "dac_combined_pct": 0.0, "dac_asthma_pct": null, "uhf42_code": null, "uhf42_name": null, "uhf42_asthma_ed_pm25_children": null, "uhf42_asthma_ed_children": null, "uhf42_poverty_pct": null, "uhf42_pm25_2024": null, "evidence": {"mta_facility_id": 25, "source": "second_pipeline/full_year_2024_2025_traffic.csv", "full_year": {"frame": "Jan 5–Dec 31, 2024 vs 2025", "pre_mean": 21860, "post_mean": 22214, "pct": 1.62, "ci_low": 0.19, "ci_high": 3.43, "status": "increase", "interval_method": "95% seven-day cluster exponential-weight bootstrap; 200 draws", "matched_days_2024": 357, "matched_days_2025": 359, "complete_days_2024": 357, "complete_days_2025": 359, "expected_days": 361, "matched_weekdays": ["Mon", "Tue", "Wed", "Thu", "Fri", "Sat", "Sun"], "coverage_status": "at least 75% of month-weekday strata", "peak": {"am": {"pct": 2.03, "ci_low": -0.57, "ci_high": 5.06, "status": "uncertain", "n_2024": 257, "n_2025": 258}, "pm": {"pct": 1.03, "ci_low": -1.3, "ci_high": 3.34, "status": "uncertain", "n_2024": 257, "n_2025": 258}, "other": {"pct": 1.62, "ci_low": 0.13, "ci_high": 3.55, "status": "increase", "n_2024": 357, "n_2025": 359}}, "peak_definition": "weekday AM 07:00–09:59 and PM 16:00–18:59 on complete days; other hours include weekends"}, "jan_aug": {"2025": {"pct": 2.79, "ci_low": 0.89, "ci_high": 4.86, "status": "increase", "months": ["01", "02", "03", "04", "05", "06", "07", "08"], "days_2024": 237, "days_2025": 238}, "2026": {"pct": 0.07, "ci_low": -2.24, "ci_high": 2.68, "status": "uncertain", "months": ["01", "02", "03", "04", "05", "06", "07", "08"], "days_2024": 237, "days_2026": 237}}, "persistence": "inconclusive", "full_vs_jan_aug": "weakened", "limitation": "crossing counts; no tracked rerouting; Named facility corridor; representative point on source road geometry, not toll-plaza/sensor coordinates. No allocation of facility totals to component road segments.", "geometry_note": "Named facility corridor; representative point on source road geometry, not toll-plaza/sensor coordinates. No allocation of facility totals to component road segments.", "unit": "standardized vehicles per complete supplied-direction day"}}}, {"type": "Feature", "geometry": {"type": "Point", "coordinates": [-73.9635, 40.7438]}, "properties": {"id": "qmt", "name": "Queens Midtown Tunnel", "layer": "bt_facility", "approx": true, "role": "Into the zone from Queens (crossing credit applies)", "directions": ["Eastbound to Queens", "Westbound to Manhattan"], "periods": {"pre_2023": {"total": 30503851, "days": 365, "avg_daily": 83572, "avg_weekday": 85115, "avg_weekend": 79752, "trucks_total": 905635, "trucks_avg_daily": 2481, "truck_share": 0.0297, "peak_share": 0.7797, "hourly_weekday": [1676, 939, 582, 561, 1023, 2128, 3846, 4452, 4548, 4514, 4243, 4440, 4619, 4830, 4994, 5165, 5179, 5049, 4652, 4222, 3808, 3546, 3395, 2705], "hourly_weekend": [3071, 2182, 1550, 1322, 1318, 1291, 1835, 2211, 2598, 3167, 3757, 4050, 4207, 4348, 4547, 4751, 4833, 4765, 4609, 4385, 4064, 3842, 3755, 3295]}, "pre_2024": {"total": 30149518, "days": 362, "avg_daily": 83286, "avg_weekday": 84405, "avg_weekend": 80511, "trucks_total": 799608, "trucks_avg_daily": 2209, "truck_share": 0.0265, "peak_share": 0.7747, "hourly_weekday": [1735, 969, 597, 585, 1083, 2184, 3843, 4413, 4503, 4416, 4126, 4345, 4502, 4721, 4930, 5113, 5079, 4941, 4606, 4156, 3791, 3519, 3467, 2780], "hourly_weekend": [3164, 2181, 1514, 1279, 1307, 1360, 1966, 2306, 2721, 3239, 3743, 4039, 4162, 4286, 4527, 4700, 4824, 4784, 4671, 4446, 4203, 3967, 3830, 3292]}, "post_2025": {"total": 29765743, "days": 361, "avg_daily": 82454, "avg_weekday": 83585, "avg_weekend": 79618, "trucks_total": 841825, "trucks_avg_daily": 2332, "truck_share": 0.0283, "peak_share": 0.7668, "hourly_weekday": [1849, 1063, 651, 621, 1150, 2130, 3718, 4306, 4490, 4427, 4107, 4294, 4462, 4644, 4784, 5004, 5032, 4840, 4480, 4044, 3706, 3550, 3440, 2792], "hourly_weekend": [3209, 2297, 1648, 1405, 1405, 1434, 1989, 2351, 2787, 3178, 3633, 3920, 4110, 4190, 4396, 4579, 4665, 4645, 4482, 4277, 4007, 3862, 3812, 3337]}, "post_2026_ytd": {"total": 19172350, "days": 243, "avg_daily": 78899, "avg_weekday": 79959, "avg_weekend": 76277, "trucks_total": 469754, "trucks_avg_daily": 1933, "truck_share": 0.0245, "peak_share": 0.7679, "hourly_weekday": [1743, 1033, 653, 616, 1103, 2135, 3556, 4112, 4278, 4197, 3937, 4146, 4325, 4465, 4641, 4809, 4877, 4677, 4290, 3873, 3532, 3274, 3083, 2605], "hourly_weekend": [3079, 2256, 1698, 1457, 1461, 1481, 2004, 2226, 2598, 2978, 3392, 3733, 3866, 3993, 4183, 4348, 4492, 4401, 4273, 4106, 3818, 3656, 3621, 3158]}, "ytd_2024": {"total": 19886591, "days": 240, "avg_daily": 82861, "avg_weekday": 84372, "avg_weekend": 79115, "trucks_total": 545280, "trucks_avg_daily": 2272, "truck_share": 0.0274, "peak_share": 0.7783, "hourly_weekday": [1716, 963, 596, 578, 1048, 2165, 3844, 4423, 4524, 4427, 4151, 4381, 4540, 4769, 4976, 5152, 5123, 4966, 4596, 4104, 3719, 3457, 3439, 2714], "hourly_weekend": [3079, 2094, 1457, 1245, 1252, 1301, 1897, 2216, 2614, 3158, 3670, 3979, 4137, 4252, 4492, 4661, 4784, 4747, 4622, 4373, 4094, 3885, 3800, 3308]}, "ytd_2025": {"total": 19491870, "days": 239, "avg_daily": 81556, "avg_weekday": 83047, "avg_weekend": 77883, "trucks_total": 573596, "trucks_avg_daily": 2400, "truck_share": 0.0294, "peak_share": 0.77, "hourly_weekday": [1811, 1048, 643, 616, 1120, 2098, 3736, 4343, 4539, 4471, 4120, 4308, 4458, 4627, 4766, 5023, 5036, 4803, 4418, 3939, 3576, 3441, 3357, 2751], "hourly_weekend": [3137, 2177, 1544, 1328, 1323, 1361, 1888, 2230, 2652, 3054, 3549, 3866, 4104, 4180, 4364, 4527, 4627, 4594, 4401, 4184, 3875, 3785, 3801, 3331]}}, "change": {"pct_2025_vs_2024": -1.0, "pct_2025_vs_2023": -1.3, "pct_2026ytd_vs_2025ytd": -3.3, "pct_2026ytd_vs_2024ytd": -4.8, "trucks_pct_2025_vs_2024": 5.6, "trucks_pct_2026ytd_vs_2024ytd": -14.9, "peak_share_delta_2025_vs_2024": -0.0079}, "by_direction": {"Eastbound to Queens": {"avg_daily_2024": 39242, "avg_daily_2025": 38659, "pct_2025_vs_2024": -1.5, "trucks_pct_2025_vs_2024": -7.2}, "Westbound to Manhattan": {"avg_daily_2024": 44044, "avg_daily_2025": 43795, "pct_2025_vs_2024": -0.6, "trucks_pct_2025_vs_2024": 19.8}}, "dac_designated": false, "dac_combined_pct": 0.294, "dac_asthma_pct": 0.17, "uhf42_code": null, "uhf42_name": null, "uhf42_asthma_ed_pm25_children": null, "uhf42_asthma_ed_children": null, "uhf42_poverty_pct": null, "uhf42_pm25_2024": null, "evidence": {"mta_facility_id": 27, "source": "second_pipeline/full_year_2024_2025_traffic.csv", "full_year": {"frame": "Jan 5–Dec 31, 2024 vs 2025", "pre_mean": 83208, "post_mean": 82285, "pct": -1.11, "ci_low": -2.39, "ci_high": 0.52, "status": "uncertain", "interval_method": "95% seven-day cluster exponential-weight bootstrap; 200 draws", "matched_days_2024": 355, "matched_days_2025": 352, "complete_days_2024": 355, "complete_days_2025": 352, "expected_days": 361, "matched_weekdays": ["Mon", "Tue", "Wed", "Thu", "Fri", "Sat", "Sun"], "coverage_status": "at least 75% of month-weekday strata", "peak": {"am": {"pct": -0.7, "ci_low": -3.15, "ci_high": 1.53, "status": "uncertain", "n_2024": 257, "n_2025": 258}, "pm": {"pct": -1.79, "ci_low": -3.34, "ci_high": -0.35, "status": "decrease", "n_2024": 257, "n_2025": 258}, "other": {"pct": -1.05, "ci_low": -2.66, "ci_high": 0.46, "status": "uncertain", "n_2024": 355, "n_2025": 352}}, "peak_definition": "weekday AM 07:00–09:59 and PM 16:00–18:59 on complete days; other hours include weekends"}, "jan_aug": {"2025": {"pct": -1.67, "ci_low": -2.96, "ci_high": -0.38, "status": "decrease", "months": ["01", "02", "03", "04", "05", "06", "07", "08"], "days_2024": 234, "days_2025": 231}, "2026": {"pct": -4.73, "ci_low": -6.51, "ci_high": -3.21, "status": "decrease", "months": ["01", "02", "03", "04", "05", "06", "07", "08"], "days_2024": 234, "days_2026": 230}}, "persistence": "strengthened", "full_vs_jan_aug": "inconclusive", "limitation": "crossing counts; no tracked rerouting; Named facility corridor; representative point on source road geometry, not toll-plaza/sensor coordinates. No allocation of facility totals to component road segments.", "geometry_note": "Named facility corridor; representative point on source road geometry, not toll-plaza/sensor coordinates. No allocation of facility totals to component road segments.", "unit": "standardized vehicles per complete supplied-direction day"}}}, {"type": "Feature", "geometry": {"type": "Point", "coordinates": [-73.9215, 40.8005]}, "properties": {"id": "rfk_bronx", "name": "Robert F. Kennedy Bridge Bronx", "layer": "bt_facility", "approx": true, "role": "Bronx-Randalls Island span (Mott Haven / Port Morris approach)", "directions": ["Northbound to Manhattan or Bronx", "Southbound to Manhattan or Queens"], "periods": {"pre_2023": {"total": 51753806, "days": 365, "avg_daily": 141791, "avg_weekday": 144939, "avg_weekend": 133996, "trucks_total": 2732990, "trucks_avg_daily": 7488, "truck_share": 0.0528, "peak_share": 0.8124, "hourly_weekday": [2351, 1351, 1007, 1077, 2029, 4789, 9257, 9523, 8692, 8348, 8019, 7827, 7765, 8047, 8671, 8578, 8082, 7731, 7332, 6520, 5408, 4730, 4281, 3524], "hourly_weekend": [3543, 2544, 1909, 1722, 2057, 2192, 3294, 4067, 4731, 5892, 6953, 7544, 7952, 8308, 8636, 8481, 8274, 8147, 7802, 7329, 6599, 6022, 5513, 4486]}, "pre_2024": {"total": 51992797, "days": 362, "avg_daily": 143627, "avg_weekday": 146220, "avg_weekend": 137192, "trucks_total": 2715479, "trucks_avg_daily": 7501, "truck_share": 0.0522, "peak_share": 0.8077, "hourly_weekday": [2439, 1426, 1062, 1143, 2141, 5071, 9200, 9422, 8802, 8400, 7971, 7644, 7639, 7937, 8572, 8621, 8180, 7809, 7432, 6674, 5584, 4909, 4454, 3690], "hourly_weekend": [3681, 2561, 1874, 1699, 2057, 2310, 3485, 4291, 5018, 6163, 7125, 7682, 8051, 8395, 8726, 8603, 8291, 8242, 7995, 7479, 6844, 6244, 5690, 4685]}, "post_2025": {"total": 52076456, "days": 361, "avg_daily": 144256, "avg_weekday": 146933, "avg_weekend": 137552, "trucks_total": 2717688, "trucks_avg_daily": 7528, "truck_share": 0.0522, "peak_share": 0.8065, "hourly_weekday": [2420, 1505, 1132, 1184, 2241, 5284, 9310, 9696, 8839, 8196, 7874, 7738, 7802, 8107, 8659, 8654, 8170, 7751, 7364, 6563, 5597, 4945, 4363, 3538], "hourly_weekend": [3669, 2620, 1973, 1769, 2167, 2430, 3607, 4493, 5214, 6295, 7229, 7765, 8065, 8330, 8661, 8478, 8279, 8190, 7870, 7286, 6699, 6197, 5600, 4666]}, "post_2026_ytd": {"total": 34401698, "days": 243, "avg_daily": 141571, "avg_weekday": 143924, "avg_weekend": 135754, "trucks_total": 1816834, "trucks_avg_daily": 7477, "truck_share": 0.0528, "peak_share": 0.7974, "hourly_weekday": [2593, 1608, 1181, 1235, 2245, 5377, 9290, 9323, 8389, 7810, 7551, 7360, 7410, 7730, 8344, 8449, 8029, 7614, 7204, 6484, 5479, 4994, 4517, 3709], "hourly_weekend": [3853, 2765, 2078, 1856, 2223, 2549, 3703, 4502, 5174, 6142, 7003, 7565, 7781, 8055, 8378, 8276, 8159, 8009, 7662, 7168, 6539, 6115, 5594, 4605]}, "ytd_2024": {"total": 34340915, "days": 240, "avg_daily": 143087, "avg_weekday": 146043, "avg_weekend": 135761, "trucks_total": 1825276, "trucks_avg_daily": 7605, "truck_share": 0.0532, "peak_share": 0.8096, "hourly_weekday": [2415, 1424, 1077, 1145, 2127, 5079, 9264, 9476, 8924, 8509, 8062, 7682, 7645, 7941, 8537, 8547, 8158, 7796, 7392, 6582, 5469, 4825, 4381, 3586], "hourly_weekend": [3575, 2477, 1838, 1669, 1993, 2290, 3460, 4242, 4931, 6010, 6947, 7522, 7927, 8351, 8695, 8584, 8294, 8223, 7973, 7399, 6709, 6200, 5738, 4713]}, "ytd_2025": {"total": 34522257, "days": 239, "avg_daily": 144445, "avg_weekday": 147270, "avg_weekend": 137485, "trucks_total": 1798159, "trucks_avg_daily": 7524, "truck_share": 0.0521, "peak_share": 0.8052, "hourly_weekday": [2443, 1515, 1119, 1178, 2242, 5349, 9431, 9810, 9020, 8255, 7863, 7666, 7695, 8015, 8618, 8629, 8170, 7772, 7401, 6546, 5561, 4974, 4434, 3564], "hourly_weekend": [3703, 2608, 1929, 1750, 2152, 2420, 3581, 4428, 5087, 6154, 7150, 7698, 8011, 8337, 8679, 8499, 8290, 8252, 7868, 7280, 6679, 6270, 5825, 4837]}}, "change": {"pct_2025_vs_2024": 0.4, "pct_2025_vs_2023": 1.7, "pct_2026ytd_vs_2025ytd": -2.0, "pct_2026ytd_vs_2024ytd": -1.1, "trucks_pct_2025_vs_2024": 0.4, "trucks_pct_2026ytd_vs_2024ytd": -1.7, "peak_share_delta_2025_vs_2024": -0.0012}, "by_direction": {"Northbound to Manhattan or Bronx": {"avg_daily_2024": 83946, "avg_daily_2025": 81664, "pct_2025_vs_2024": -2.7, "trucks_pct_2025_vs_2024": -1.4}, "Southbound to Manhattan or Queens": {"avg_daily_2024": 59681, "avg_daily_2025": 62592, "pct_2025_vs_2024": 4.9, "trucks_pct_2025_vs_2024": 2.2}}, "dac_designated": true, "dac_combined_pct": 0.0, "dac_asthma_pct": null, "uhf42_code": "303", "uhf42_name": "East Harlem", "uhf42_asthma_ed_pm25_children": 160.0, "uhf42_asthma_ed_children": 355.8, "uhf42_poverty_pct": 32.9, "uhf42_pm25_2024": 6.66, "evidence": {"mta_facility_id": 21, "source": "second_pipeline/full_year_2024_2025_traffic.csv", "full_year": {"frame": "Jan 5–Dec 31, 2024 vs 2025", "pre_mean": 143541, "post_mean": 144034, "pct": 0.34, "ci_low": -0.5, "ci_high": 1.06, "status": "uncertain", "interval_method": "95% seven-day cluster exponential-weight bootstrap; 200 draws", "matched_days_2024": 358, "matched_days_2025": 358, "complete_days_2024": 358, "complete_days_2025": 358, "expected_days": 361, "matched_weekdays": ["Mon", "Tue", "Wed", "Thu", "Fri", "Sat", "Sun"], "coverage_status": "at least 75% of month-weekday strata", "peak": {"am": {"pct": 0.4, "ci_low": -1.58, "ci_high": 2.4, "status": "uncertain", "n_2024": 256, "n_2025": 257}, "pm": {"pct": -0.4, "ci_low": -1.13, "ci_high": 0.38, "status": "uncertain", "n_2024": 257, "n_2025": 258}, "other": {"pct": 0.43, "ci_low": -0.4, "ci_high": 1.29, "status": "uncertain", "n_2024": 358, "n_2025": 359}}, "peak_definition": "weekday AM 07:00–09:59 and PM 16:00–18:59 on complete days; other hours include weekends"}, "jan_aug": {"2025": {"pct": 0.97, "ci_low": 0.04, "ci_high": 1.87, "status": "increase", "months": ["01", "02", "03", "04", "05", "06", "07", "08"], "days_2024": 238, "days_2025": 237}, "2026": {"pct": -0.98, "ci_low": -2.67, "ci_high": 0.44, "status": "uncertain", "months": ["01", "02", "03", "04", "05", "06", "07", "08"], "days_2024": 238, "days_2026": 238}}, "persistence": "inconclusive", "full_vs_jan_aug": "inconclusive", "limitation": "crossing counts; no tracked rerouting; Named facility corridor; representative point on source road geometry, not toll-plaza/sensor coordinates. No allocation of facility totals to component road segments. MTA Facility 21 combines Bronx AND Queens plazas (TBX); cannot isolate Bronx-only traffic. Excludes Manhattan branch.", "geometry_note": "Named facility corridor; representative point on source road geometry, not toll-plaza/sensor coordinates. No allocation of facility totals to component road segments. MTA Facility 21 combines Bronx AND Queens plazas (TBX); cannot isolate Bronx-only traffic. Excludes Manhattan branch.", "unit": "standardized vehicles per complete supplied-direction day"}}}, {"type": "Feature", "geometry": {"type": "Point", "coordinates": [-73.9305, 40.7975]}, "properties": {"id": "rfk_manhattan", "name": "Robert F. Kennedy Bridge Manhattan", "layer": "bt_facility", "approx": true, "role": "Manhattan span (East Harlem, 125th St approach)", "directions": ["Eastbound to Bronx or Queens"], "periods": {"pre_2023": {"total": 16601962, "days": 365, "avg_daily": 45485, "avg_weekday": 46587, "avg_weekend": 42754, "trucks_total": 332503, "trucks_avg_daily": 911, "truck_share": 0.02, "peak_share": 0.8096, "hourly_weekday": [757, 380, 264, 298, 649, 1242, 1587, 2099, 2413, 2385, 2402, 2522, 2690, 2823, 2921, 3250, 3107, 3000, 2709, 2496, 2189, 1741, 1449, 1215], "hourly_weekend": [1314, 836, 546, 461, 599, 697, 805, 1203, 1490, 1803, 2107, 2334, 2497, 2529, 2550, 2764, 2777, 2709, 2539, 2471, 2288, 1998, 1820, 1618]}, "pre_2024": {"total": 16958970, "days": 362, "avg_daily": 46848, "avg_weekday": 47852, "avg_weekend": 44357, "trucks_total": 337867, "trucks_avg_daily": 933, "truck_share": 0.0199, "peak_share": 0.8041, "hourly_weekday": [810, 402, 281, 310, 698, 1372, 1746, 2204, 2482, 2389, 2384, 2522, 2703, 2883, 2979, 3247, 3176, 3059, 2767, 2553, 2211, 1821, 1544, 1308], "hourly_weekend": [1378, 845, 564, 479, 650, 766, 896, 1302, 1587, 1870, 2164, 2380, 2577, 2645, 2646, 2792, 2836, 2768, 2597, 2518, 2350, 2098, 1957, 1689]}, "post_2025": {"total": 17260425, "days": 361, "avg_daily": 47813, "avg_weekday": 48554, "avg_weekend": 45955, "trucks_total": 334205, "trucks_avg_daily": 926, "truck_share": 0.0194, "peak_share": 0.8119, "hourly_weekday": [771, 411, 294, 312, 723, 1500, 1900, 2271, 2546, 2416, 2401, 2557, 2774, 2886, 3028, 3268, 3193, 3081, 2881, 2659, 2274, 1760, 1442, 1206], "hourly_weekend": [1268, 827, 568, 485, 652, 796, 921, 1357, 1653, 1965, 2225, 2469, 2696, 2805, 2846, 3026, 3012, 2905, 2723, 2649, 2436, 2086, 1936, 1649]}, "post_2026_ytd": {"total": 11358817, "days": 243, "avg_daily": 46744, "avg_weekday": 47495, "avg_weekend": 44888, "trucks_total": 228500, "trucks_avg_daily": 940, "truck_share": 0.0201, "peak_share": 0.8057, "hourly_weekday": [801, 422, 306, 324, 700, 1497, 1868, 2205, 2437, 2270, 2294, 2404, 2599, 2742, 2946, 3217, 3124, 3050, 2858, 2661, 2258, 1795, 1485, 1229], "hourly_weekend": [1311, 850, 589, 501, 638, 783, 912, 1274, 1539, 1845, 2116, 2356, 2587, 2712, 2745, 2941, 2929, 2859, 2685, 2623, 2413, 2098, 1948, 1635]}, "ytd_2024": {"total": 11244500, "days": 240, "avg_daily": 46852, "avg_weekday": 48077, "avg_weekend": 43815, "trucks_total": 227212, "trucks_avg_daily": 947, "truck_share": 0.0202, "peak_share": 0.8075, "hourly_weekday": [791, 397, 284, 309, 685, 1350, 1766, 2239, 2528, 2454, 2453, 2561, 2721, 2905, 3010, 3251, 3176, 3106, 2783, 2530, 2176, 1786, 1531, 1285], "hourly_weekend": [1338, 812, 547, 474, 633, 753, 893, 1271, 1550, 1815, 2131, 2366, 2581, 2636, 2642, 2775, 2821, 2734, 2566, 2496, 2301, 2056, 1919, 1700]}, "ytd_2025": {"total": 11473863, "days": 239, "avg_daily": 48008, "avg_weekday": 48871, "avg_weekend": 45881, "trucks_total": 227569, "trucks_avg_daily": 952, "truck_share": 0.0198, "peak_share": 0.8116, "hourly_weekday": [792, 426, 301, 317, 727, 1521, 1885, 2259, 2545, 2448, 2448, 2607, 2804, 2899, 3057, 3262, 3218, 3134, 2920, 2644, 2237, 1750, 1446, 1226], "hourly_weekend": [1271, 819, 558, 486, 655, 797, 913, 1326, 1602, 1944, 2248, 2515, 2725, 2815, 2863, 3045, 3023, 2864, 2695, 2626, 2388, 2064, 1962, 1677]}}, "change": {"pct_2025_vs_2024": 2.1, "pct_2025_vs_2023": 5.1, "pct_2026ytd_vs_2025ytd": -2.6, "pct_2026ytd_vs_2024ytd": -0.2, "trucks_pct_2025_vs_2024": -0.8, "trucks_pct_2026ytd_vs_2024ytd": -0.7, "peak_share_delta_2025_vs_2024": 0.0078}, "by_direction": {"Eastbound to Bronx or Queens": {"avg_daily_2024": 46848, "avg_daily_2025": 47813, "pct_2025_vs_2024": 2.1, "trucks_pct_2025_vs_2024": -0.8}}, "dac_designated": true, "dac_combined_pct": 0.999, "dac_asthma_pct": 0.988, "uhf42_code": "303", "uhf42_name": "East Harlem", "uhf42_asthma_ed_pm25_children": 160.0, "uhf42_asthma_ed_children": 355.8, "uhf42_poverty_pct": 32.9, "uhf42_pm25_2024": 6.66, "evidence": {"mta_facility_id": 22, "source": "second_pipeline/full_year_2024_2025_traffic.csv", "full_year": {"frame": "Jan 5–Dec 31, 2024 vs 2025", "pre_mean": 46770, "post_mean": 47731, "pct": 2.05, "ci_low": 1.09, "ci_high": 3.21, "status": "increase", "interval_method": "95% seven-day cluster exponential-weight bootstrap; 200 draws", "matched_days_2024": 359, "matched_days_2025": 359, "complete_days_2024": 359, "complete_days_2025": 359, "expected_days": 361, "matched_weekdays": ["Mon", "Tue", "Wed", "Thu", "Fri", "Sat", "Sun"], "coverage_status": "at least 75% of month-weekday strata", "peak": {"am": {"pct": 2.37, "ci_low": 0.25, "ci_high": 4.81, "status": "increase", "n_2024": 257, "n_2025": 258}, "pm": {"pct": 1.79, "ci_low": 0.58, "ci_high": 2.86, "status": "increase", "n_2024": 257, "n_2025": 258}, "other": {"pct": 2.06, "ci_low": 1.07, "ci_high": 3.12, "status": "increase", "n_2024": 359, "n_2025": 359}}, "peak_definition": "weekday AM 07:00–09:59 and PM 16:00–18:59 on complete days; other hours include weekends"}, "jan_aug": {"2025": {"pct": 2.54, "ci_low": 1.6, "ci_high": 3.57, "status": "increase", "months": ["01", "02", "03", "04", "05", "06", "07", "08"], "days_2024": 238, "days_2025": 238}, "2026": {"pct": 0.01, "ci_low": -1.63, "ci_high": 1.47, "status": "uncertain", "months": ["01", "02", "03", "04", "05", "06", "07", "08"], "days_2024": 238, "days_2026": 238}}, "persistence": "inconclusive", "full_vs_jan_aug": "weakened", "limitation": "crossing counts; no tracked rerouting; Named facility corridor; representative point on source road geometry, not toll-plaza/sensor coordinates. No allocation of facility totals to component road segments. Manhattan branch (TBM), separately retained; only supplied traffic directions apply.", "geometry_note": "Named facility corridor; representative point on source road geometry, not toll-plaza/sensor coordinates. No allocation of facility totals to component road segments. Manhattan branch (TBM), separately retained; only supplied traffic directions apply.", "unit": "standardized vehicles per complete supplied-direction day"}}}, {"type": "Feature", "geometry": {"type": "Point", "coordinates": [-73.793, 40.8005]}, "properties": {"id": "throgs_neck", "name": "Throgs Neck Bridge", "layer": "bt_facility", "approx": true, "role": "Bronx-Queens bypass (Cross Bronx / Clearview corridor)", "directions": ["Northbound to Bronx", "Southbound to Queens"], "periods": {"pre_2023": {"total": 43576722, "days": 365, "avg_daily": 119388, "avg_weekday": 117506, "avg_weekend": 124049, "trucks_total": 3889971, "trucks_avg_daily": 10657, "truck_share": 0.0893, "peak_share": 0.8118, "hourly_weekday": [1858, 1144, 917, 1029, 1807, 4404, 6812, 7007, 6385, 6202, 5549, 5453, 5545, 5949, 7151, 7338, 7321, 7164, 6940, 6172, 5023, 4105, 3464, 2765], "hourly_weekend": [2769, 1803, 1183, 954, 1101, 1688, 2793, 3977, 5040, 6139, 6994, 7553, 7682, 7642, 7683, 7751, 7805, 7767, 7477, 7175, 6585, 5820, 4897, 3771]}, "pre_2024": {"total": 44746356, "days": 362, "avg_daily": 123609, "avg_weekday": 122423, "avg_weekend": 126549, "trucks_total": 3860135, "trucks_avg_daily": 10663, "truck_share": 0.0863, "peak_share": 0.8125, "hourly_weekday": [1986, 1231, 979, 1091, 1907, 4452, 6908, 7297, 6652, 6427, 6093, 6002, 6153, 6586, 7378, 7374, 7399, 7323, 7125, 6329, 5150, 4187, 3500, 2895], "hourly_weekend": [2881, 1872, 1233, 1004, 1181, 1794, 2897, 4017, 5157, 6257, 7140, 7674, 7754, 7742, 7785, 7816, 7954, 7908, 7657, 7320, 6771, 5929, 4986, 3821]}, "post_2025": {"total": 44818425, "days": 361, "avg_daily": 124151, "avg_weekday": 122507, "avg_weekend": 128267, "trucks_total": 3910706, "trucks_avg_daily": 10833, "truck_share": 0.0873, "peak_share": 0.8123, "hourly_weekday": [1917, 1236, 1016, 1113, 1920, 4612, 7095, 7213, 6636, 6342, 5896, 5823, 5899, 6406, 7396, 7462, 7527, 7514, 7290, 6421, 5235, 4234, 3492, 2814], "hourly_weekend": [2858, 1848, 1232, 1007, 1188, 1813, 2976, 4134, 5301, 6437, 7281, 7725, 7764, 7813, 7931, 7952, 8109, 8116, 7781, 7313, 6773, 5942, 5091, 3882]}, "post_2026_ytd": {"total": 29851007, "days": 243, "avg_daily": 122844, "avg_weekday": 121152, "avg_weekend": 127026, "trucks_total": 2569552, "trucks_avg_daily": 10574, "truck_share": 0.0861, "peak_share": 0.8074, "hourly_weekday": [1933, 1232, 1003, 1115, 1971, 4790, 7208, 7093, 6531, 6062, 5564, 5514, 5651, 6327, 7308, 7413, 7507, 7432, 7256, 6326, 5143, 4236, 3591, 2943], "hourly_weekend": [2949, 1846, 1234, 1017, 1193, 1880, 3110, 4130, 5237, 6339, 7113, 7618, 7710, 7664, 7856, 7870, 7997, 7909, 7612, 7150, 6624, 5960, 5101, 3908]}, "ytd_2024": {"total": 29455872, "days": 240, "avg_daily": 122733, "avg_weekday": 121452, "avg_weekend": 125907, "trucks_total": 2566928, "trucks_avg_daily": 10696, "truck_share": 0.0871, "peak_share": 0.8105, "hourly_weekday": [2009, 1259, 997, 1105, 1924, 4470, 6997, 7277, 6613, 6371, 6034, 5879, 5982, 6387, 7262, 7331, 7370, 7246, 7075, 6250, 5036, 4154, 3511, 2912], "hourly_weekend": [2889, 1840, 1227, 1004, 1190, 1800, 2909, 4011, 5129, 6222, 7100, 7683, 7750, 7723, 7742, 7739, 7891, 7813, 7526, 7215, 6628, 5859, 5072, 3944]}, "ytd_2025": {"total": 29721760, "days": 239, "avg_daily": 124359, "avg_weekday": 122902, "avg_weekend": 127948, "trucks_total": 2608163, "trucks_avg_daily": 10913, "truck_share": 0.0878, "peak_share": 0.8118, "hourly_weekday": [1892, 1234, 1013, 1117, 1912, 4620, 7136, 7219, 6653, 6381, 6029, 5915, 5977, 6495, 7383, 7456, 7533, 7522, 7255, 6381, 5186, 4269, 3534, 2791], "hourly_weekend": [2823, 1821, 1211, 1001, 1164, 1784, 2956, 4101, 5258, 6416, 7270, 7723, 7820, 7845, 7903, 7972, 8057, 8066, 7683, 7167, 6695, 5992, 5253, 3966]}}, "change": {"pct_2025_vs_2024": 0.4, "pct_2025_vs_2023": 4.0, "pct_2026ytd_vs_2025ytd": -1.2, "pct_2026ytd_vs_2024ytd": 0.1, "trucks_pct_2025_vs_2024": 1.6, "trucks_pct_2026ytd_vs_2024ytd": -1.1, "peak_share_delta_2025_vs_2024": -0.0002}, "by_direction": {"Northbound to Bronx": {"avg_daily_2024": 59055, "avg_daily_2025": 60544, "pct_2025_vs_2024": 2.5, "trucks_pct_2025_vs_2024": 3.2}, "Southbound to Queens": {"avg_daily_2024": 64553, "avg_daily_2025": 63606, "pct_2025_vs_2024": -1.5, "trucks_pct_2025_vs_2024": 0.0}}, "dac_designated": true, "dac_combined_pct": 0.834, "dac_asthma_pct": 0.79, "uhf42_code": null, "uhf42_name": null, "uhf42_asthma_ed_pm25_children": null, "uhf42_asthma_ed_children": null, "uhf42_poverty_pct": null, "uhf42_pm25_2024": null, "evidence": {"mta_facility_id": 29, "source": "second_pipeline/full_year_2024_2025_traffic.csv", "full_year": {"frame": "Jan 5–Dec 31, 2024 vs 2025", "pre_mean": 123411, "post_mean": 123910, "pct": 0.4, "ci_low": -0.19, "ci_high": 1.14, "status": "uncertain", "interval_method": "95% seven-day cluster exponential-weight bootstrap; 200 draws", "matched_days_2024": 359, "matched_days_2025": 359, "complete_days_2024": 359, "complete_days_2025": 359, "expected_days": 361, "matched_weekdays": ["Mon", "Tue", "Wed", "Thu", "Fri", "Sat", "Sun"], "coverage_status": "at least 75% of month-weekday strata", "peak": {"am": {"pct": -0.89, "ci_low": -2.93, "ci_high": 1.24, "status": "uncertain", "n_2024": 257, "n_2025": 258}, "pm": {"pct": 2.33, "ci_low": 1.37, "ci_high": 3.44, "status": "increase", "n_2024": 257, "n_2025": 258}, "other": {"pct": 0.29, "ci_low": -0.65, "ci_high": 1.08, "status": "uncertain", "n_2024": 359, "n_2025": 359}}, "peak_definition": "weekday AM 07:00–09:59 and PM 16:00–18:59 on complete days; other hours include weekends"}, "jan_aug": {"2025": {"pct": 1.3, "ci_low": 0.45, "ci_high": 2.27, "status": "increase", "months": ["01", "02", "03", "04", "05", "06", "07", "08"], "days_2024": 238, "days_2025": 238}, "2026": {"pct": 0.14, "ci_low": -1.26, "ci_high": 1.58, "status": "uncertain", "months": ["01", "02", "03", "04", "05", "06", "07", "08"], "days_2024": 238, "days_2026": 238}}, "persistence": "inconclusive", "full_vs_jan_aug": "inconclusive", "limitation": "crossing counts; no tracked rerouting; Named facility corridor; representative point on source road geometry, not toll-plaza/sensor coordinates. No allocation of facility totals to component road segments.", "geometry_note": "Named facility corridor; representative point on source road geometry, not toll-plaza/sensor coordinates. No allocation of facility totals to component road segments.", "unit": "standardized vehicles per complete supplied-direction day"}}}, {"type": "Feature", "geometry": {"type": "Point", "coordinates": [-74.0447, 40.6066]}, "properties": {"id": "verrazzano", "name": "Verrazzano - Narrows Bridge", "layer": "bt_facility", "approx": true, "role": "Staten Island-Brooklyn (Gowanus / BQE corridor)", "directions": ["Eastbound to Brooklyn", "Westbound to Staten Island"], "periods": {"pre_2023": {"total": 80761439, "days": 365, "avg_daily": 221264, "avg_weekday": 224684, "avg_weekend": 212796, "trucks_total": 3993721, "trucks_avg_daily": 10942, "truck_share": 0.0495, "peak_share": 0.7988, "hourly_weekday": [4115, 2523, 1842, 1940, 3769, 8295, 12832, 13088, 12493, 11529, 10573, 10265, 10551, 11258, 12601, 13697, 13849, 14064, 13427, 11504, 9513, 7947, 7005, 6005], "hourly_weekend": [5813, 3858, 2702, 2236, 2511, 3444, 5186, 6702, 8550, 10016, 11130, 12003, 12384, 12572, 12637, 12815, 12896, 12908, 12652, 11989, 11078, 10047, 9059, 7608]}, "pre_2024": {"total": 80170906, "days": 362, "avg_daily": 221467, "avg_weekday": 224576, "avg_weekend": 213753, "trucks_total": 4049598, "trucks_avg_daily": 11187, "truck_share": 0.0505, "peak_share": 0.7985, "hourly_weekday": [4171, 2558, 1890, 1976, 3804, 8502, 12851, 12994, 12406, 11490, 10643, 10370, 10589, 11194, 12615, 13658, 13773, 13923, 13385, 11467, 9510, 7947, 6938, 5922], "hourly_weekend": [5774, 3883, 2706, 2213, 2527, 3542, 5249, 6777, 8631, 10212, 11273, 11978, 12362, 12524, 12589, 12712, 12819, 12871, 12694, 12099, 11303, 10195, 9200, 7618]}, "post_2025": {"total": 80361707, "days": 361, "avg_daily": 222609, "avg_weekday": 226700, "avg_weekend": 212361, "trucks_total": 4001382, "trucks_avg_daily": 11084, "truck_share": 0.0498, "peak_share": 0.8004, "hourly_weekday": [3973, 2484, 1874, 1986, 3825, 8688, 12827, 13258, 12574, 11739, 10921, 10556, 10824, 11507, 12687, 13662, 13747, 13986, 13458, 11554, 9695, 8083, 6992, 5802], "hourly_weekend": [5652, 3795, 2640, 2191, 2510, 3576, 5235, 6918, 8799, 10371, 11346, 11922, 12258, 12343, 12467, 12610, 12758, 12890, 12540, 11833, 11009, 9999, 9101, 7598]}, "post_2026_ytd": {"total": 53234615, "days": 243, "avg_daily": 219072, "avg_weekday": 223059, "avg_weekend": 209221, "trucks_total": 2734798, "trucks_avg_daily": 11254, "truck_share": 0.0514, "peak_share": 0.7983, "hourly_weekday": [3940, 2478, 1872, 1972, 3841, 8604, 12570, 13039, 12406, 11555, 10720, 10451, 10656, 11294, 12458, 13362, 13517, 13794, 13196, 11330, 9492, 7955, 6842, 5715], "hourly_weekend": [5744, 3793, 2632, 2205, 2574, 3650, 5270, 6880, 8604, 10264, 11206, 11818, 11999, 12233, 12320, 12333, 12423, 12411, 12137, 11467, 10749, 9831, 9077, 7600]}, "ytd_2024": {"total": 52953906, "days": 240, "avg_daily": 220641, "avg_weekday": 223848, "avg_weekend": 212695, "trucks_total": 2652568, "trucks_avg_daily": 11052, "truck_share": 0.0501, "peak_share": 0.7982, "hourly_weekday": [4176, 2558, 1888, 1971, 3797, 8485, 12884, 13010, 12423, 11478, 10603, 10324, 10525, 11097, 12524, 13596, 13737, 13945, 13316, 11297, 9417, 7936, 6945, 5915], "hourly_weekend": [5741, 3815, 2675, 2207, 2522, 3526, 5262, 6841, 8678, 10296, 11293, 12079, 12354, 12526, 12546, 12618, 12647, 12722, 12575, 11763, 11045, 10049, 9202, 7716]}, "ytd_2025": {"total": 53272974, "days": 239, "avg_daily": 222899, "avg_weekday": 226974, "avg_weekend": 212861, "trucks_total": 2670356, "trucks_avg_daily": 11173, "truck_share": 0.0501, "peak_share": 0.7991, "hourly_weekday": [4020, 2546, 1905, 2008, 3861, 8728, 12873, 13313, 12616, 11792, 10962, 10562, 10833, 11474, 12651, 13606, 13738, 14035, 13478, 11492, 9655, 8078, 6953, 5794], "hourly_weekend": [5702, 3781, 2629, 2205, 2516, 3563, 5235, 6957, 8850, 10428, 11472, 11993, 12325, 12395, 12540, 12650, 12665, 12860, 12521, 11611, 10857, 9995, 9290, 7820]}}, "change": {"pct_2025_vs_2024": 0.5, "pct_2025_vs_2023": 0.6, "pct_2026ytd_vs_2025ytd": -1.7, "pct_2026ytd_vs_2024ytd": -0.7, "trucks_pct_2025_vs_2024": -0.9, "trucks_pct_2026ytd_vs_2024ytd": 1.8, "peak_share_delta_2025_vs_2024": 0.0019}, "by_direction": {"Eastbound to Brooklyn": {"avg_daily_2024": 111597, "avg_daily_2025": 112051, "pct_2025_vs_2024": 0.4, "trucks_pct_2025_vs_2024": -2.6}, "Westbound to Staten Island": {"avg_daily_2024": 109869, "avg_daily_2025": 110558, "pct_2025_vs_2024": 0.6, "trucks_pct_2025_vs_2024": 0.9}}, "dac_designated": false, "dac_combined_pct": 0.533, "dac_asthma_pct": 0.648, "uhf42_code": null, "uhf42_name": null, "uhf42_asthma_ed_pm25_children": null, "uhf42_asthma_ed_children": null, "uhf42_poverty_pct": null, "uhf42_pm25_2024": null, "evidence": {"mta_facility_id": 30, "source": "second_pipeline/full_year_2024_2025_traffic.csv", "full_year": {"frame": "Jan 5–Dec 31, 2024 vs 2025", "pre_mean": 221523, "post_mean": 222561, "pct": 0.47, "ci_low": -0.17, "ci_high": 1.24, "status": "uncertain", "interval_method": "95% seven-day cluster exponential-weight bootstrap; 200 draws", "matched_days_2024": 359, "matched_days_2025": 359, "complete_days_2024": 359, "complete_days_2025": 359, "expected_days": 361, "matched_weekdays": ["Mon", "Tue", "Wed", "Thu", "Fri", "Sat", "Sun"], "coverage_status": "at least 75% of month-weekday strata", "peak": {"am": {"pct": 1.84, "ci_low": 0.27, "ci_high": 3.4, "status": "increase", "n_2024": 257, "n_2025": 258}, "pm": {"pct": 0.29, "ci_low": -0.4, "ci_high": 0.99, "status": "uncertain", "n_2024": 257, "n_2025": 258}, "other": {"pct": 0.28, "ci_low": -0.45, "ci_high": 0.89, "status": "uncertain", "n_2024": 359, "n_2025": 359}}, "peak_definition": "weekday AM 07:00–09:59 and PM 16:00–18:59 on complete days; other hours include weekends"}, "jan_aug": {"2025": {"pct": 1.0, "ci_low": 0.18, "ci_high": 1.69, "status": "increase", "months": ["01", "02", "03", "04", "05", "06", "07", "08"], "days_2024": 238, "days_2025": 238}, "2026": {"pct": -0.69, "ci_low": -2.26, "ci_high": 1.04, "status": "uncertain", "months": ["01", "02", "03", "04", "05", "06", "07", "08"], "days_2024": 238, "days_2026": 238}}, "persistence": "inconclusive", "full_vs_jan_aug": "inconclusive", "limitation": "crossing counts; no tracked rerouting; Named facility corridor; representative point on source road geometry, not toll-plaza/sensor coordinates. No allocation of facility totals to component road segments.", "geometry_note": "Named facility corridor; representative point on source road geometry, not toll-plaza/sensor coordinates. No allocation of facility totals to component road segments.", "unit": "standardized vehicles per complete supplied-direction day"}}}]}